uprn,house name,house number,street,licence start,licence expiry,permitted no of occupiers,permitted no. of households,address,postcode
100030453388,,69, Meadow Lane,21 March 2024,20 March 2029,10,1,Loughborough, LE11 1JU
100030453391,,72, Meadow Lane,25 March 2024,24 March 2029,8,1,Loughborough, LE11 1JU
10023778152,Flat 1 ,Great Central Apartments      2a, Wharncliffe Road,11 March 2024,10 March 2029,4,1,Loughborough, LE11 1SN 
10023778153,Flat 2 ,2a, Wharncliffe Road,04 March 2024,03 March 2029,1,1,Loughborough, LE11 1SN
10023778154,Flat 3,2a, Wharncliffe Road,11 March 2024,10 March 2029,2,1,Loughborough, LE11 1SN
10023778155,Flat 4,2d, Wharncliffe Road,15 November 2023,14 November 2028,2,1,Loughborough, LE11 1SN
10023778158,,2a, Wharncliffe Road,14 October 2023,13 October 2028,2,1,Loughborough, LE11 1SN 
10023778159,Flat 8,2a, Wharncliffe Road,14 October 2023,13 October 2028,1,1,Loughborough, LE11 1SN
10023778161,,Reids Cottage                          2b, Wharncliffe Road,11 March 2024,10 March 2029,6,1,Loughborough, LE11 1SN
 10091071209,Flat 1,2a, Wharncliffe Road,19 February 2024,18 February 2029,1,1,Loughborough, LE11 1SN
200000844872,,1, Annies Wharf ,18 March 2024,17 March 2029,5,1,Loughborough, LE11 1LD
200000844891,,4, Annies Wharf ,08 November 2023,07 November 2028,5,1,Loughborough, LE11 1LD
200000844893,,6, Annies Wharf ,29 February 2024,28 February 2029,5,1,Loughborough, LE11 1LD
100030450652,,73,Leopold Street,14 November 2023,13 November 2027,4,4,Loughborough, LE11 5DN
100030456532,,62,Oxford Street,12 November 2023,11 November 2028,6,6,Loughborough, LE11 5DR
10094174229,Flat 2,12,"Packe Street,",21 September 2023,20 September 2028,6,6,Loughborough, LE11 3EZ
10095778452,Flat 1,12,"Packe Street,",21 September 2023,20 September 2028,6,6,Loughborough, LE11 3EZ
10093366071,Flat 2 Tatmarsh House,2,Gladstone Avenue,22 February 2024,21 February 2029,4,1,Loughborough, LE11 1NP
10093366072,Flat 3 Tatmarsh House,2,Gladstone Avenue,22 February 2024,21 February 2029,2,1,Loughborough, LE11 1NP
10093366073,Flat 5 Tatmarsh House,2,Gladstone Avenue,22 February 2024,21 February 2029,2,1,Loughborough, LE11 1NP
10093366074,Flat 4 Tatmarsh House,2,Gladstone Avenue,26 February 2024,25 February 2029,2,1,Loughborough, LE11 1NP
10093366076,Flat 6 Tatmarsh House,2,Gladstone Avenue,26 February 2024,25 February 2029,2,1,Loughborough, LE11 1NP
10093366077,Flat 7 Tatmarsh House,2,Gladstone Avenue,26 February 2024,25 February 2029,2,1,Loughborough, LE11 1NP
10093366078,Flat 8 Tatmarsh House,2,Gladstone Avenue,26 February 2024,25 February 2029,2,1,Loughborough, LE11 1NP
10093366079,Flat 9 Tatmarsh House,2,Gladstone Avenue,26 February 2024,25 February 2029,2,1,Loughborough, LE11 1NP
10093366080,Flat 10 Tatmarsh House,2,Gladstone Avenue,26 February 2024,25 February 2029,2,1,Loughborough, LE11 1NP
100030444011 ,Flat 1 Tatmarsh House,2,Gladstone Avenue,22 February 2024,21 February 2029,2,1,Loughborough, LE11 1NP
10094171591,Flat 2,52a,Baxter Gate,04 December 2023,03 December 2028,2,1,Loughborough, LE11 1FT
10094171592,"Flat 3,",52a,Baxter Gate,08 October 2023,07 October 2028,2,1,Loughborough, LE11 1FT
10094171593,"Flat 4,",52a,Baxter Gate,08 October 2023,07 October 2028,2,1,Loughborough, LE11 1FT
10094171597,Flat 8,52a,Baxter Gate,08 October 2023,07 October 2028,2,1,Loughborough, LE11 1FT
10094171598,Flat 9,52a,Baxter Gate,08 October 2023,07 October 2028,4,1,Loughborough, LE11 1FT
10094171594,Flat 5,52a,Baxter Gate,08 October 2023,07 October 2028,2,1,Loughborough, LE11 1FT
10094171595,Flat 6,52a,Baxter Gate,08 October 2023,07 October 2028,2,1,Loughborough, LE11 1FT
10094171596,Flat 7,52a,Baxter Gate,08 October 2023,07 October 2028,2,1,Loughborough, LE11 1FT
10094171590,Flat 1,52a,Baxter Gate,06 October 2023,05 October 2028,2,1,Loughborough, LE11 1FT
10004000810,,2,Adam Dale,18 December 2023,17 December 2028,5,5,Loughborough, LE11 3HD
10004000811,,3,Adam Dale,12 July 2022,11 July 2027,6,6,Loughborough, LE11 3HD
10004000812,,4,Adam Dale,15 November 2023,14 November 2028,4,4,Loughborough, LE11 3HD
10004000813,,5,Adam Dale,07 February 2019,07 February 2024,5,5,Loughborough, LE11 3HD
10004000818,,10,Adam Dale,18 April 2023,14 October 2027,6,6,Loughborough, LE11 3HD
10004000819,,11,Adam Dale,31 March 2020,31 March 2025,5,5,Loughborough, LE11 3HD
10004000824,,17,Adam Dale,21 February 2023,20 February 2028,5,4,Loughborough, LE11 3HD
10004000830,,23,Adam Dale,11 January 2024,10 January 2029,3,3,Loughborough, LE11 3HD
10004000834,,27,Adam Dale,06 March 2024,05 March 2029,3,3,Loughborough, LE11 3HD
10004000839,,32,Adam Dale,06 March 2024,05 March 2029,3,3,Loughborough, LE11 3HD
10004000843,,36,Adam Dale,04 March 2024,03 March 2029,5,5,Loughborough, LE11 3HD
10004000843,,36,Adam Dale,05 July 2019,19 December 2023,5,5,Loughborough, LE11 3HD
10004000847,,40,Adam Dale,15 March 2021,14 March 2026,6,6,Loughborough, LE11 3HD
10004000848,,41,Adam Dale,23 August 2019,23 August 2024,5,5,Loughborough, LE11 3HD
10004000849,,42,Adam Dale,21 February 2024,20 February 2029,5,5,Loughborough, LE11 3HD
100030439219,,45,Adam Dale,15 January 2024,14 February 2024,2,2,Loughborough, LE11 3HD
10004001346,,1,Adcocks Close,19 October 2023,18 October 2028,4,2,Loughborough, LE11 1HZ
10004001348,,3,Adcocks Close,12 February 2024,11 February 2029,7,1,Loughborough, LE11 1HZ
10004001349,,4,Adcocks Close,06 October 2023,05 October 2028,4,1,Loughborough, LE11 1HZ
10004001354,,9,Adcocks Close,06 October 2023,05 October 2028,4,1,Loughborough, LE11 1HZ
10004001356,,11,Adcocks Close,06 October 2023,05 October 2028,4,1,Loughborough, LE11 1HZ
10004001363,,19,Adcocks Close,09 October 2023,08 October 2028,2,2,Loughborough, LE11 1HZ
10004001364,,20,Adcocks Close,09 October 2023,08 October 2028,2,2,Loughborough, LE11 1HZ
10004001355,,10,Adcocks Close,13 February 2024,12 February 2024,4,1,Loughborough,LE11 1HZ
10004001361,,17,Adcocks Close ,13 November 2023,12 November 2028,2,2,Loughborough, LE11 1HZ
 10004001368,,25,Adcocks Close ,15 November 2023,14 November 2028,2,2,Loughborough, LE11 1HZ
10004001351,,6,Adcocks Close ,20 March 2024,19 March 2029,6,1,Loughborough,LE11 1HZ
10004001352,,7,Adcocks Close ,16 February 2024,15 February 2029,4,1,Loughborough,LE11 1HZ
10004001350,,5,Adcocks Lose,06 October 2023,05 October 2028,3,1,Loughborough, LE11 1HZ
10004001353,,8,Adcocks Lose,11 March 2024,20 March 2024,8,1,Loughborough, LE11 1HZ
100030430439,,24,Alan Moss Road,22 February 2024,21 February 2029,2,2,Loughborough, LE11 5LX
100030430452,,37,Alan Moss Road,19 March 2024,18 March 2029,4,4,Loughborough, LE11 5LR
100030430494,,80,Alan Moss Road,21 December 2023,20 December 2028,4,4,Loughborough, LE11 5LY
100030430496,,82,Alan Moss Road,21 December 2023,20 December 2028,4,4,Loughborough, LE11 5LY
100030430516,,102,Alan Moss Road,08 March 2024,07 March 2029,4,4,Loughborough, LE11 5LY
100030430524,,110,Alan Moss Road,08 November 2023,07 November 2028,4,4,Loughborough, LE11 5LY
100030430533,,119,Alan Moss Road,21 December 2023,20/1/12/28,4,4,Loughborough, LE11 5LY
100030430534,,120,Alan Moss Road,23 October 2023,22 October 2028,4,4,Loughborough, LE11 5LY
100030430546,,140,Alan Moss Road,26 March 2024,25 March 2029,4,4,Loughborough, LE11 5LY
100030430551,,150,Alan Moss Road,25 February 2024,24 February 2029,3,3,Loughborough, LE11 5LY
100030430556,,182,Alan Moss Road,11 March 2024,10 March 2029,4,4,Loughborough, LE11 4LZ
100030430564,,192,Alan Moss Road,06 March 2024,05 March 2029,4,4,Loughborough, LE11 4LZ
100030430594,,222,Alan Moss Road,15 November 2023,14 November 2028,5,5,Loughborough, LE11 4LZ
100030430596,,224,Alan Moss Road,05 March 2024,04 March 2029,5,5,Loughborough, LE11 4LZ
100030430603,,231,Alan Moss Road,21 December 2023,20 December 2028,4,4,Loughborough, LE11 4LT
100030430604,,232,Alan Moss Road,13 March 2024,12 March 2029,4,4,Loughborough, LE11 4LZ
100030430610,,238a,Alan Moss Road,14 December 2023,09 April 2028,6,6,Loughborough, LE11 4LZ
100030430616,,244,Alan Moss Road,25 March 2024,24 March 2029,5,5,Loughborough, LE11 4NA
100030430632,,260,Alan Moss Road,13 December 2023,12 December 2028,4,4,Loughborough, LE11 4NA
100030430635,,263,Alan Moss Road,19 February 2024,18 February 2029,4,4,Loughborough, LE11 4NA
100030430639,,267,Alan Moss Road,15 November 2023,14 November 2028,4,4,Loughborough, LE11 4LU
100030430702,,5,Albert Place,26 April 2023,13 July 2027,4,4,Loughborough, LE11 2DN
100030430712,,1,Albert Promenade,11 January 2024,10 January 2029,6,1,Loughborough, LE11 1RB
100030430713,,3,Albert Promenade,29 February 2024,25 February 2029,8,1,Loughborough, LE11 1RB
100030430714,,4a,Albert Promenade,15 February 2024,14 February 2029,9,1,Loughborough, LE11 1RE
100030430759,,49,Albert Promenade,11 March 2024,10 March 2029,10,1,Loughborough, LE11 1RB
100030430774,,64,Albert Promenade,11 March 2024,10 March 2029,8,1,Loughborough, LE11 1RE
100030430794,,84,Albert Promenade,04 March 2024,03 March 2029,4,4,Loughborough, LE11 1RE
100030430734 ,,22,Albert Promenade,19 February 2024,18 February 2029,8,1,Loughborough, LE11 1RE
100030430729,,16,Albert Promenade,03 October 2023,02 October 2028,5,1,Loughborough,LE11 1RE
100030430781,,70,Albert Promenade,16 February 2024,15 February 2029,10,1,Loughborough,LE11 1RF
100030430728,,16a,Albert Promenade ,17 October 2023,16 October 2028,2,1,Loughborough, LE11 1RE
100030430732,,20,Albert Promenade ,18 March 2024,17 March 2029,8,1,Loughborough, LE11 1RE
100030430882,,21,Albert Promenade ,25 March 2024,24 March 2029,4,4,Loughborough, LE11 2DW
100030430874,,13,Albert Street,15 November 2023,14 November 2028,4,4,Loughborough, LE11 2DW
100030430951,,3,Alfred Street,08 November 2023,07 November 2028,4,4,Loughborough, LE11 1NG
100030430957,,9,Alfred Street,14 March 2024,13 March 2029,6,1,Loughborough, LE11 1NG
100030431188,,16,Ambleside Close,06 December 2018,06 December 2023,7,7,Loughborough, LE11 3SH
200000844888,,25,Annies Wharf,16 February 2024,15 February 2028,4,1,Loughborough,LE11 1LD
200000844874,,11,Annies Wharf,26 October 2023,25 October 2028,3,1,Loughborough, LE11 1LD
200000844877,,15,Annies Wharf,18 March 2024,17 March 2029,5,1,Loughborough, LE11 1LD
200000844884,Flat 21,21-24,Annies Wharf,11 December 2023,10 December 2028,6,1,Loughborough, LE11 1LD
100030410144,,2,Archdale Street,19 April 2022,18 April 2027,5,5,Syston, LE7 1NA
100030431470,,7,Arthur Street,09 August 2023,29 January 2028,5,5,Loughborough, LE11 3AY
100030431464,,1,Arthur Street,02 August 2022,01 August 2027,5,5,Loughborough, LE11 3AY
100030431466,,3,Arthur Street,07 December 2020,06 December 2025,5,5,Loughborough, LE11 3AY
100030431467,,4,Arthur Street,05 March 2024,04 March 2029,3,3,Loughborough, LE11 3AY
100030431468,,5,Arthur Street,21 November 2018,21 November 2023,5,5,Loughborough, LE11 3AY
100030431471,,8,Arthur Street,14 February 2023,14 June 2027,6,6,Loughborough, LE11 3AY
100030431473,,10,Arthur Street,08 February 2022,07 February 2027,6,6,Loughborough, LE11 3AY
100030431474,,11,Arthur Street,12 March 2024,11 March 2029,3,3,Loughborough, LE11 3AY
100030431475,,12,Arthur Street,05 March 2024,04 March 2029,4,4,Loughborough, LE11 3AY
100030431480,,17,Arthur Street,13 March 2024,12 March 2029,4,4,Loughborough, LE11 3AY
100030431481,,18,Arthur Street,05 March 2024,04 March 2029,4,4,Loughborough, LE11 3AY
100030431483,,20,Arthur Street,12 July 2022,10 October 2026,5,5,Loughborough, LE11 3AY
100030431484,,21,Arthur Street,20 December 2023,19 December 2028,4,4,Loughborough, LE11 3AY
100030431485,,22,Arthur Street,12 July 2022,20 October 2026,5,5,Loughborough, LE11 3AY
100030431487,,24,Arthur Street,19 December 2022,13 July 2027,6,6,Loughborough, LE11 3AY
100030431488,,25,Arthur Street,14 September 2023,13 September 2028,5,5,Loughborough, LE11 3AY
100030431489,,26,Arthur Street,10 October 2023,09 October 2028,6,6,Loughborough, LE11 3AY
100030431491,,28,Arthur Street,01 March 2024,20 October 2023,5,5,Loughborough, LE11 3AY
100030431493,,30,Arthur Street,07 September 2023,30 October 2027,6,6,Loughborough, LE11 3AY
100030431495,,32,Arthur Street,24 March 2021,03 October 2025,5,5,Loughborough, LE11 3AY
100030431499,,36,Arthur Street,04 January 2024,30 September 2028,5,5,Loughborough, LE11 3AY
100030431500,,37,Arthur Street,21 March 2024,20 March 2029,4,4,Loughborough, LE11 3AY
100030431503,,40,Arthur Street,20 December 2022,13 July 2027,6,6,Loughborough, LE11 3AY
100030431505,,42,Arthur Street,19 February 2024,18 February 2029,6,6,Loughborough, LE11 3AY
100030431507,,44,Arthur Street,04 November 2019,04 November 2024,6,6,Loughborough, LE11 3AY
100030431508,,45,Arthur Street,14 February 2023,14 June 2027,5,5,Loughborough, LE11 3AY
100030431510,,47,Arthur Street,07 December 2023,06 December 2028,6,6,Loughborough, LE11 3AY
100030431511,,49,Arthur Street,19 August 2019,19 August 2024,6,6,Loughborough, LE11 3AY
100030431568,,3,Ashby Crescent,14 December 2018,14 December 2023,5,5,Loughborough, LE11 4ES
100030431568,,3,Ashby Crescent,13 March 2024,12 March 2029,5,5,Loughborough, LE11 4ES
100030431569,,5,Ashby Crescent,08 March 2024,07 March 2029,4,4,Loughborough, LE11 4ES
100030431575,,17,Ashby Crescent,18 March 2022,17 March 2027,5,5,Loughborough, LE11 4ES
10012191580,,145,Ashby Road,01 February 2021,16 December 2025,8,8,Loughborough, LE11 3AD
10070069310,,66a,Ashby Road,02 November 2023,01 November 2028,4,3,Loughborough, LE11 3AE
10070073883,,85a,Ashby Road,22 February 2021,21 February 2026,5,5,Loughborough, LE11 3AB
10070075179,Flat,86-88,Ashby Road,23 December 2019,31 May 2024,7,7,Loughborough, LE11 3AE
10070075181,,"Flat, 39",Ashby Road,12 October 2023,11 October 2028,3,3,Loughborough, LE11 3AA
10094174532,,115,Ashby Road,14 September 2019,13 September 2024,8,8,Loughborough, LE11 3AB
10094174533,,115b,Ashby Road,16 December 2021,15 December 2026,5,5,Loughborough, LE11 3AB
100030431645,,33a,Ashby Road,04 March 2024,03 March 2029,3,3,Loughborough, LE11 3AA
100030431648,,35b,Ashby Road,05 March 2024,04 March 2029,3,3,Loughborough, LE11 3AA
100030431677,,78,Ashby Road,06 November 2023,05 November 2028,3,3,Loughborough, LE11 3AE
100030431678,,80,Ashby Road,09 November 2023,08 November 2028,4,3,Loughborough, LE11 3AE
100030431679,,82,Ashby Road,05 March 2024,04 March 2029,3,3,Loughborough, LE11 3AE
100030431684,,92a,Ashby Road,05 November 2023,04 November 2028,5,4,Loughborough, LE11 3AE
100030431687,,101,Ashby Road,05 July 2023,04 July 2028,7,7,Loughborough, LE11 3AB
100030431690,,108,Ashby Road,12 March 2024,11 March 2029,3,2,Loughborough, LE11 3AF
100030431695,,115A,Ashby Road,23 June 2020,13 January 2025,7,7,Loughborough, LE11 3AB
100030431706,,137,Ashby Road,01 February 2021,16 December 2025,9,9,Loughborough, LE11 3AD
100030431707,,141-143,Ashby Road,01 February 2021,16 December 2025,19,19,Loughborough, LE11 3AD
100030431708,,147,Ashby Road,15 February 2021,16 December 2025,9,9,Loughborough, LE11 3AD
100030431709,,149,Ashby Road,15 February 2021,16 December 2025,12,12,Loughborough, LE11 3AD
100030431713,,154,Ashby Road,27 September 2022,03 April 2027,5,5,Loughborough, LE11 3AG
100030431720,,168,Ashby Road,05 March 2019,05 March 2024,7,7,Loughborough, LE11 3AG
100030431726,,180,Ashby Road,21 March 2024,21 March 2029,6,6,Loughborough, LE11 3AG
100030431726,,180,Ashby Road,24 January 2019,24 January 2024,5,5,Loughborough, LE11 3AG
100030431733,Westfields,192,Ashby Road,03 June 2020,03 June 2025,10,10,Loughborough, LE11 3AG
100030431734,Essex Lodge,194,Ashby Road,11 January 2024,14 January 2028,15,15,Loughborough, LE11 3AG
100030431735,,196,Ashby Road,28 January 2019,28 January 2024,8,8,Loughborough, LE11 3AG
100030431736,,200,Ashby Road,28 January 2019,28 January 2024,6,6,Loughborough, LE11 3AG
100030431743,,213,Ashby Road,14 March 2024,13 March 2029,4,4,Loughborough, LE11 3AD
100030454977,,443,Ashby Road,18 March 2024,17 March 2029,5,5,Loughborough, LE11 3AD
100032039932,,139,Ashby Road,08 February 2021,16 December 2025,9,9,Loughborough, LE11 3AD
100032039967,Condor Mansion,198,Ashby Road,28 January 2019,28 January 2024,5,5,Loughborough, LE11 3AG
10095777658,Flat 1,62a,Ashby Road,14 February 2024,13 February 2029,7,7,Loughborough,LE11 3AE
10095777659,Flat2,62a,Ashby Road,14 February 2024,13 February 2029,5,5,Loughborough,LE11 3AE
10070073884,,45a,Ashby Square,14 March 2024,13 March 2029,4,4,Loughborough, LE11 5AA
100032040448,Ashby House,1,Ashby Square,29 November 2019,28 November 2024,5,5,Loughborough, LE11 5AA
100030431846,,19,Ashleigh Drive,06 January 2022,05 January 2027,5,5,Loughborough, LE11 3HN
100030431852,,25,Ashleigh Drive,31 October 2023,20 October 2028,4,4,Loughborough, LE11 3HN
100030431853,,26,Ashleigh Drive,11 March 2024,10 March 2029,3,3,Loughborough, LE11 3HW
100030431858,,34,Ashleigh Drive,21 March 2024,20 March 2029,4,4,Loughborough, LE11 3HW
100030431859,,36,Ashleigh Drive,25 October 2018,25 October 2023,8,8,Loughborough, LE11 3HW
100030431865,,43,Ashleigh Drive,22 March 2021,21 March 2026,6,6,Loughborough, LE11 3HN
100030431866,,44a,Ashleigh Drive,04 October 2018,04 October 2023,6,6,Loughborough, LE11 3HW
100030431868,,45,Ashleigh Drive,03 January 2024,02 January 2029,3,3,Loughborough, LE11 3HN
100030431869,,46,Ashleigh Drive,16 December 2021,15 December 2026,6,6,Loughborough, LE11 3HW
100030431870,,47,Ashleigh Drive,18 January 2019,18 January 2024,6,6,Loughborough, LE11 3HN
100030431866 ,,44a,Ashleigh Drive,16 February 2024,15 February 2029,6,6,Loughborough, LE11 3HW
100030431873,,53,Ashleigh Drive ,17 October 2023,16 October 2028,4,4,Loughborough, LE11 3HN
10070073601,,83,Atherstone Road,06 December 2018,06 December 2023,5,5,Loughborough, LE11 2SH
10070073602,,83a,Atherstone Road,29 February 2024,28 February 2029,4,4,Loughborough, LE11 2SH
100030432325,,1,Bainbridge Road,15 February 2019,15 February 2024,6,6,Loughborough, LE11 2LE
100030432505,,1,Bampton Street,19 March 2024,18 March 2029,4,4,Loughborough, LE11 2DR
100030432507,,3,Bampton Street,13 March 2024,12 March 2029,4,4,Loughborough, LE11 2DR
100030432511,,7,Bampton Street,19 February 2024,18 February 2029,3,3,Loughborough, LE11 2DR
100030432512,,8,Bampton Street,25 March 2024,24 March 2029,3,3,Loughborough, LE11 2DR
100030432517,,13,Bampton Street,26 February 2021,25 July 2025,6,6,Loughborough, LE11 2DR
10004001016,"Flat 54,",47-54,Barnsdale Close,30 October 2028,29 October 2028,4,1,Loughborough, LE11 5AN 
10004000986,Flat 24,23-30,Barnsdale Close,06 December 2023,05 December 2028,4,1,Loughborough, LE11 5AN 
10004000987,Flat 25,23-30,Barnsdale Close,15 January 2024,14 January 2029,4,1,Loughborough, LE11 5AN 
10004000988,Flat 26,23-30,Barnsdale Close,13 February 2024,12 February 2029,4,1,Loughborough, LE11 5AN 
10004000990,Flat 28,23-30,Barnsdale Close,06 March 2024,05 March 2029,3,3,Loughborough, LE11 5AN 
10004000991,Flat 29,23-30,Barnsdale Close,06 March 2024,05 March 2029,3,3,Loughborough, LE11 5AN 
10004000992,Flat 30,23-30,Barnsdale Close,06 March 2024,05 March 2029,3,3,Loughborough, LE11 5AN 
10004000994,Flat 32,31-38,Barnsdale Close,16 February 2024,15 February 2029,4,1,Loughborough, LE11 5AN 
10004000995,Flat 33,31-38,Barnsdale Close,13 February 2024,12 February 2029,6,1,Loughborough, LE11 5AN 
10004001004,Flat 42,39-46,Barnsdale Close,13 February 2024,12 February 2029,6,1,Loughborough, LE11 5AN 
10004001010,Flat 48 ,47-54,Barnsdale Close,13 February 2024,12 February 2029,4,1,Loughborough, LE11 5AN 
10004001007,Flat 45,39-46,Barnsdale Close  ,19 October 2023,18 October 2028,2,2,Loughborough, LE11 5AN 
10004001008,Flat 46,39-46,Barnsdale Close  ,21 March 2024,20 March 2029,4,1,Loughborough, LE11 5AN 
10004001013,Flat 51,47-54,Barnsdale Close  ,14 March 2024,13 March 2029,4,1,Loughborough, LE11 5AN 
100030433132,,51a,Baxter Gate,23 October 2023,22 October 2028,2,1,Loughborough, LE11 1TH
10070074603,,17,Baxter Gate,16 June 2021,15 June 2026,5,5,Loughborough, LE11 1TG
10091071956,Flat 1,61,Baxter Gate,09 February 2024,08 February 2029,6,1,Loughborough, LE11 1TH
10091071957,,Flat 2,Baxter Gate,05 February 2024,04 February 2029,4,2,Loughborough, LE11 1TH
10091071957,Flat 2,61,Baxter gate,04 March 2024,03 March 2029,4,1,Loughborough, LE11 1TH
10091071958,Flat 3,61,Baxter Gate,06 October 2023,05 October 2028,8,1,Loughborough, LE11 1TH
10091071959,Flat 4,61,Baxter Gate,06 October 2023,05 October 2028,2,1,Loughborough, LE11 1TH
10095774214,Flat 2,39-40,Baxter Gate,29 February 2024,28 February 2029,2,1,Loughborough, LE11 1TQ
10095774215,Flat 3 ,39-40,Baxter Gate,13 February 2024,12 February 2029,2,1,Loughborough, LE11 1TQ
10095774216,Flat 4,39-40,Baxter Gate,29 February 2024,28 February 2028,2,1,Loughborough, LE11 1TQ
10095774217,Flat 5,39-40,Baxter Gate,29 February 2024,28 February 2029,2,1,Loughborough, LE11 1TQ
10095774218,Flat 6,39-40,Baxter Gate,29 February 2024,28 February 2029,2,1,Loughborough, LE11 1TQ
10095774219,Flat 7,39-40,Baxter Gate,29 February 2024,28 February 2029,1,1,Loughborough, LE11 1TQ
10095774220,Flat 8,39-40,Baxter Gate,29 February 2024,28 February 2029,2,1,Loughborough, LE11 1TQ
10095774221,Flat 9,39-40,Baxter Gate,29 February 2024,28 February 2029,6,1,Loughborough, LE11 1TQ
10095774213 ,Flat 1,39-40,Baxter Gate,04 March 2024,03 March 2029,2,1,Loughborough, LE11 1TH
100030433182,,17,Beacon Avenue,08 November 2023,07 November 2028,4,4,Loughborough, LE11 3HP
100030433358,,79,Beacon Avenue,08 November 2023,07 November 2028,4,4,Loughborough, LE11 3HP
100030433290,,12,Beacon Road,10 January 2020,10 January 2025,6,6,Loughborough, LE11 2BQ
100030433311,,26,Beacon Road,21 February 2024,20 February 2029,4,4,Loughborough, LE11 2BQ
100030433315,,30,Beacon Road,29 June 2023,28 June 2028,5,5,Loughborough, LE11 2BQ
100030433317,,34,Beacon Road,24 December 2018,24 December 2023,5,5,Loughborough, LE11 2BQ
100030433331,,50,Beacon Road,18 March 2024,17 March 2029,6,6,Loughborough, LE11 2BJ
100030433342,,62,Beacon Road,12 March 2021,11 January 2026,6,6,Loughborough, LE11 2BQ
100030433354,,75,Beacon Road,04 August 2021,03 August 2026,6,6,Loughborough, LE11 2BE
100030433367,,88,Beacon Road,13 March 2024,12 March 2029,4,4,Loughborough, LE11 3PS
100030433368,,89,Beacon Road,18 September 2020,18 September 2025,5,5,Loughborough, LE11 2BG
100030433406,,215,Beacon Road,23 November 2021,22 November 2026,5,5,Loughborough, LE11 2QZ
100030433376 ,,98,Beacon Road,13 February 2024,12 February 2029,3,3,Loughborough,LE11 2BH
100030433443,,268,Beacon Road,05 March 2024,04 March 2029,3,3,Loughborough,LE11 2RD
100030433830,,12,Beeches Road,14 March 2024,13 March 2029,7,1,Loughborough, LE11 2NS
100030433869,,3,Belton Road,18 March 2024,17 March 2029,6,1,Loughborough, LE11 1JA
100030434068,,57,Belvoir Drive,25 October 2018,25 October 2023,6,6,Loughborough, LE11 2SN
100030434099,,8,Benscliffe Drive,12 March 2024,11 March 2029,3,3,Loughborough, LE11 3JP
100030434126,,2,Berkeley Road,02 May 2019,02 May 2024,6,6,Loughborough, LE11 3SJ
10004001228,Flat 4 Metro House,34,Biggin Street,11 March 2024,10 March 2029,4,1,Loughborough, Le11 1UA
10004001242,Flat 3 Brook House,36,Biggin Street,07 March 2024,06 March 2029,6,1,Loughborough, LE11 1JJ
10004001244,Flat 5 Brook House,36,Biggin Street,08 February 2024,07 February 2029,6,1,Loughborough, LE11 1UA
10004001232 ,Flat 8 Metro House,34,Biggin Street,15 February 2024,14 February 2029,4,1,Loughborough, LE11 1UA
10004001227,Flat 3 Metro House,34,Biggin Street,08 February 2024,07 February 2029,3,1,Loughborough,LE11 1UA
10004001229,Flat 5 Metro House,34,Biggin Street,12 February 2024,12 February 2024,2,1,Loughborough,LE11 1UA
10004001230,Flat 6 Metro House,34,Biggin Street,12 February 2024,12 February 2024,4,1,Loughborough,LE11 1UA
10004001231,Flat  7 Metro House,34,Biggin Street,27 February 2024,26 February 2029,6,1,Loughborough,LE11 1UA
10004001234,Flat 10 Metro house,34,Biggin Street,11 March 2024,10 March 2029,4,1,Loughborough,LE11 1UA
10004001241,Flat 2 Brook House,36,Biggin Street,19 February 2024,18 February 2024,4,1,Loughborough,LE11 1UA
100030434359,,2a,Bishop Street,14 March 2024,13th-Mar-2029,8,1,Loughborough, LE11 1DR
100030434361,,3,Bishop Street,18 March 2024,17 March 2029,8,1,Loughborough, LE11 1DR
100030434443,,41,Blackbrook Road,07 March 2024,06 March 2029,3,3,Loughborough, LE11 4PY
100030434445,,43,Blackbrook Road,13 February 2024,12 February 2029,6,6,Loughborough, LE11 4PY
100030434481,,83,Blackbrook Road,07 March 2024,06 March 2029,4,4,Loughborough, LE11 4PY
100030434512,,118,Blackbrook Road,18 March 2024,17 March 2029,5,5,Loughborough, LE11 4PZ
100030434454 ,,52,Blackbrook Road,14 September 2023,13 September 2028,5,5,Loughborough, LE11 4PZ
100030434562,,10,Blake Drive,08 January 2024,07 January 2029,4,4,Loughborough, LE11 5JG
100030411567,,72,Blenheim Road,26 May 2021,25 May 2026,5,5,Birstall, LE4 4FL
100030434752,,71,Bottleacre Lane,06 March 2024,05 March 2029,9,1,Loughborough, LE11 1JF 
100030434802,,121,Bottleacre Lane,07 March 2024,06 March 2029,8,1,Loughborough, LE11 1JF 
100030434830,,149,Bottleacre Lane,14 March 2024,13 March 2029,7,1,Loughborough, LE11 1JF 
100030434711,,31,Bottleacre Lane,18 March 2024,17 March 2029,7,1,Loughborough, LE11 1JE
100030434777,,96,Bottleacre Lane,21 March 2024,20 March 2029,4,1,Loughborough, LE11 1JQ
100030434728 ,,48,Bottleacre Lane,16 February 2024,15 February 2029,2,2,Loughborough, LE11 1JG
100030434970 ,,15,Boyer STreet,14 February 2024,13 February 2029,5,1,Loughborough, LE11 1DT
10023778570 ,,15a,Boyer Street,13 February 2024,12 February 2029,6,1,Loughborough, LE11 1DT
100030434988,,35,Boyer Street,28 September 2023,23 January 2028,6,6,Loughborough, LE11 1DT
100030435665,Flat 1,Bridge Lodge,Bridge Street,29 February 2024,28 February 2029,3,1,Loughborough, LE11 1NH
100030435666,Flat 2 ,Bridge Lodge,Bridge Street,29 February 2024,28 February 2029,3,1,Loughborough, LE11 1NH
100030435667,Flat 5 ,Bridge House,Bridge Street,29 February 2024,28 February 2029,3,1,Loughborough, LE11 1NH
100030435670,Flat 7,Bridge Lodge,Bridge Street,19 March 2024,18 March 2029,3,1,Loughborough, LE11 1NH
100030435671,Flat 8 ,Bridge Lodge,Bridge Street,29 February 2024,28 February 2029,3,1,Loughborough, LE11 1NH
100030435679,Flat 12,Bridge Lodge,Bridge Street,19 March 2024,18 March 2029,3,1,Loughborough, LE11 1NH
100030435685,,24,Bridge Street,06 December 2018,06 December 2023,5,5,Loughborough, LE11 1NH
100032038827,Flat 3,Bridge Lodge,Bridge Street,19 March 2024,18 March 2029,3,1,Loughborough, LE11 1NH
100032038830,Flat 1,Bridge House,Bridge Street,29 February 2024,28 February 2029,3,1,Loughborough, LE11 1NH
100032038831,Flat 2,Bridge House,Bridge Street,19 March 2024,18 March 2029,3,1,Loughborough, LE11 1NH
100032038833,Flat 4,Bridge House,Bridge Street,19 March 2024,18 March 2029,3,1,Loughborough, LE11 1NH
100032038835,Flat 7,Bridge House,Bridge Street,19 March 2024,18 March 2029,3,1,Loughborough, LE11 1NH
100030435668 ,Flat 5,Bridge Lodge,Bridge Street,23 February 2024,22 February 2029,3,1,Loughborough, LE11 1NH
100030435673 ,Flat 9,Bridge Lodge,Bridge Street,23 February 2024,22 February 2029,3,1,Loughborough, LE11 1NH
100030435677 ,Flat 10,Bridge Lodge,Bridge Street,14 February 2024,13 February 2029,3,1,Loughborough, LE11 1NH
10004000075,,22,Bridgeland Road,06 March 2024,05 March 2029,6,1,Loughborough, LE11 1GE
10004002180,,1,Bridgeland Road,21 April 2023,20 April 2028,6,6,Loughborough, LE11 1HD
10004002181,,3,Bridgeland Road,14 September 2019,14 September 2024,6,6,Loughborough, LE11 1GE
10004002182,,5,Bridgeland Road,13 January 2020,13 September 2024,6,6,Loughborough, LE11 1GE
10004002183,,7,Bridgeland Road,14 September 2019,14 September 2024,6,6,Loughborough, LE11 1GE
10004002184,,9,Bridgeland Road,08 June 2020,08 June 2025,6,6,Loughborough, LE11 1GE
100030437408,,1,Bridgeside Cottages,29 February 2024,28 February 2029,6,1,Loughborough, LE11 1PZ
100030437411,,4,Bridgeside Cottages,29 February 2024,28 February 2029,6,1,Loughborough, LE11 1PZ
100030437412,,5,Bridgeside Cottages,29 February 2024,28 February 2029,6,1,Loughborough, LE11 1PZ
100030437413,,6,Bridgeside Cottages,29 February 2024,28 February 2029,6,1,Loughborough, LE11 1PZ
100030437415,,8,Bridgeside Cottages,29 February 2024,28 February 2029,10,1,Loughborough, LE11 1PZ
100030435689,,1,Brisco Avenue,26 February 2024,25 February 2029,2,1,Loughborough, LE11 5HB
100030435690,,2,Brisco Avenue,07 November 2018,07 November 2023,7,7,Loughborough, LE11 5HB
100030435691,,3,Brisco Avenue,26 February 2024,25 February 2029,2,1,Loughborough, LE11 5HB
100030435708,,26,Brisco Avenue,06 December 2023,31 October 2028,6,6,Loughborough, LE11 5HB
100030435759,,1,Broad Street,23 September 2020,11 March 2025,6,6,Loughborough, LE11 5AB
100030435760,,2,Broad Street,27 May 2020,26 May 2025,5,5,Loughborough, LE11 5AB
100030435761,,3,Broad Street,13 December 2023,24 April 2028,5,5,Loughborough, LE11 5AB
100030435762,,4,Broad Street,21 December 2023,20 December 2028,3,3,Loughborough, LE11 5AB
100030435763,,5,Broad Street,05 February 2024,04 February 2029,3,3,Loughborough, LE11 5AB
100030435764,,6,Broad Street,07 September 2028,06 September 2028,5,5,Loughborough, LE11 5AB
100030435765,,7,Broad Street,21 December 2023,20 December 2028,4,4,Loughborough, LE11 5AB
100030435767,,9,Broad Street,10 October 2023,09 October 2028,4,4,Loughborough, LE11 5AB
100030435768,,10,Broad Street,15 February 2022,06 October 2026,6,6,Loughborough, LE11 5AB
100030435772,,14,Broad Street,10 October 2019,29 December 2023,5,5,Loughborough, LE11 5AB
100030435773,,15,Broad Street,08 October 2019,29 December 2023,5,5,Loughborough, LE11 5AB
100030435774,,16,Broad Street,04 January 2024,03 January 2029,4,4,Loughborough, LE11 5AB
100030435777,,19,Broad Street,14 March 2024,13 March 2029,4,3,Loughborough, LE11 5AB
100030435778,,20,Broad Street,08 March 2024,07 March 2029,4,4,Loughborough, LE11 5AB
100030435779,,21,Broad Street,02 November 2023,01 November 2028,4,4,Loughborough, LE11 5AB
100030435780,,22,Broad Street,13 March 2024,12 March 2029,3,3,Loughborough, LE11 5AB
100030435781,,23,Broad Street,11 May 2023,10 May 2028,5,5,Loughborough, LE11 5AB
100030435782,,54,Broad Street,13 March 2020,01 June 2024,6,6,Loughborough, LE11 5AB
100030435783,,55,Broad Street,04 April 2019,04 April 2024,6,6,Loughborough, LE11 5AB
100030435784,,56,Broad Street,16 September 2018,16 September 2023,6,6,Loughborough, LE11 5AB
100030435790,,59,Broad Street,28 February 2024,27 February 2029,3,3,Loughborough, LE11 5AB
100030435771,,13,Broad Street,14 February 2024,13 February 2029,5,5,Loughborough, LE11 5AB
100030436188,,13,Brookfield Avenue,02 May 2019,02 May 2024,6,6,Loughborough, LE11 3LN
100030436213,,71,Brookfield Avenue,10 November 2022,09 November 2027,7,7,Loughborough, LE11 3LN
100030436216,,77,Brookfield Avenue,29 February 2024,28 February 2029,4,4,Loughborough, LE11 3LN
100030436318,,8,Browning Road,18 March 2024,17 March 2029,9,1,Loughborough,LE11 4JL
100030436331,,21,Browning Road,20 December 2023,19 December 2028,4,4,Loughborough,LE11 4JL
100030436351,,2,Browns Lane,21 December 2023,20 December 2028,3,3,Loughborough, LE11 3HE
10004001803,Flat 43,21-49,Brush Drive ,21 March 2024,20 March 2029,5,1,Loughborough, LE11 1LT
10004001836,,68,Brush Drive ,13 March 2024,12 March 2029,5,1,Loughborough, LE11 1LT
10004001783,,51,Brush Drive ,18 March 2024,17 March 2029,9,1,Loughborough,LE11 1LT
10004001793,Flat 23,21-49,Brush Drive ,11 March 2024,10 March 2029,5,1,Loughborough,LE11 1LT
10004001798,Flat 33,21-49,Brush Drive ,18 March 2024,17 March 2029,5,1,Loughborough,LE11 1LT
10004001812,,12,Brush Drive ,05 February 2024,04 February 2029,5,1,Loughborough,LE11 1LT
10004001824,,36,Brush Drive ,05 March 2024,04 March 2029,6,1,Loughborough,LE11 1LT
10004001833,,62,Brush Drive ,20 March 2024,19 March 2029,7,1,Loughborough,LE11 1LT
100030436739,,143,Burde Street,04 March 2024,03 March 2029,4,1,Loughborough, LE11 1JJ
100030436632 ,,16,Burder Street,12 February 2024,11 February 2029,7,1,Loughborough, LE11 1JL
100030436669,,53,Burder Street ,14 March 2024,13 March 2029,8,1,Loughborough, LE11 1JH
100030436625,,9,Burder Street ,13 March 2024,12 March 2029,7,1,Loughborough, LE11 1JH
100030436653,,37,Burder Street ,08 February 2024,07 February 2029,8,1,Loughborough, LE11 1JH
100030436677,,61,Burder Street ,11 March 2024,10 March 2029,8,1,Loughborough, LE11 1JH
100030436680,,64,Burder Street ,15 February 2024,14 February 2024,5,1,Loughborough, LE11 1JH
100030436687,,71,Burder Street ,31 October 2023,30 October 2028,6,1,Loughborough, LE11 1JH
100030436695,,80,Burder Street ,14 March 2024,13 March 2029,8,1,Loughborough, LE11 1JL
100030436701,,86,Burder Street ,13 March 2024,12 March 2029,8,1,Loughborough, LE11 1JL
100030436708,,93,Burder Street ,07 March 2024,06 March 2029,9,1,Loughborough, LE11 1JJ
100030436711,,96,Burder Street ,25 March 2024,24 March 2029,9,1,Loughborough, LE11 1JL
100030436712,,97,Burder Street ,08 November 2023,07 November 2028,3,3,Loughborough, LE11 1JJ
100030436715,,100,Burder Street ,21 November 2023,20 November 2028,8,1,Loughborough, LE11 1JL
100030436725,,115,Burder Street ,07 March 2024,06 March 2029,8,1,Loughborough, LE11 1JJ
100030436733,,131,Burder Street ,07 March 2024,06 March 2029,7,1,Loughborough, LE11 1JL
100030436722 ,,109,Burder Street ,23 February 2024,22 February 2029,8,1,Loughborough, LE11 1JJ
100030436767,,25,Burfield Avenue,18 March 2024,17 March 2029,4,4,Loughborough, LE11 3AZ
100030436774,,1,Burleigh Road,07 September 2023,26 December 2027,5,5,Loughborough,LE11 3BA
100030436775,,2,Burleigh Road,10 March 2021,16 August 2025,5,5,Loughborough, LE11 3BA
100030436776,,3,Burleigh Road,12 December 2023,11 December 2028,4,4,Loughborough, LE11 3BA
100030436777,,4,Burleigh Road,14 February 2024,13 February 2029,6,6,Loughborough, LE11 3BA
100030436779,,6,Burleigh Road,07 March 2024,06 March 2029,6,6,Loughborough, LE11 3BA
100030436780,,7,Burleigh Road,13 February 2019,13 February 2024,5,5,Loughborough, LE11 3BA
100030436783,,10,Burleigh Road,06 October 2023,05 October 2028,4,4,Loughborough, LE11 3BA
100030436784,,11,Burleigh Road,26 February 2021,25 July 2025,6,6,Loughborough, LE11 3BA
100030436786,,13,Burleigh Road,25 September 2019,25 September 2024,6,6,Loughborough, LE11 3BA
100030436787,,14,Burleigh Road,06 July 2023,05 July 2028,5,5,Loughborough, LE11 3BA
100030436789,,16,Burleigh Road,21 October 2019,02 March 2024,5,5,Loughborough, LE11 3BA
100030436791,,18,Burleigh Road,03 January 2024,02 January 2029,4,4,Loughborough, LE11 3BA
100030436792,,19,Burleigh Road,05 March 2019,05 March 2024,7,7,Loughborough, LE11 3BA
100030436795,,22,Burleigh Road,04 January 2024,03 January 2029,4,4,Loughborough, LE11 3BA
100030436782,,9,Burleigh Road,21 March 2024,20 March 2029,5,5,Loughborough, LE11 3BA
100030437144,,142,Byron Street,04 April 2019,04 April 2024,6,6,Loughborough, LE11 5JW
100030437166,,170,Byron Street,21 October 2018,21 October 2023,7,7,Loughborough, LE11 5JW
100030437264,,2,Caldwell Street,20 January 2022,19 January 2027,5,5,Loughborough, LE11 3BB
100030437267,,4,Caldwell Street,31 August 2023,30 October 2027,7,7,Loughborough, LE11 3BB
100030437271,,8,Caldwell Street,29 February 2024,28 February 2029,5,5,Loughborough, LE11 3BB
100030437272,,9,Caldwell Street,21 March 2024,20 March 2029,5,5,Loughborough, LE11 3BB
100030437273,,10,Caldwell Street,19 February 2024,18 February 2029,4,3,Loughborough, LE11 3BB
100030437274,,11,Caldwell Street,06 October 2023,05 October 2028,4,4,Loughborough, LE11 3BB
100030437393,,52,Cambridge Street,11 March 2024,10 March 2029,6,1,Loughborough, LE11 1NN 
100030437395,,54,Cambridge Street,15 February 2024,14 February 2024,8,1,Loughborough, LE11 1NN
100030437398,,57,Cambridge Street,18 March 2024,17 March 2029,8,1,Loughborough, LE11 1NL
100030437401,,60,Cambridge Street,07 November 2023,06 November 2028,10,1,Loughborough, LE11 1NN 
100030437448,,22,Carington Street,19 March 2021,18 March 2026,9,9,Loughborough, LE11 5NF
10004001179,,7,Carlton Close,15 February 2024,14 February 2029,4,4,Loughborough, LE11 5DY
100030437544,,8,Cartwright Street,18 March 2024,17 March 2029,8,1,Loughborough, LE11 1JW
100030437552,Flat 17 Union Wharf,,Cartwright Street,18 March 2024,17 March 2029,6,1,Loughborough, LE11 1JW
100030437555,,20,Cartwright Street,16 February 2024,15 February 2029,4,1,Loughborough, LE11 1JW
100030437590,,69,Cartwright Street,11 March 2024,10 March 2024,8,1,Loughborough, LE11 1JW
100030465562,,Union Wharf,Cartwright Street,24 October 2023,23 October 2028,5,1,Loughborough, LE11 1JW
200000844665,Flat 11,Murray Armor House,Chapman Street,10 February 2024,09 February 2029,4,1,Loughborough, LE11 1DS
100030438267,,40,Charles Street,23 October 2023,22 October 2028,9,1,Loughborough, LE11 1NW
100030438249,,10,Charles Street,04 March 2024,03 March 2029,8,1,Loughborough, LE11 1NW
100030438258,,30,Charles Street,07 March 2024,06 March 2029,6,1,Loughborough, LE11 1NW
100030438736,,9,Chester Close,25 January 2019,25 January 2024,6,6,Loughborough, LE11 3BD
100030438766,,2,Chestnut Street,15 January 2024,14 January 2029,4,4,Loughborough, LE11 3BE
100030438767,,3,Chestnut Street,15 January 2024,14 January 2029,4,4,Loughborough, LE11 3BE
100030438768,,4,Chestnut Street,15 January 2024,14 January 2029,4,4,Loughborough, LE11 3BE
100030438769,,5,Chestnut Street,19 July 2023,04 November 2027,5,5,Loughborough, LE11 3BE
100030438770,,6,Chestnut Street,21 February 2024,20 February 2029,4,4,Loughborough, LE11 3BE
100030438773,,9,Chestnut Street,04 November 2023,03 November 2028,4,4,Loughborough, LE11 3BE
100030438774,,10,Chestnut Street,11 March 2024,10 March 2029,4,4,Loughborough, LE11 3BE
100030438779,,15,Chestnut Street,04 November 2023,03 November 2028,4,4,Loughborough, LE11 3BE
100030438781,,17,Chestnut Street,04 November 2023,03 November 2028,4,4,Loughborough, LE11 3BE
100030438782,,18,Chestnut Street,07 March 2024,06 March 2029,4,4,Loughborough, LE11 3BE
100030438783,,19,Chestnut Street,14 September 2019,14 September 2024,5,5,Loughborough, LE11 3BE
100030438784,,20,Chestnut Street,07 March 2024,06 March 2029,4,4,Loughborough, LE11 3BE
100030438786,,24,Chestnut Street,04 November 2023,03 November 2028,4,4,Loughborough, LE11 3BE
100030438787,,26,Chestnut Street,07 March 2024,06 March 2029,4,4,Loughborough, LE11 3BE
100030438789,,30,Chestnut Street,21 February 2024,20 February 2029,4,4,Loughborough, LE11 3BE
100030438790,,32,Chestnut Street,04 November 2023,03 November 2028,5,3,Loughborough, LE11 3BE
100030438791,,34,Chestnut Street,04 October 2022,15 March 2027,5,5,Loughborough, LE11 3BE
100030438765,,1,Chestnut Street ,21 March 2024,20 March 2029,6,6,Loughborough, LE11 3BE
100030438775,,11,Chestnut Street ,10 October 2023,09 October 2028,4,4,Loughborough, LE11 3BE
100030438780,,16,Chestnut Street ,29 February 2024,28 February 2029,4,4,Loughborough, LE11 3BE
100030438788,,28,Chestnut Street ,07 March 2024,06 March 2029,4,4,Loughborough, LE11 3BE
10008150833,,5b,Church Gate,23 January 2024,22 January 2029,2,1,Loughborough, LE11 1UD
10008151452,,6b,Church Gate,29 October 2023,28 October 2028,2,2,Loughborough, LE11 1UD
10023777050,,24b,Church Gate,27 February 2024,26 February 2029,2,1,Loughborough, LE11 1UD
10023777051,,24c,Church Gate,27 February 2024,26 February 2029,3,1,Loughborough, LE11 1UD
10023777052,,25a,Church Gate,22 February 2024,21 February 2029,5,1,Loughborough, LE11 1UD
10023777054,,26b,Church Gate,,,,,Loughborough, LE11 1UD
100030439218,,5a,Church Gate,11 December 2023,10 December 2028,2,1,Loughborough, LE11 1UD
100030439219,,6a,Church Gate,15 February 2024,14 February 2024,2,2,Loughborough, LE11 1UD
100030439221,Flat B,16,Church Gate,18 October 2023,17 October 2028,1,1,Loughborough, LE11 1UD
100030438911 ,1,Steeple Court,Church Gate,12 February 2024,11 February 2029,6,1,Loughborough, LE11 1UE
100030438909,,55a,Church Gate,12 February 2024,12 February 2024,4,1,Loughborough,LE11 1UE
10070066765,Flat D ,16,Church Gate,28 October 2023,27 October 2028,4,1,Loughborough, LE11 1UD 
100030438904,,18b,Church Gate,24 October 2023,23 October 2028,4,1,Loughborough, LE11 1UD
100030439220,Flat A,16,Church Gate,18 October 2023,17 October 2028,1,1,Loughborough, LE11 1UD
100030439222,Flat C,16,Church Gate,18 October 2023,17 October 2028,1,1,Loughborough, LE11 1UD
100030439058,,5,Church Lands,06 March 2024,05 March 2029,7,1,Loughborough, LE11 1LU 
100030439056 ,,3,Church Lands,29 February 2024,28 February 2029,5,1,Loughborough, LE11 1LU 
100030413716,,5,Church Lane,20 December 2022,19 December 2027,5,4,Thurmaston, LE4 8DR
100030413717,St Andrews Cottage,7,Church Lane,27 April 2023,26 April 2028,6,6,Thurmaston, LE4 8DR
10070074336,,8a,Churchgate Mews,23 October 2023,22 October 2028,4,1,Loughborough, LE11 1TZ
10070074337,,8b,Churchgate Mews,26 October 2023,25 October 2028,3,1,Loughborough, LE11 1TZ
10008150779,,3,City Heights,12 February 2024,12 February 2024,6,1,Loughborough,LE11 1DW
10008151348,,21,City Heights,12 February 2024,12 February 2024,6,1,Loughborough,LE11 1DW
10012192329,,Flat1 31,Clarence Street ,26 July 2023,04 December 2027,6,6,Loughborough, LE11 1DY
10004000008,,8b,Cliff Avenue,14 March 2024,13 March 2029,6,1,Loughborough, LE11 5HH
10004000009,,10a,Cliff Avenue,04 March 2024,03 March 2029,4,1,Loughborough, LE11 5HH
10004000015,,14a,Cliff Avenue,28 February 2024,27 February 2029,6,1,Loughborough, LE11 5HH
10004000014,,12d,Cliff Avenue,27 October 2023,26 October 2028,3,1,Loughborough, LE11 5HH
10004002214,,15a,Clifford Road,06 December 2018,06 December 2023,6,6,Loughborough, LE11 5NG
100030439495,,9,Cobden Street,06 March 2024,05 March 2029,6,5,Loughborough, LE11 1AF
100030439496,,10,Cobden Street,29 February 2024,28 February 2029,8,1,Loughborough, LE11 1AF
100030439502,,17,Cobden Street,19 March 2024,18 March 2029,8,1,Loughborough, LE11 1AF
100030439522,,92,Cobden Street,04 March 2024,03 March 2029,8,1,Loughborough, LE11 1AQ
100030439584,,30,Colgrove Road,18 December 2023,17 December 2028,4,4,Loughborough, LE11 3NN
100030439588,,36,Colgrove Road,08 November 2023,07 November 2028,4,4,Loughborough, LE11 3NN
10093365891,,4,Coltman Drive,26 February 2024,25 February 2029,6,1,Loughborough, LE11 1FP
10094170187,,21,Coltman Drive,26 February 2024,25 February 2029,7,1,Loughborough, LE11 1FP
10094170188,,23,Coltman Drive,26 February 2024,25 February 2029,7,1,Loughborough, LE11 1FP
10093365905 ,,32,Coltman Drive,13 February 2024,12 February 2029,7,1,Loughborough, LE11 1FP
100030439705,,22,Coniston Crescent,19 October 2018,19 October 2023,5,5,Loughborough, LE11 3RH
100030439707,,24,Coniston Crescent,02 May 2019,02 May 2024,6,6,Loughborough, LE11 3RH
100030439713,,30,Coniston Crescent,14 February 2024,13 February 2029,6,6,Loughborough, LE11 3RH
100030439720,,37,Coniston Crescent,29 November 2023,28 November 2028,6,6,Loughborough, LE11 3RQ
100030439999,,7,Cooper Court,18 March 2024,17 March 2029,7,1,Loughborough, LE11 2PP 
100030440004,,12,Cooper Court,18 March 2024,17 March 2029,7,1,Loughborough, LE11 2PP 
 100030440000,,8,Cooper Court,17 October 2028,16 October 2028,5,1,Loughborough, LE11 2PP 
200000840122,,4,Copeland Crescent,18 March 2024,17 March 2029,4,4,Loughborough,LE11 5JE
100030440306,,3,Cotswold Close,26 April 2022,25 April 2027,6,6,Loughborough, LE11 3AN
100030440309,,9,Cotswold Close,14 February 2023,13 February 2028,5,5,Loughborough, LE11 3AN
100030440311,,13,Cotswold Close,01 April 2019,01 April 2024,6,6,Loughborough, LE11 3AN
100030440321,,33,Cotswold Close,24 November 2021,23 November 2026,6,6,Loughborough, LE11 3AN
100030440326,,43,Cotswold Close,29 March 2022,28 March 2027,6,6,Loughborough, LE11 3AN
10093367611,Flat 3 ,Phoenix Court,Cradock Street,21 March 2024,20 March 2029,4,1,Loughborough, LE11 1AH
200000845699,,15a,Cradock Street,02 November 2023,01 November 2028,2,1,Loughborough, LE11 1AH
100030440798,,29,Cumberland Road,26 October 2023,25 October 2028,3,3,Loughborough, LE11 5DE
100030440784,,3,Cumberland Road,31 July 2023,31 October 2027,6,6,Loughborough, LE11 5DE
100030440783,,2,Cumberland Road,28 January 2019,28 January 2024,5,5,Loughborough, LE11 5DE
100030440786,,5,Cumberland Road,20 July 2023,19 July 2028,7,7,Loughborough, LE11 5DE
100030440787,,7,Cumberland Road,29 June 2023,28 June 2028,5,5,Loughborough, LE11 5DE
100030440788,,9,Cumberland Road,24 August 2023,30 October 2027,6,6,Loughborough, LE11 5DE
100030440789,,11,Cumberland Road,28 September 2023,27 September 2028,6,6,Loughborough, LE11 5DE
100030440790,,13,Cumberland Road,26 February 2024,25 February 2029,3,3,Loughborough, LE11 5DE
100030440791,,15,Cumberland Road,27 February 2024,26 February 2029,3,3,Loughborough, LE11 5DE
100030440794,,21,Cumberland Road,12 January 2024,11 January 2029,4,4,Loughborough, LE11 5DE
100030440795,,23,Cumberland Road,06 December 2023,05 December 2028,4,4,Loughborough, LE11 5DE
100030440796,,25,Cumberland Road,06 December 2023,05 December 2028,3,3,Loughborough, LE11 5DE
100030440802,,37,Cumberland Road,12 February 2024,11 February 2029,5,5,Loughborough, LE11 5DE
100030440805,,43,Cumberland Road,17 October 2023,16 October 2028,4,4,Loughborough, LE11 5DE
100030440806,,45,Cumberland Road,23 October 2023,22 October 2028,4,4,Loughborough, LE11 5DE
100030440807,,47,Cumberland Road,13 September 2019,13 September 2024,5,5,Loughborough, LE11 5DE
100030440808,,49,Cumberland Road,26 February 2024,25 February 2029,3,3,Loughborough, LE11 5DE
100030440809,,51,Cumberland Road,29 February 2024,28 February 2029,4,4,Loughborough, LE11 5DE
100030440810,,53,Cumberland Road,17 October 2023,16 October 2028,3,3,Loughborough, LE11 5DE
100030440814,,61,Cumberland Road,29 May 2020,29 May 2025,5,5,Loughborough, LE11 5DE
100030440815,,63,Cumberland Road,29 May 2020,29 May 2025,5,5,Loughborough, LE11 5DE
100030440804,,41,Cumberland Road ,17 October 2023,16 October 2028,4,4,Loughborough, LE11 5DE
100030440811,,55,Cumberland Road ,17 October 2023,16 October 2028,3,3,Loughborough, LE11 5DE
100030440934,,32,Curzon Street,11 March 2024,10 March 2029,4,4,Loughborough, LE11 3BQ
100030440908,,6,Curzon Street,31 August 2023,31 October 2027,5,5,Loughborough, LE11 3BQ
100030440909,,7,Curzon Street,20 February 2024,19 February 2029,3,3,Loughborough, LE11 3BQ
100030440910,,8,Curzon Street,07 September 2023,01 November 2027,5,5,Loughborough, LE11 3BQ
100030440911,,9,Curzon Street,07 September 2023,01 November 2027,5,5,Loughborough, LE11 3BQ
100030440913,,11,Curzon Street,09 March 2022,08 March 2027,5,5,Loughborough, LE11 3BQ
100030440915,,13,Curzon Street,30 September 2019,30 September 2024,5,5,Loughborough, LE11 3BQ
100030440917,,15,Curzon Street,21 January 2020,30 November 2024,5,5,Loughborough, LE11 3BQ
100030440921,,19,Curzon Street,14 March 2024,13 March 2029,5,5,Loughborough, LE11 3BQ
100030440923,,21,Curzon Street,12 February 2024,11 February 2029,10,1,Loughborough, LE11 3BQ
100030440925,,23,Curzon Street,04 March 2024,03 March 2028,9,1,Loughborough, LE11 3BQ
100030440929,,27,Curzon Street,13 December 2021,29 June 2026,5,5,Loughborough, LE11 3BQ
100030440930,,28,Curzon Street,04 December 2020,24 July 2025,5,5,Loughborough, LE11 3BQ
100030440933,,31,Curzon Street,14 February 2019,14 February 2024,7,7,Loughborough, LE11 3BQ
100030440937,,38,Curzon Street,02 June 2019,02 June 2024,5,5,Loughborough, LE11 3BQ
100030440938,,40,Curzon Street,07 September 2023,12 December 2027,5,5,Loughborough, LE11 3BQ
100030440935,,34,Curzon Street,19 February 2024,18 February 2029,4,4,Loughborough, LE11 3BQ
10070069918,Flat 3 Waterways,23,Derby Road,19 February 2024,18 February 2029,5,5,Loughborough,LE11 5AP
10070069919,Flat 4 Waterways,23,Derby Road,20 February 2024,19 February 2029,6,6,Loughborough,LE11 5AP
10070069921,6 Waterways,23,Derby Road,01 March 2024,28 February 2029,5,5,Loughborough,LE11 5AP
10070069924,Flat 9 Waterways,23,Derby Road,19 February 2024,18 February 2029,5,5,Loughborough,LE11 5AP
10070069936,Flat 12 Waterways,27,Derby Road,20 February 2024,19 February 2029,5,5,Loughborough,LE11 5AP
10070069939,Flat 15 Waterways,27,Derby Road,20 February 2024,19 February 2029,5,5,Loughborough,LE11 5AP
10070069940,Flat 16 Waterways,27,Derby Road,20 February 2024,19 February 2029,5,5,Loughborough,LE11 5AP
10070069941,Flat 17 Waterways,27,Derby Road,20 February 2024,19 February 2029,3,3,Loughborough,LE11 5AP
10070069944,Flat 3 Waterways,29,Derby Road,20 February 2024,19 February 2029,5,5,Loughborough,LE11 5AP
10070069945,Flat 4 Waterways,29,Derby Road,19 February 2024,18 February 2029,6,6,Loughborough,LE11 5AP
10070069950,Flat 9 Waterways,29,Derby Road,19 February 2024,18 February 2029,3,3,Loughborough,LE11 5AP
10093366528,,117b,Derby Road,12 February 2024,11 February 2029,2,1,Loughborough, LE11 5AE
10095778148,,113,Derby Road,23 October 2023,22 October 2028,5,1,Loughborough, LE11 5AE
10095778149,,115,Derby Road,23 October 2023,22 October 2028,4,1,Loughborough, LE11 5AE
100030441250,,64,Derby Road,05 March 2024,04 March 2029,4,4,Loughborough, LE11 5BX
100030441251,,66,Derby Road,08 January 2024,07 January 2029,4,4,Loughborough, LE11 5BX
100030441252,,68,Derby Road,27 April 2023,04 October 2027,5,5,Loughborough, LE11 5BX
100030441253,,70,Derby Road,07 March 2024,06 March 2029,5,5,Loughborough, LE11 5BX
100030441256,,76,Derby Road,08 December 2023,28 March 2028,6,6,Loughborough, LE11 5BX
100030441262,,94,Derby Road,27 April 2023,04 October 2027,7,7,Loughborough, LE11 5AG
100030441263,,96,Derby Road,27 April 2023,04 October 2027,6,6,Loughborough, LE11 5AG
100030441264,,98,Derby Road,25 March 2022,24 March 2027,6,6,Loughborough, LE11 5AG
100030441265,,100,Derby Road,22 February 2024,21 February 2029,6,6,Loughborough, LE11 5AG
100030441266,,102,Derby Road,27 April 2023,04 October 2027,7,7,Loughborough, LE11 5AG
100030441267,,104,Derby Road,26 July 2021,20 April 2026,8,8,Loughborough, LE11 5AG
100030441268,,107,Derby Road,02 May 2019,02 May 2024,5,5,Loughborough, LE11 5AE
100030441276,,117a,Derby Road,12 February 2024,11 February 2029,4,1,Loughborough, LE11 5AE
100030441283,,117,Derby Road,12 February 2024,11 February 2029,1,1,Loughborough, LE11 5AE
100030441284,,125,Derby Road,19 July 2023,16 July 2027,6,6,Loughborough, LE11 5AE
100030441291,,135,Derby Road,13 February 2024,12 February 2029,4,1,Loughborough, LE11 5AE
100030441295,,139,Derby Road,18 March 2024,17 March 2029,9,1,Loughborough, LE11 5AE
100030441297,,141,Derby Road,07 March 2024,06 March 2029,4,3,Loughborough, LE11 5AE
100030441327,,201a,Derby Road,17 February 2024,16 February 2029,2,1,Loughborough, LE11 5HJ
100030441347,,211,Derby Road,14 December 2020,14 December 2025,5,5,Loughborough, LE11 5HJ
10012192106 ,,131,Derby Road,13 September 2019,13 September 2024,5,5,Loughborough, LE11 5AE
10070069916 ,Flat 1 Waterways,23,Derby Road,19 February 2024,18 February 2029,5,5,Loughborough,LE11 5AP
10070069917 ,Flat 2 Waterways,23,Derby Road,20 February 2024,19 February 2029,5,5,Loughborough,LE11 5AP
10070069920 ,Flat 5 Waterways,23,Derby Road,04 March 2024,03 March 2029,5,5,Loughborough,LE11 5AP
10070069922 ,Flat 7 Waterways,23,Derby Road,19 February 2024,18 February 2029,6,6,Loughborough,LE11 5AP
10070069923 ,Flat 8 Waterways,23,Derby Road,19 February 2024,18 February 2029,5,5,Loughborough,LE11 5AP
10070069925 ,Flat 1 Waterways,27,Derby Road,19 February 2024,18 February 2029,5,5,Loughborough,LE11 5AP
10070069926 ,Flat 2 Waterways,27,Derby Road,19 February 2024,18 February 2029,5,5,Loughborough,LE11 5AP
10070069927 ,Flat 3 Waterways,27,Derby Road,19 February 2024,18 February 2029,5,5,Loughborough,LE11 5AP
10070069928 ,Flat 4 Waterways,27,Derby Road,04 March 2024,03 March 2029,5,5,Loughborough,LE11 5AP
10070069929 ,Flat 5 Waterways,27,Derby Road,20 February 2024,19 February 2029,5,5,Loughborough,LE11 5AP
10070069930 ,Flat 6 Waterways,27,Derby Road,19 February 2024,18 February 2029,5,5,Loughborough,LE11 5AP
10070069931 ,Flat 7 Waterways,27,Derby Road,19 February 2024,18 February 2029,5,5,Loughborough,LE11 5AP
10070069932 ,Flat 8 Waterways,27,Derby Road,19 February 2024,18 February 2029,5,5,Loughborough,LE11 5AP
10070069933 ,Flat 9 Waterways,27,Derby Road,19 February 2024,18 February 2029,5,5,Loughborough,LE11 5AP
10070069934 ,Flat 10 Waterways,27,Derby Road,20 February 2024,19 February 2029,5,5,Loughborough,LE11 5AP
10070069935 ,Flat 11 Waterways,27,Derby Road,19 February 2024,18 February 2029,5,5,Loughborough,LE11 5AP
10070069938 ,Flat 14 Waterways,27,Derby Road,20 February 2024,19 February 2029,5,5,Loughborough,LE11 5AP
10070069942 ,Flat 1 Waterways,29,Derby Road,20 February 2024,19 February 2029,5,5,Loughborough,LE11 5AP
10070069943 ,Flat 2 Waterways,29,Derby Road,04 March 2024,03 March 2029,6,6,Loughborough,LE11 5AP
10070069946 ,Flat 5 Waterways,29,Derby Road,19 February 2024,18 February 2029,5,5,Loughborough,LE11 5AP
10070069947 ,Flat 6 Waterways,29,Derby Road,20 February 2024,19 February 2029,6,6,Loughborough,LE11 5AP
10070069948 ,Flat 7 Waterways,29,Derby Road,19 February 2024,18 February 2029,5,5,Loughborough,LE11 5AP
10070069951 ,Flat 10 Waterways,29,Derby Road,19 February 2024,18 February 2029,6,6,Loughborough,LE11 5AP
100030441277,,119,Derby Road,12 February 2024,12 February 2024,4,4,Loughborough,LE11 5AE
100030441277,,119,Derby Road,12 February 2024,12 February 2024,4,4,Loughborough,LE11 5AE
10023775548,,90,Derby Road ,14 October 2023,13 October 2028,6,6,Loughborough, LE11 5AG
100030441285,,129,"Derby Road, ",22 February 2024,21 February 2029,5,4,Loughborough, LE11 5AE
100030441287,,127,"Derby Road, ",14 October 2023,13 October 2028,4,4,Loughborough, LE11 5AE
100023780278,,30a,Derby Square,18 March 2024,17 March 2029,5,1,Loughborough,LE11 5AL
100030441350,,7,Derwent Drive,17 February 2021,16 February 2026,6,6,Loughborough, LE11 3RJ
100030441354,,11,Derwent Drive,12 December 2023,11 December 2028,4,4,Loughborough, LE11 3RJ
100030441358,,23,Derwent Drive,02 May 2019,02 May 2024,6,6,Loughborough, LE11 3RJ
100030441358,,27,Derwent Drive,04 March 2024,03 March 2029,4,4,Loughborough, LE11 3RJ
100030441359,,27,Derwent Drive,14 February 2019,14 February 2024,5,5,Loughborough, LE11 3RJ
10070073823,Flat 1,28,Derwent Drive,23 October 2023,22 October 2028,6,6,Loughborough, LE11 3RJ
10004001191,Flat 2,5,Devonshire Lane,23 February 2024,22 February 2029,4,4,Loughborough, LE11 3DW
10070073825,Flat 3 ,5,Devonshire Lane,23 February 2024,22 February 2029,4,4,Loughborough, LE11 3DW
10070073827,Flat 5,5,Devonshire Lane,18 March 2024,17 March 2029,3,3,Loughborough, LE11 3DW
10070073828,Flat 6,5,Devonshire Lane,23 February 2024,22 February 2024,4,4,Loughborough, LE11 3DW
10070073824 ,Flat 2,5,Devonshire Lane,23 February 2024,22 February 2029,3,3,Loughborough, LE11 3DW
10070073826 ,Flat 4,5,Devonshire Lane,23 February 2024,22 February 2024,3,3,Loughborough, LE11 3DW
100030441768,,16,Duke Street,23 October 2023,22 October 2028,6,1,Loughborough, LE11 1ED
100030441759,,5,Edelin Road ,14 March 2024,13 March 2029,3,3,Loughborough, LE11 2HW
100030441811,,14,Edelin Road ,31 October 2023,30 October 2028,3,3,Loughborough, LE11 2HP
10003044183,,25,Edward Street,07 March 2024,06 March 2029,5,5,Loughborough, LE11 1QF
100030441810,,1,Edward Street,26 February 2024,25 February 2029,4,4,Loughborough, LE11 1QF
100030441812,,2,Edward Street,15 March 2021,14 March 2026,6,6,Loughborough, LE11 1QF
100030441816,,7,Edward Street,11-Match-24,10 March 2029,8,1,Loughborough, LE11 1QF
100030441818,,3,Edward Street,12 February 2024,11 February 2029,2,2,Loughborough, LE11 1QF
100030441819,,9,Edward Street,11 December 2023,18 February 2028,5,5,Loughborough, LE11 1QF
100030441820,,11,Edward Street,21 February 2024,02 February 2029,4,4,Loughborough, LE11 1QF
100030441822,,13,Edward Street,18 March 2024,17 March 2029,8,1,Loughborough, LE11 1QF
100030441823,,10,Edward Street,14 February 2023,16 July 2027,5,5,Loughborough, LE11 1QF
100030441826,,14,Edward Street,18 October 2023,17 October 2028,2,2,Loughborough, LE11 1QF
100030441829,,18,Edward Street,16 February 2024,15 February 2029,4,4,Loughborough, LE11 1QF
100030441829,,20,Edward Street,07 March 2024,06 March 2029,6,6,Loughborough, LE11 1QF
100030441837,,28,Edward Street,12 February 2024,11 February 2029,9,1,Loughborough, LE11 1QF
100030441840,,20,Edward Street,20 June 2019,08 December 2023,6,6,Loughborough, LE11 1QF
100030441840,,31,Edward Street,12 March 2021,11 March 2026,5,5,Loughborough, LE11 1QF
100030441841,,33,Edward Street,19 February 2024,18 February 2029,3,3,Loughborough, LE11 1QF
100030441827 ,,17,Edward Street,15 December 2022,04 September 2027,5,5,Loughborough, LE11 1QF
100030441958,,13,Empress Road,11 March 2024,10 March 2029,8,1,Loughborough, LE11 1RQ
100030441968,,33,Empress Road,13 March 2024,12 March 2029,10,1,Loughborough, LE11 1RQ
100030441975,,73,Empress Road,16 February 2024,15 February 2029,11,1,Loughborough, LE11 1RH 
100030441978,,79,Empress Road,07 November 2023,06 November 2028,10,1,Loughborough, LE11 1RH 
100030441979,,81,Empress Road,31 March 2021,30 March 2026,7,7,Loughborough, LE11 1RH
100030441980,,83,Empress Road,15 February 2024,14 February 2029,7,1,Loughborough, LE11 1RH
10004000017,,37,Factory Street,27 February 2024,26 February 2029,2,1,Loughborough, LE11 1AL
10091075719,,37a,Factory Street,27 February 2024,26 February 2029,9,1,Loughborough, LE11 1AL
10004001630,,,Falcon Street,06 February 2024,05 February 2029,4,1,Loughborough, LE11 1GJ 
10094172162,Flat 11,The Mill,Falcon Street,11 March 2024,10 March 2029,5,1,Loughborough, LE11 1FU
10094172163,Flat 12,The Mill,Falcon Street,11 March 2024,10 March 2029,8,1,Loughborough, LE11 1FU
10094172164,Flat 13,The Mill,Falcon Street,11 March 2024,10 March 2029,8,1,Loughborough, LE11 1FU
10094172165,Flat 14,The Mill,Falcon Street,16 February 2024,15 February 2029,6,1,Loughborough, LE11 1FU
10094172170,Flat 19,The Mill,Falcon Street,28 February 2024,27 February 2029,6,1,Loughborough, LE11 1FU
10094172180,Flat 29,The Mill,Falcon Street,19 February 2024,18 February 2029,6,1,Loughborough, LE11 1FU
10094172183,Flat 32,The Mill,Falcon Street,21 February 2024,20 February 2029,4,1,Loughborough, LE11 1FU
10094172188,Flat 37,The Mill,Falcon Street,21 February 2024,20 February 2029,4,1,Loughborough, LE11 1FU
10094172196,Flat 45,The Mill,Falcon Street,16 February 2024,15 February 2024,6,1,Loughborough, LE11 1FU
10094172197,Flat 46,The Mill,Falcon Street,14 March 2024,13 March 2029,3,1,Loughborough, LE11 1FU
10094172198,Flat 47,The Mill,Falcon Street,21 February 2024,20 February 2029,4,1,Loughborough, LE11 1FU
10094172209,Flat 58,The Mill,Falcon Street,26 February 2024,25 February 2029,6,1,Loughborough, LE11 1FU
10094172211,Flat 60,The Mill,Falcon Street,28 February 2024,27 February 2029,6,1,Loughborough, LE11 1FU
10094172214,Flat 63,The Mill,Falcon Street,26 February 2024,25 February 2029,6,1,Loughborough, LE11 1FU
10094172217,Flat 66,The Mill,Falcon Street,26 February 2024,25 February 2029,6,1,Loughborough, LE11 1FU
10094172218,Flat 67,The Mill,Falcon Street,26 February 2024,25 February 2029,6,1,Loughborough, LE11 1FU
10094172219,Flat 68,The Mill,Falcon Street,26 February 2024,25 February 2029,6,1,Loughborough, LE11 1FU
10094172220,Flat 69,The Mill,Falcon Street,26 February 2024,25 February 2029,6,1,Loughborough, LE11 1FU
10094172221,FLat 70,The Mill,Falcon Street,26 February 2024,25 February 2029,6,1,Loughborough, LE11 1FU
10094172222,Flat 71,The Mill,Falcon Street,26 February 2024,25 February 2029,6,1,Loughborough, LE11 1FU
10094172223,Flat 72,The Mill,Falcon Street,26 February 2024,25 February 2029,6,1,Loughborough, LE11 1FU
10094172224,Flat 73,The Mill,Falcon Street,26 February 2024,25 February 2029,6,1,Loughborough, LE11 1FU
10094172225,Flat 74,The Mill,Falcon Street,26 February 2024,25 February 2029,6,1,Loughborough, LE11 1FU
10094172226,Flat 75 ,The Mill,Falcon Street,26 February 2024,25 February 2029,6,1,Loughborough, LE11 1FU
10094172227,Flat 76,The Mill,Falcon Street,26 February 2024,25 February 2029,6,1,Loughborough, LE11 1FU
10094173581,Flat 3,The Gate,Falcon Street,21 November 2023,20 November 2028,6,1,Loughborough, LE11 1GJ 
10094173583,Flat 5,The Gate,Falcon Street,25 March 2024,24 March 2029,6,1,Loughborough, LE11 1GJ
10094173585,Flat 7 Waterside Village,The Gate,Falcon Street,18 March 2024,17 March 2029,4,1,Loughborough, LE11 1GJ
10094173586,Flat 8  ,The Gate,Falcon Street,21 February 2024,20 February 2029,6,1,Loughborough, LE11 1GJ
10094173590,Flat 12,The Gate,Falcon Street,16 February 2024,15 February 2029,4,1,Loughborough, LE11 1GJ
10094173591,Flat 13,The Gate,Falcon Street,09 February 2024,08 February 2029,6,1,Loughborough, LE11 1GJ
10094173592,Flat 14,The Gate,Falcon Street,09 February 2024,08 February 2029,6,1,Loughborough, LE11 1GJ
10094173604,Flat 26,The Gate,Falcon Street,19 February 2024,18 February 2029,6,1,Loughborough, LE11 1GJ
10094173606,Flat 28,The Gate,Falcon Street,11 March 2024,10 March 2029,8,1,Loughborough, LE11 1GJ
10094173612,Flat 34,The Gate,Falcon Street,11 March 2024,10 March 2029,2,1,Loughborough, LE11 1GJ
10094173636,Flat 58,The Gate,Falcon Street,26 February 2024,25 February 2029,4,1,Loughborough, LE11 1GJ
10094173647,Flat 4,The Wharf,Falcon Street,21 March 2024,20 March 2029,4,1,Loughborough, LE11 1GN
10094173648,Flat 5,The Wharf,Falcon Street,14 March 2024,13 March 2029,4,1,Loughborough, LE11 1GN
10094173656,Flat 13,The Wharf,Falcon Street,27 February 2024,26 February 2029,4,1,Loughborough, LE11 1GN
10094173682,Flat 39,The Wharf,Falcon Street,23 October 2023,22 October 2028,4,1,Loughborough, LE11 1GN
10094173690,Flat 47,The Wharf,Falcon Street,14 March 2024,13 March 2029,4,1,Loughborough, LE11 1GN
10094172159 ,Flat 8,The Mill,Falcon Street,28 February 2024,27 February 2029,6,1,Loughborough, LE11 1FU
10094172161 ,Flat 10,The Mill,Falcon Street,16 February 2024,15 February 2029,2,2,Loughborough, LE11 1FU
10094172168 ,Flat 17,The Mill,Falcon Street,28 February 2024,27 February 2029,6,1,Loughborough, LE11 1FU
10094172177 ,Flat 26,The Mill,Falcon Street,28 February 2024,27 February 2029,4,1,Loughborough, LE11 1FU
10094172178 ,Flat 27,The Mill,Falcon Street,28 February 2024,27 February 2029,6,1,Loughborough, LE11 1FU
10094172186 ,Flat 35,The Mill,Falcon Street,28 February 2024,27 February 2029,6,1,Loughborough, LE11 1FU
10094172199 ,Flat 48 ,The Mill,Falcon Street,28 February 2024,27 February 2029,4,1,Loughborough, LE11 1FU
10094172204 ,Flat 53,The Mill,Falcon Street,28 February 2024,27 February 2029,4,1,Loughborough, LE11 1FU
10094172210 ,Flat 59,The Mill,Falcon Street,28 February 2024,27 February 2029,4,1,Loughborough, LE11 1FU
10094173584 ,Fla 6,The Gate,Falcon Street,28 February 2024,27 February 2029,6,1,Loughborough, LE11 1GJ
10094173588 ,Flat 10,The Gate,Falcon Street,23 February 2024,22 February 2029,4,1,Loughborough, LE11 1GJ
10094173594 ,Flat 16,The Gate,Falcon Street,28 February 2024,27 February 2029,4,1,Loughborough, LE11 1GJ
10094173603 ,Flat 25,The Gate,Falcon Street,16 February 2024,15 February 2029,2,2,Loughborough, LE11 1GJ
10094173607 ,Flat 29,The Gate,Falcon Street,28 February 2024,27 February 2029,6,1,Loughborough, LE11 1GJ
10094173625 ,Flat 47,The Gate,Falcon Street,23 February 2024,22 February 2029,4,1,Loughborough, LE11 1GJ
10094173626 ,Flat 48 ,The Gate,Falcon Street,23 February 2024,22 February 2029,4,1,Loughborough, LE11 1GJ
10094173628 ,Flat 50,The Gate,Falcon Street,23 February 2024,22 February 2029,6,1,Loughborough, LE11 1GJ
10094173631 ,Flat 53,The Gate,Falcon Street,23 February 2024,02 February 2029,6,1,Loughborough, LE11 1GJ
10094173633 ,Flat 55,The Gate,Falcon Street,23 February 2024,22 February 2029,6,1,Loughborough, LE11 1GJ
10094173634 ,Flat 56,The Gate,Falcon Street,23 February 2024,22 February 2029,6,1,Loughborough, LE11 1GJ
10094173637 ,Flat 59,The Gate,Falcon Street,23 February 2024,22 February 2029,4,1,Loughborough, LE11 1GJ
10094173638 ,Flat 60,The Gate,Falcon Street,26 February 2024,25 February 2029,4,1,Loughborough, LE11 1GJ
10094173579,Flat 1,The Gate,Falcon Street ,21 March 2024,20 March 2029,6,1,Loughborough, LE11 1GJ
10094173595,Flat 17   ,The Gate,Falcon Street ,14 February 2024,13 February 2029,6,1,Loughborough, LE11 1GJ
10094173597,Flat 19,The Gate,Falcon Street ,16 February 2024,15 February 2029,4,1,Loughborough, LE11 1GJ
10094173601,Flat 23,The Gate,Falcon Street ,25 March 2024,24 March 2029,4,1,Loughborough, LE11 1GJ
10094173671,Flat 28,The Wharf,Falcon Street ,27 March 2024,26 March 2029,6,1,Loughborough, LE11 1GN
10094172156 ,Flat 5,The Mill,Falcon Street ,16 February 2024,15 February 2029,5,1,Loughborough, LE11 1FU
100030442592,,1,Fearon Street,26 February 2024,25 February 2029,3,3,Loughborough, LE11 5DG
100030442594,,3,Fearon Street,31 October 2023,30 October 2028,3,3,Loughborough, LE11 5DG
100030442595,,4,Fearon Street,29 February 2024,28 February 2029,5,5,Loughborough, LE11 5DG
100030442596,,5,Fearon Street,20 January 2022,19 January 2027,5,5,Loughborough, LE11 5DG
100030442602,,9,Fearon Street,15 November 2023,14 November 2028,4,4,Loughborough, LE11 5DG
100030442604,,11,Fearon Street,27 July 2023,26 July 2028,5,5,Loughborough, LE11 5DG
100030442606,,13,Fearon Street,14 March 2024,13 March 2029,4,4,Loughborough, LE11 5DG
100030442608,,15,Fearon Street,27 July 2023,14 October 2027,6,6,Loughborough, LE11 5DG
100030442609,,16,Fearon Street,06 April 2020,06 April 2025,6,6,Loughborough, LE11 5DG
100030442610,,17,Fearon Street,18 June 2019,18 June 2024,5,5,Loughborough, LE11 5DG
100030442611,,18,Fearon Street,17 February 2021,16 February 2026,6,6,Loughborough, LE11 5DG
100030442612,,22,Fearon Street,26 February 2024,25 February 2029,4,4,Loughborough, LE11 5DG
100030442613,,25,Fearon Street,29 February 2024,28 February 2029,4,4,Loughborough, LE11 5DG
100030442614,,27,Fearon Street,30 November 2023,05 March 2028,6,6,Loughborough, LE11 5DG
100030442615,,31,Fearon Street,14 March 2024,13 March 2029,6,6,Loughborough, LE11 5DG
100030442616,,33,Fearon Street,11 March 2024,10 March 2029,4,4,Loughborough, LE11 5DG
100030442619,,39,Fearon Street,27 September 2018,27 September 2023,6,6,Loughborough, LE11 5DG
100030442620,,41,Fearon Street,11 January 2024,29_Sep-28,6,6,Loughborough, LE11 5DG
100030442621,,43,Fearon Street,18 January 2019,18 January 2024,5,5,Loughborough, LE11 5DG
100030442623,,47,Fearon Street,27 February 2024,26 February 2029,5,5,Loughborough, LE11 5DG
100030442624,,49,Fearon Street,12 December 2023,11 December 2028,4,4,Loughborough, LE11 5DG
100030444607,,23,Fearon Street,19 February 2019,19 February 2024,6,6,Loughborough, LE11 5DG
100032040471,,29,Fearon Street,20 March 2019,20 March 2024,6,6,Loughborough, LE11 5DG
100032040472,,6,Fearon Street,07 April 2021,10 November 2025,5,5,Loughborough, LE11 5DG
100030442600,,7,Fearon Street,10 October 2023,09 October 2028,5,5,Loughborough, LE11 5DG
10004001106,,16a,Fennel Street,29 February 2024,28 February 2029,4,1,Loughborough, LE11 1UQ
10004001249,Flat 1 Highland Court,14,Fennel Street,07 March 2024,06 March 2029,4,1,Loughborough, LE11 1UQ
10004001253,Flat 5 Highland Court,14,Fennel Street,18 March 2024,17 March 2029,4,1,Loughborough, LE11 1UQ
10004001254,," Flat 6, Highland Court 14",Fennel Street,04 March 2024,03 March 2029,4,1,Loughborough, LE11 1UQ
10004001255,"Flat 7, Highland Court",14,Fennel Street,18 March 2024,17 March 2029,4,1,Loughborough, LE11 1UQ
100032039079,,17,Fennel Street,27 February 2024,26 February 2029,10,1,Loughborough, LE11 1UQ
100030442873,,26,Forest Road,14 December 2023,24 April 2028,5,5,Loughborough, LE11 3NP
100030442877,,32,Forest Road,20 July 2023,19 July 2028,5,5,Loughborough, LE11 3NP
10094170953,,14,Forest Road,16 November 2018,16 November 2023,6,6,Loughborough, LE11 3NP
10096754833,Flat 1 May Mills House,59,Forest Road,14 March 2024,13 March 2029,5,5,Loughborough, LE11 3NW
10096754834,Flat 2 May Mills House,59,Forest Road,18 March 2024,17 March 2029,4,4,Loughborough, LE11 3NW
10096754835,Flat 3 May Mills House,59,Forest Road,18 March 2024,17 March 2029,5,5,Loughborough, LE11 3NW
10096754836,Flat 4 May Mills House,59,Forest Road,14 March 2024,13 March 2029,4,4,Loughborough, LE11 3NW
10096754837,Flat 5 May Mills House,59,Forest Road,21 March 2024,20 March 2029,3,3,Loughborough, LE11 3NW
100030000000,,5,Forest Road,27 July 2023,10 August 2027,6,6,Loughborough, LE11 3NW
100030442854,,1,Forest Road,13 December 2021,12 December 2026,5,5,Loughborough, LE11 3NW
100030442865,,13,Forest Road,20 May 2020,29 November 2024,8,8,Loughborough, LE11 3NW
100030442868,,15,Forest Road,20 May 2020,29 November 2024,12,12,Loughborough, LE11 3NW
100030442879,,49,Forest Road,14 March 2024,13 March 2029,6,6,Loughborough, LE11 3NW
100030442887,,67-69,Forest Road,02 November 2023,04 September 2027,30,30,Loughborough, LE11 3NW
100030442894,,82,Forest Road,05 February 2019,05 February 2024,6,6,Loughborough, LE11 3NP
100030442897,,89,Forest Road,15 March 2019,15 March 2024,6,6,Loughborough, LE11 3NW
100030442928,,118,Forest Road,29 February 2024,28 February 2029,7,7,Loughborough, LE11 3NR
100030442939,,138,Forest Road,30 April 2021,29 April 2026,6,6,Loughborough, LE11 3NR
100030442941,,140,Forest Road,15 July 2020,15 July 2025,6,6,Loughborough, LE11 3NR
100030442943,,142,Forest Road,11 December 2023,10 December 2028,3,3,Loughborough, LE11 3NR
100030442944,,143,Forest Road,22 January 2024,24 January 2028,6,6,Loughborough, LE11 3HS
100030442946,,145,Forest Road,04 January 2024,03 January 2029,4,4,Loughborough, LE11 3HS
100030442950,,151,Forest Road,14 March 2024,13 March 2029,3,3,Loughborough, LE11 3HS
100030442956,,159,Forest Road,06 July 2020,05 July 2025,6,6,Loughborough, LE11 3HS
100030442961,,169,Forest Road,21 May 2019,21 May 2024,6,6,Loughborough, LE11 3HS
100030442962,,171,Forest Road,01 November 2019,01 November 2024,5,5,Loughborough, LE11 3HS
100030442998,,227,Forest Road,01 March 2024,28 February 2029,6,6,Loughborough, LE11 3HS
100030443022,,255,Forest Road,12 June 2019,12 June 2024,7,7,Loughborough, LE11 3HT
100030443037,Carpenters Arms,272,Forest Road,16 May 2019,16 May 2024,6,6,Loughborough, LE11 3HX
100032234929,,,Fosse Way,14 September 2020,14 September 2025,29,29,Burton On The Wolds, LE14 3PD
100030443239,,6,Fox Covert,11 March 2024,10 March 2029,5,1,Loughborough, LE11 1NA 
10030443367,,32,Frederick Street,15 November 2023,14 November 2028,4,4,Loughborough, LE11 3BJ
100030443365,,28,Frederick Street,24 August 2023,23 August 2028,5,5,Loughborough, LE11 3BJ
100030443371,,42,Frederick Street,17 May 2023,13 July 2027,5,5,Loughborough, LE11 3BJ
100030443374,,48,Frederick Street,13 June 2023,12 November 2027,6,6,Loughborough, LE11 3BJ
100030443379,,57,Frederick Street,10 October 2023,09 October 2028,6,6,Loughborough, LE11 3BH
100030443380,,58,Frederick Street,18 December 2023,17 December 2028,6,6,Loughborough, LE11 3BH
100030443381,,59,Frederick Street,27 July 2023,26 July 2028,5,5,Loughborough, LE11 3BH
100030443382,,60,Frederick Street,23 February 2024,22 February 2029,6,6,Loughborough, LE11 3BJ
100030443384,,62,Frederick Street,14 June 2019,14 June 2024,6,6,Loughborough, LE11 3BJ
100030443387,,64,Frederick Street,02 November 2023,01 November 2028,6,6,Loughborough, LE11 3BJ
100030443389,,66,Frederick Street,08 November 2018,08 November 2023,6,6,Loughborough, LE11 3BJ
100030443390,,67,Frederick Street,20 October 2018,20 October 2023,6,6,Loughborough, LE11 3BH
100030443391,,68,Frederick Street,08 March 2024,07 March 2029,6,6,Loughborough, LE11 3BJ
100030443392,,70,Frederick Street,23 October 2023,22 October 2028,6,6,Loughborough, LE11 3BJ
100030443393,,72,Frederick Street,30 November 2021,29 November 2026,6,6,Loughborough, LE11 3BJ
100030443394,,74,Frederick Street,27 January 2020,13 September 2024,6,6,Loughborough, LE11 3BJ
100030443395,,76,Frederick Street,02 June 2019,02 June 2024,6,6,Loughborough, LE11 3BJ
100030443396,,77,Frederick Street,27 May 2020,26 May 2025,5,5,Loughborough, LE11 3TL
100030443411,Flat 39,96,Frederick Street,12 February 2019,12 February 2024,6,6,Loughborough, LE11 3BJ
100032039975,,26,Frederick Street,22 February 2024,21 February 2029,5,5,Loughborough, LE11 3BJ 
100030443485 ,Flat 75,31-41,Freehold Street,12 February 2024,11 February 2029,4,1,Loughborough, LE11 1AN
100030443508,,71-85,Freehold Street,21 November 2023,20 December 2028,5,1,Loughborough,LE11 1AN
10023776861,,37a,Garendon Green,20 May 2020,29 November 2024,5,5,Loughborough, LE11 4QA
100030443688,,35,Garendon Green,04 March 2024,03 March 2029,4,4,Loughborough, LE11 4QA
100030443690,,39,Garendon Green,22 August 2019,22 August 2024,5,5,Loughborough, LE11 4QA
100030443693,,45,Garendon Green,24 January 2024,18 October 2028,6,6,Loughborough, LE11 4QA
100030443768,,2,Garendon Road,06 December 2018,06 December 2023,6,6,Loughborough, LE11 4QD
100030443769,,3,Garendon Road,14 March 2024,13 March 2029,6,6,Loughborough, LE11 4QB
100030443770,,4,Garendon Road,06 December 2018,06 December 2023,6,6,Loughborough, LE11 4QD
100030443774,,8,Garendon Road,06 December 2018,06 December 2023,5,5,Loughborough, LE11 4QD
100030443776,,10,Garendon Road,06 December 2018,06 December 2023,6,6,Loughborough, LE11 4QD
100030443779,,13,Garendon Road,31 October 2023,30 October 2028,4,4,Loughborough, LE11 4QB
100030443784,,17,Garendon Road,30 January 2019,30 January 2024,6,6,Loughborough, LE11 4QB
100030443787,,22,Garendon Road,13 March 2024,12 March 2029,3,3,Loughborough, LE11 4QD
100030443795,,32,Garendon Road,14 February 2019,14 February 2024,5,5,Loughborough, LE11 4QD
100030443799,,36,Garendon Road,06 December 2018,06 December 2023,6,6,Loughborough, LE11 4QD
100030443806,,44,Garendon Road,01 March 2021,28 February 2026,5,5,Loughborough, LE11 4QD
100030443812,,51,Garendon Road,25 June 2019,25 June 2024,6,6,Loughborough, LE11 4QB
100030443815,,55,Garendon Road,27 February 2024,26 February 2029,5,5,Loughborough, LE11 4QB
100030443826,,9,Garton Road,30 August 2023,29 August 2028,6,6,Loughborough, LE11 2DY
100030443860,,14,George Street,10 February 2024,09 February 2029,4,4,Loughborough, LE11 5DQ
100030443862,,16,George Street,26 February 2024,25 February 2029,3,3,Loughborough, LE11 5DQ
100030443863,,18,George Street,26 October 2023,25 October 2028,3,3,Loughborough, LE11 5DQ
100030443864,,20,George Street,10 May 2023,09 May 2028,5,5,Loughborough, LE11 5DQ
100030443865,,22,George Street,10 February 2024,09 February 2029,5,3,Loughborough, LE11 5DQ
100030443870,,32,George Street,05 March 2024,04 March 2029,3,3,Loughborough, LE11 5DQ
100030443850,,1,George Street ,04 March 2024,03 March 2029,4,4,Loughborough, LE11 5DQ
100030443854,,8,George Street ,07 March 2024,06 March 2029,4,4,Loughborough, LE11 5DQ
100030443858,,12,George Street ,15 November 2023,14 November 2028,3,3,Loughborough, LE11 5DQ
10093366075,,17,Gladstone Avenue,27 February 2024,26 February 2029,6,6,Loughborough, LE11 1NP
10070075029,,44b,Gladstone Street ,14 March 2024,13 March 2029,5,1,Loughborough, LE11 1NS
100030443948,,28,Gladstone Street ,16 February 2024,15 February 2029,4,4,Loughborough, LE11 1NR
100030444014,,31,Gladstone Street ,03 November 2023,02 November 2028,4,4,Loughborough, LE11 1NR
100030444020,,37,Gladstone Street ,14 March 2024,13 March 2029,4,4,Loughborough, LE11 1NR
100030444026,,43,Gladstone Street ,31 October 2023,30 October 2028,8,1,Loughborough, LE11 1NR
100030444029,,46,Gladstone Street ,25 March 2024,24 March 2029,4,4,Loughborough, LE11 1NS
100030444056,,79,Gladstone Street ,04 March 2024,03 March 2029,8,1,Loughborough, LE11 1NR
 100030444019,,36,Gladstone Street ,18 November 2023,17 November 2028,9,1,Loughborough, LE11 1NR
100030444151,,18,Glebe Street,08 November 2023,07 November 2028,8,1,Loughborough, LE11 1JR 
100030444168,,34b,Glebe Street,27 March 2024,26 March 2029,4,1,Loughborough, LE11 1JR 
100032039032,,34,Glebe Street,27 March 2024,26 March 2029,4,1,Loughborough, LE11 1JR 
100030444148,,8,Glebe Street,11 March 2024,10 March 2029,10,1,Loughborough, LE11 1JR
100030444149,,11,Glebe Street,15 February 2024,14 February 2024,4,1,Loughborough, LE11 1JR
100030444155,,9,Glebe Street,15 February 2024,14 February 2029,6,1,Loughborough, LE11 1JR
10004000859,,1,Goldfinch Close,21 September 2023,12 December 2027,6,6,Loughborough, LE11 3HG
10004000860,,2,Goldfinch Close,15 February 2021,03 October 2025,6,6,Loughborough, LE11 3HG
10004000861,,3,Goldfinch Close,07 May 2021,30 December 2025,6,6,Loughborough, LE11 3HG
10004000862,,4,Goldfinch Close,20 December 2023,19 December 2028,6,6,Loughborough, LE11 3HG
10004000863,,5,Goldfinch Close,03 October 2023,19 December 2027,6,6,Loughborough, LE11 3HG
10004000864,,6,Goldfinch Close,14 March 2024,13 March 2029,6,6,Loughborough, LE11 3HG
10004000866,,8,Goldfinch Close,24 September 2021,18 August 2026,6,6,Loughborough, LE11 3HG
10004000867,,9,Goldfinch Close,19 July 2023,14 October 2027,5,5,Loughborough, LE11 3HG
10004000869,,11,Goldfinch Close,01 March 2019,01 March 2024,5,5,Loughborough, LE11 3HG
10004000871,,17,Goldfinch Close,28 February 2024,27 February 2029,4,4,Loughborough, LE11 3HG
10004000874,,19,Goldfinch Close,18 December 2023,17 December 2028,4,4,Loughborough, LE11 3HG
10004000876,,14,Goldfinch Close,05 March 2024,04 March 2029,4,4,Loughborough, LE11 3HG
10004000877,,20,Goldfinch Close,11 December 2023,10 December 2028,4,4,Loughborough,LE11 3HG
10004000879,,22,Goldfinch Close,07 December 2023,06 December 2028,4,3,Loughborough,LE11 3HG
10004000880,,23,Goldfinch Close,11 January 2024,10 January 2029,4,4,Loughborough,LE11 3HG
10004000882,,27,Goldfinch Close,29 February 2024,28 February 2029,4,4,Loughborough,LE11 3HG
10008151657,,11,Goods Yard Close,18 April 2019,18 April 2024,5,5,Loughborough, LE11 5EB
10008151658,,9,Goods Yard Close,06 March 2024,05 March 2029,4,4,Loughborough, LE11 5EB
10008151659,,7,Goods Yard Close,20 February 2024,19 February 2024,5,4,Loughborough, LE11 5EB
10008151660,,15,Goods Yard Close,06 March 2024,05 March 2029,3,3,Loughborough, LE11 5EB
10008151661,,17,Goods Yard Close,06 March 2024,05 March 2029,3,3,Loughborough, LE11 5EB
10008151662,,19,Goods Yard Close,17 February 2024,16 February 2029,3,3,Loughborough, LE11 5EB
10008151664,,23,Goods Yard Close,10 July 2019,10 July 2024,5,5,Loughborough, LE11 5EB
10008151665,,25,Goods Yard Close,06 April 2020,06 April 2025,5,5,Loughborough, LE11 5EB
10008151666,,27,Goods Yard Close,11 March 2024,10 March 2029,4,4,Loughborough, LE11 5EB
10008151667,,29,Goods Yard Close,04 March 2024,03 March 2029,6,6,Loughborough, LE11 5EB
10008151668,,31,Goods Yard Close,20 March 2024,19 March 2029,3,3,Loughborough, LE11 5EB
10008151672,,39,Goods Yard Close,29 June 2023,28 June 2028,5,5,Loughborough, LE11 5EB
10008151673,,41,Goods Yard Close,18 December 2023,17 December 2028,4,4,Loughborough, LE11 5EB
10008151674,,43,Goods Yard Close,29 February 2024,28 February 2029,5,4,Loughborough, LE11 5EB
10008151677,,49,Goods Yard Close,14 February 2023,13 February 2028,5,5,Loughborough, LE11 5EB
10008151678,,51,Goods Yard Close,04 June 2021,03 June 2026,5,5,Loughborough, LE11 5EB
10008151679,,2,Goods Yard Close,15 March 2019,15 March 2024,5,5,Loughborough, LE11 5EB
10008151680,,4,Goods Yard Close,24 January 2024,15 November 2028,5,5,Loughborough, LE11 5EB
10008151684,,12,Goods Yard Close,06 March 2024,05-Mar-294,4,4,Loughborough, LE11 5EB
100030444341,,20,Gracedieu Road,06 December 2018,06 December 2023,6,6,Loughborough, LE11 4QG
100030444352,,31,Gracedieu Road,16 December 2021,15 December 2026,5,5,Loughborough, LE11 4QF
100030444362,,41,Gracedieu Road,30 November 2018,30 November 2023,6,6,Loughborough, LE11 4QF
100030444370,,49,Gracedieu Road,30 November 2018,30 November 2023,5,5,Loughborough, LE11 4QF
100030444373,,52,Gracedieu Road,30 November 2018,30 November 2023,5,5,Loughborough, LE11 4QG
100030444374,,53,Gracedieu Road,29 February 2024,28 February 2029,3,3,Loughborough, LE11 4QF
100030444375,,54,Gracedieu Road,04 July 2019,05 December 2023,6,6,Loughborough, LE11 4QG
100030444377,,56,Gracedieu Road,14 December 2018,14 December 2023,6,6,Loughborough, LE11 4QG
100030444378,,57,Gracedieu Road,30 November 2018,30 November 2023,6,6,Loughborough, LE11 4QF
100030444380,,59,Gracedieu Road,13 February 2024,12 February 2029,5,5,Loughborough, LE11 4QF
100030444399,,80,Gracedieu Road,13 March 2024,12 March 2029,3,3,Loughborough, LE11 4QG
100030444401,,82,Gracedieu Road,10 November 2023,09 November 2028,6,6,Loughborough, LE11 4QG
100030444409,,90,Gracedieu Road,06 December 2018,06 December 2023,6,6,Loughborough, LE11 4QG
100030444420,,103,Gracedieu Road,27 October 2021,26 October 2026,6,6,Loughborough, LE11 4QF
100030444393 ,,74,Gracedieu Road,15 February 2024,14 February 2029,5,4,Loughborough, LE11 4QG
10070066735 ,,94,Gracedieu Road,16 February 2024,15 February 2024,4,4,Loughborough, LE11 4QG
10012191559,,54a,Gracedieu Road,07 September 2023,06 September 2028,5,5,Loughborough,LE11 4QG
100030444376,,55,Gracedieu Road,01 March 2024,28 February 2029,3,3,Loughborough,LE11 4QG
100032039984,,39,Granby Street,30 November 2021,29 November 2026,6,6,Loughborough, LE11 3DU
100032039982 ,,29,Granby Street,14 September 2023,13 September 2028,6,6,Loughborough, LE11 3DU
10095778150,,1a,Grange Street,04 January 2024,03 January 2029,4,1,Loughborough, LE11 1QG
10095778151,,1b,Grange Street,30 January 2024,29 January 2029,3,1,Loughborough, LE11 1QG
100030444564,,8,Grange Street,08 November 2023,07 November 2028,6,6,Loughborough, LE11 1QG
100030444572,,12,Grange Street,19 March 2024,18 March 2029,4,4,Loughborough, LE11 1QG
100030444574,,14,Grange Street,12 March 2021,11 March 2026,5,5,Loughborough, LE11 1QG
100030444580,,20,Grange Street,11 April 2024,10 April 2029,6,1,Loughborough, LE11 1QG
100030444587,,26,Grange Street,29 February 2024,28 February 2029,4,4,Loughborough, LE11 1QG
100030444563 ,,3,Grange Street,16 February 2024,15 February 2029,2,2,Loughborough, LE11 1QG
100030444575 ,,15,Grange Street,16 February 2024,15 February 2029,9,1,Loughborough, LE11 1QG
100030444568,,4,Grange Street,21 February 2024,20 February 2029,4,4,Loughborough,LE11 1QG
10003044623,,38,Granville Street,07 March 2024,06 March 2029,4,4,Loughborough, LE11 3BN
10003044630,,45,Granville Street,21 March 2024,20 March 2029,3,3,Loughborough, LE11 3BL
100030444578,,17,Granville Street,01 February 2024,31 January 2029,3,3,Loughborough, LE11 3BL
100030444580,,18,Granville Street,07 March 2024,06 March 2029,4,4,Loughborough, LE11 3BN
100030444582,,20,Granville Street,19 February 2024,18 February 2029,4,4,Loughborough, LE11 3BL
100030444585,,2,Granville Street,19 February 2024,18 February 2029,5,5,Loughborough, LE11 3BL
100030444585,,24,Granville Street,19 February 2024,18 February 2029,4,4,Loughborough, LE11 3BL
100030444590,,5,Granville Street,13 March 2024,12 March 2029,3,3,Loughborough, LE11 3BL
100030444591,,6,Granville Street,25 March 2024,24 March 2029,4,4,Loughborough, LE11 3BN
100030444599,,14,Granville Street,29 February 2024,28 February 2029,4,4,Loughborough, LE11 3BN
100030444602,,15,Granville Street,15 November 2023,14 November 2028,3,3,Loughborough, LE11 3BL
100030444609,,22,Granville Street,29 February 2024,28 February 2029,4,4,Loughborough, LE11 3BN
100030444610,,25,Granville Street,29 February 2024,28 February 2029,4,4,Loughborough, LE11 3BL
100030444613,,26,Granville Street,19 February 2024,18 February 2029,4,4,Loughborough, LE11 3BL
100030444613,,30,Granville Street,18 December 2023,17 December 2028,4,4,Loughborough, LE11 3BL
100030444615,,28,Granville Street,19 February 2024,18 February 2029,4,4,Loughborough, LE11 3BL
100030444617,,32,Granville Street,28 February 2024,27 February 2029,4,4,Loughborough, LE11 3BN
100030444618,,33,Granville Street,10 February 2024,09 February 2029,4,4,Loughborough, LE11 3BL
100030444620,,35,Granville Street,03 July 2019,03 July 2024,6,4,Loughborough, LE11 3BL
100030444621,,37,Granville Street,18 April 2019,18 April 2024,6,4,Loughborough, LE11 3BL
100030444622,,36,Granville Street,19 February 2024,18 February 2029,4,4,Loughborough, LE11 3BL
100030444624,,39,Granville Street,20 February 2024,19 February 2029,4,4,Loughborough, LE11 3BL
100030444625,,42,Granville Street,28 October 2023,27 October 2028,4,4,Loughborough, LE11 3BN
100030444627,,40,Granville Street,19 February 2024,18 February 2029,4,4,Loughborough, LE11 3BL
100030444628,,43,Granville Street,19 February 2024,18 February 2029,3,3,Loughborough, LE11 3BN
100030444635,,50,Granville Street,14 March 2024,13 March 2029,4,4,Loughborough, LE11 3BN
100030444637,,52,Granville Street,04 December 2020,24 July 2025,5,5,Loughborough, LE11 3BN
100030444640,,60,Granville Street,14 February 2024,13 February 2029,4,4,Loughborough, LE11 3BN
100030444641,,58,Granville Street,10 March 2024,09 March 2029,4,3,Loughborough, LE11 3BN
100030444643,,62,Granville Street,17 March 2021,16 March 2026,5,5,Loughborough, LE11 3BN
100030444644,Flat,64,Granville Street,12 April 2022,11 April 2027,6,6,Loughborough, LE11 3BN
898346942684,,9,Granville Street,21 February 2024,20 February 2029,3,3,Loughborough, LE11 3BL
100030444638 ,,53,Granville Street,14 February 2024,13 February 2029,3,3,Loughborough, LE11 3BL
100030444642 ,,56,Granville Street,05 March 2024,04 March 2029,4,4,Loughborough, LE11 3BN
100030444601,,16,Granville Street,29 February 2024,28 February 2024,4,4,Loughborough,LE11 3BL
10023776033,Flat,3,Great Central Road,25 July 2019,25 July 2024,5,5,Loughborough, LE11 1RW
10023778157,Flat,6,Great Central Road,13 October 2023,12 October 2028,1,1,Loughborough, LE11 1RW
10023778159,,8,Great Central Road,14 October 2023,13 October 2028,1,1,Loughborough, LE11 1RW
100030444768,,18,Great Central Road,08 June 2023,17 September 2027,6,6,Loughborough, LE11 1RW
100030444771,,22,Great Central Road,08 October 2023,07 October 2028,8,8,Loughborough, LE11 1RW
100030444987,Flat 1 ,1,Gregory Street,04 March 2024,03 March 2029,4,1,Loughborough, LE11 1AS
100030444989,Flat 2,1,Gregory Street,04 March 2024,3-Marh-29,2,1,Loughborough, LE11 1AS
100030444990,Flat 3 ,1,Gregory Street,04 March 2024,03 March 2029,2,1,Loughborough, LE11 1AS
100030444991,Flat 4 ,1,Gregory Street,04 March 2024,03 March 2029,2,1,Loughborough, LE11 1AS
100030444992,Flat 5,1,Gregory Street,04 March 2024,03 March 2029,2,1,Loughborough, LE11 1AS
100030445177,,2,Grove Road,25 May 2023,18 December 2027,6,6,Loughborough, LE11 3QN
100030445179,,6,Grove Road,01 November 2018,01 November 2023,6,6,Loughborough, LE11 3QN
200000836977,Flat 37,19-21,Hall Croft,27 September 2022,26 September 2027,8,8,Shepshed, LE12 9AN
1001219037,,28,Hartington Street,24 October 2023,23 October 2028,7,1,Loughborough, LE11 1HT
10012190367,Flat 15,23-Jul,Hartington Street,04 March 2024,03 March 2029,5,1,Loughborough, LE11 1HT
10012190378,,25-39,Hartington Street,07 November 2023,06 November 2028,2,1,Loughborough, LE11 1HT
100030445489,,10,Hastings Street,26 March 2024,25 March 2029,3,3,Loughborough, LE11 5AX
100030445491,,13,Hastings Street,04 May 2020,04 May 2025,5,5,Loughborough, LE11 5AX
100030445493,,12,Hastings Street,27 February 2024,26 February 2029,4,4,Loughborough, LE11 5AX
100030445498,,18,Hastings Street,14 February 2023,13 February 2028,5,5,Loughborough, LE11 5AX
100030445508,,35,Hastings Street,12 May 2020,12 May 2025,5,5,Loughborough, LE11 5AX
100030445509,,37,Hastings Street,06 March 2024,05 March 2029,4,4,Loughborough, LE11 5AX
100030445500,,20,Hastings Street,10 October 2023,09 October 2028,4,4,Loughborough,LE11 5AX
100030445507,,33,Hastings Street,29 February 2024,28 February 2029,4,4,Loughborough,LE11 5AX
10004000956,,57,Havelock Street,18 December 2023,17 December 2028,4,4,Loughborough, LE11 5DH
10004000960,,65,Havelock Street,11 January 2024,10 January 2029,4,4,Loughborough, LE11 5DH
10008150828,,26a,Havelock Street,08 March 2019,08 March 2024,6,6,Loughborough, LE11 5DH
10012189944,,6a,Havelock Street,24 November 2021,23 November 2026,6,6,Loughborough, LE11 5DH
10012190499,,6b,Havelock Street,24 November 2021,23 November 2026,6,6,Loughborough, LE11 5DH
100030445568,,8,Havelock Street,24 November 2021,23 November 2026,6,6,Loughborough, LE11 5DH
100030445569,,10,Havelock Street,28 March 2019,28 March 2024,5,5,Loughborough, LE11 5DH
100030445570,,12,Havelock Street,28 October 2023,27 October 2028,3,3,Loughborough, LE11 5DH
100030445571,,14,Havelock Street,15 November 2023,14 November 2028,5,5,Loughborough, LE11 5DH
100030445575,,22,Havelock Street,12 March 2021,30 November 2025,5,5,Loughborough, LE11 5DH
100030445576,,24,Havelock Street,27 February 2024,26 February 2029,3,3,Loughborough, LE11 5DH
100030445579,,30,Havelock Street,31 October 2023,30 October 2028,3,3,Loughborough, LE11 5DH
100030445580,,32,Havelock Street,26 March 2024,25 March 2029,4,4,Loughborough, LE11 5DH
100030445585,,41,Havelock Street,02 February 2024,19 February 2029,4,4,Loughborough, LE11 5DH
100030445587,,45,Havelock Street,27 February 2024,26 February 2029,5,5,Loughborough, LE11 5DH
100030445588,,43,Havelock Street,13 March 2024,12 March 2029,3,3,Loughborough, LE11 5DH
100030445591,,37,Havelock Street,28 February 2024,27 February 2029,4,4,Loughborough, LE11 5DH
100030445592,,58,Havelock Street,01 February 2024,31 January 2029,3,3,Loughborough, LE11 5DH
100030445597,,68,Havelock Street,05 April 2019,05 April 2024,5,5,Loughborough, LE11 5DH
100030445600,,73,Havelock Street,25 July 2023,24 July 2028,5,5,Loughborough, LE11 5DH
100030445603,,79,Havelock Street,14 February 2023,13 February 2028,5,5,Loughborough, LE11 5DH
100030445574,,20,Havelock Street ,14 March 2024,13 March 2029,4,4,Loughborough, LE11 5DH
100030445589,,49,Havelock Street ,17 October 2023,16 October 2028,4,4,Loughborough, LE11 5DH
100030445774,,3,Haydon Road,16 July 2019,16 July 2024,6,6,Loughborough, LE11 5QQ
100030445901,,3,Hayward Avenue,20 February 2024,19 February 2029,8,1,Loughborough, LE11 2PR
100030445798,,4,Heathcoat Street,11 July 2019,11 July 2024,6,6,Loughborough, LE11 3BW
100030445904,,10,Heathcoat Street,04 February 2019,04 February 2024,5,5,Loughborough, LE11 3BW
100030445906,,14,Heathcoat Street,08 November 2018,08 November 2023,5,5,Loughborough, LE11 3BW
100030445908,,16,Heathcoat Street,29 February 2024,28 February 2029,5,5,Loughborough, LE11 3BW
100030445915,,21,Heathcoat Street,06 March 2024,05 March 2029,4,4,Loughborough, LE11 3BW
100030445919,,27,Heathcoat Street,01 March 2021,25 July 2025,5,5,Loughborough, LE11 3BW
200000838165,,24,Heathcoat Street,25 January 2019,25 January 2024,10,10,Loughborough, LE11 3BW
10093366356,6,2,Henderson Way,20 December 2023,19 December 2028,3,1,Loughborough, LE11 1SS
10093366365,Flat 8 ,2,Henderson Way,14 March 2024,13 March 2029,4,1,Loughborough, LE11 1SS
10093366350,Flat 2,1,Henderson Way,27 March 2024,26 March 2029,4,1,Loughborough,LE11 1SR
10093366363,8,1,Henderson Way,18-01-2024,17-01-2029,2,1,Loughborough,LE11 1SR
100030446023,,19,Herbert Street,26 July 2021,17 April 2026,6,6,Loughborough, LE11 1NU
100030446030,,26,Herbert Street,06 July 2020,06 July 2025,5,5,Loughborough, LE11 1NX
100030446034,,34,Herbert Street,15 February 2022,14 February 2027,5,5,Loughborough, LE11 1NX
100030446063,,9,Hermitage Road,24 July 2020,24 July 2025,5,5,Loughborough, LE11 4PA
100030446115,,76,Hermitage Road,04 January 2019,04 January 2024,6,6,Loughborough, LE11 4PE
100030446137,,98,Hermitage Road,19 June 2019,19 June 2024,5,5,Loughborough, LE11 4PF
100030446156,,117,Hermitage Road,29 February 2024,28 February 2029,4,4,Loughborough, LE11 4PB
100030446165,,126,Hermitage Road,19 March 2024,18 March 2029,4,4,Loughborough, LE11 4PF
100030446184,,145,Hermitage Road,28 March 2024,27 March 2029,5,4,Loughborough, LE11 4PB
100030446185,,146,Hermitage Road,14 March 2024,13 March 2029,4,4,Loughborough, LE11 4PF
100030446186,,147,Hermitage Road,14 December 2018,14 December 2023,5,5,Loughborough, LE11 4PB
100030446195,,156,Hermitage Road,14 March 2024,13 March 2029,3,3,Loughborough, LE11 4PF
100030446219,,180,Hermitage Road,26 March 2024,25 March 2029,6,6,Loughborough, LE11 4PF
100030446232,,201,Hermitage Road,14 March 2024,13 March 2029,4,4,Loughborough, LE11 4PD
100030446308,Herrick House,2,Herrick Road,04 January 2024,03 January 2029,14,14,Loughborough, LE11 2BT
100030446315,,9,Herrick Road,20 July 2022,19 July 2027,7,7,Loughborough, LE11 2BP
100030446322,,16,Herrick Road,30 August 2023,30 August 2028,7,7,Loughborough, LE11 2BT
100030446346,,92,Herrick Road,28 February 2024,27 February 2029,11,11,Loughborough, LE11 2BT
100030446357,,118,Herrick Road,12 October 2023,11 October 2028,7,7,Loughborough, LE11 2BU
100030446359,,120,Herrick Road,27 November 2020,26 November 2025,5,5,Loughborough, LE11 2BU
100030446360,,121,Herrick Road,27 September 2022,26 September 2027,5,5,Loughborough, LE11 2BS
100030446365,,127,Herrick Road,29 February 2024,28 February 2029,4,4,Loughborough, LE11 2BS
100030446368,,130,Herrick Road,07 December 2023,06 December 2028,5,5,Loughborough, LE11 2BU
100030446384,,150,Herrick Road,29 May 2019,29 May 2024,6,6,Loughborough, LE11 2BU
100032039615,,148,Herrick Road,29 May 2019,29 May 2024,5,5,Loughborough, LE11 2BU
100030446598 ,Flat,3a,High Street,27 February 2024,26 February 2029,9,1,Loughborough, LE11 2PY
10091074946,,32,High Street,31 August 2023,10 December 2027,7,7,Loughborough, LE11 2PZ
100030446951,,7,Holbein Close ,07 March 2024,06 March 2029,6,1,Loughborough, LE11 1PS
100030446953,,9,Holbein Close ,02 November 2023,01 November 2028,8,1,Loughborough, LE11 1PS
10070068405,,3,Holland Close,18 March 2024,17 March 2029,5,1,Loughborough, LE11 1EF
10070068411,,9,Holland Close,11 March 2024,10 March 2029,5,1,Loughborough, LE11 1EF
10070068419,,18,Holland Close,18 March 2024,17 March 2029,5,1,Loughborough, LE11 1EF
10070068423,,22,Holland Close,18 March 2024,17 March 2029,5,1,Loughborough, LE11 1EF
100030447096,,4,Holland Close,06 March 2024,05 March 2029,5,1,Loughborough, LE11 1EF
100070068424,,23,Holland Close,14 March 2024,12 March 2029,5,1,Loughborough, LE11 1EF
100030447066,,27,Holmfield Avenue,19 February 2024,18 February 2029,6,1,Loughborough, LE11 5HS
100030447077,,38,Holmfield Avenue,28 October 2023,27 October 2028,5,1,Loughborough, LE11 5HT
100030447082,,49,Holmfield Avenue,15 February 2024,14 February 2029,7,1,Loughborough, LE11 5HT
100030447223,,43,Holmfield Avenue,20 February 2024,19 February 2024,7,1,Loughborough, LE11 5HT
10070068406,,47,Holmfield Avenue,12 February 2024,12 February 2029,6,1,Loughborough,LE11 5HS
10023776669,Flat 24 Block B,The Holt,Holt Drive,21 February 2024,20 February 2029,6,6,Loughborough,LE11 3JB 
10023776672,Flat 26 Block C,The Holt,Holt Drive,21 February 2024,20 February 2029,4,4,Loughborough,LE11 3JB 
10023776675,Flat 29 Block C,The Holt,Holt Drive,21 February 2024,20 February 2029,6,6,Loughborough,LE11 3JB 
10023776683,Flat 38 Block D,The Holt,Holt Drive,21 February 2024,20 February 2029,6,6,Loughborough,LE11 3JB 
10023776685,Flat 40 Block D,The Holt,Holt Drive,21 February 2024,20 February 2029,4,4,Loughborough,LE11 3JB 
100030447086,,1,Holt Drive,13 December 2023,20 May 2028,5,5,Loughborough, LE11 3HZ
100030447135,,40,Holt Drive,04 December 2023,03 December 2028,3,3,Loughborough, LE11 3JA
100030447185,,94,Holt Drive,19 February 2024,18 February 2029,6,6,Loughborough, LE11 3JA
100030447192,Flat 17 Block B,108,Holt Drive,30 May 2019,30 May 2024,5,5,Loughborough, LE11 3JA
10023776664 ,Flat 18 Block B,The Holt,Holt Drive,21 February 2024,20 February 2029,5,5,Loughborough,LE11 3JB 
10023776665 ,Flat 20 Block B,The Holt,Holt Drive,21 February 2024,20 February 2029,6,6,Loughborough,LE11 3JB 
10023776667 ,Flat 21 Block B,The Holt,Holt Drive,21 February 2024,20 February 2029,5,5,Loughborough,LE11 3JB 
10023776668 ,Flat 22 Block B,The Holt,Holt Drive,21 February 2024,20 February 2029,6,6,Loughborough,LE11 3JB 
10023776671 ,Flat 25 Block B,The Holt,Holt Drive,21 February 2024,20 February 2029,4,4,Loughborough,LE11 3JB 
10023776673 ,Flat 27 Block C,The Holt,Holt Drive,21 February 2024,20 February 2029,6,6,Loughborough,LE11 3JB 
10023776674 ,Flat 28 Block C,The Holt,Holt Drive,21 February 2024,20 February 2029,6,6,Loughborough,LE11 3JB 
10023776674 ,Flat 30 Block C,The Holt,Holt Drive,21 February 2024,20 February 2029,6,6,Loughborough,LE11 3JB 
10023776677 ,Flat 31 Block C,The Holt,Holt Drive,21 February 2024,20 February 2029,4,4,Loughborough,LE11 3JB 
10023776678 ,Flat 33 Block D,The Holt,Holt Drive,21 February 2024,20 February 2029,4,4,Loughborough,LE11 3JB 
10023776679 ,Flat 35 Block D,The Holt,Holt Drive,21 February 2024,20 February 2029,4,4,Loughborough,LE11 3JB 
10023776681 ,Flat 36 Block D,The Holt,Holt Drive,21 February 2024,20 February 2029,6,6,Loughborough,LE11 3JB 
10023776682 ,Flat 37 Block D,The Holt,Holt Drive,21 February 2024,20 February 2029,6,6,Loughborough,LE11 3JB 
10023776684 ,Flat 39 Block D,The Holt,Holt Drive,21 February 2024,20 February 2029,6,6,Loughborough,LE11 3JB 
10023776686 ,Flat 41 Block D,The Holt,Holt Drive,21 February 2024,20 February 2029,4,4,Loughborough,LE11 3JB 
10023776687 ,,The Holt,Holt Drive,21 February 2024,20 February 2029,4,4,Loughborough,LE11 3JB 
100030447088,,30,Holywell Drive,11 March 2020,11 March 2025,5,5,Loughborough, LE11 3JY
100030447254,,66,Holywell Drive,25 January 2019,25 January 2024,6,6,Loughborough, LE11 3JZ
100030447259,,71,Holywell Drive,14 March 2024,13 March 2029,5,5,Loughborough, LE11 3JX
100030447261,,73,Holywell Drive,06 April 2020,06 April 2025,6,6,Loughborough, LE11 3JX
100030447265,,77,Holywell Drive,02 May 2019,02 May 2024,6,6,Loughborough, LE11 3JX
100030447282,,104,Holywell Drive,05 March 2019,05 March 2024,6,6,Loughborough, LE11 3JZ
100030447285,,107,Holywell Drive,21 May 2019,21 May 2024,6,6,Loughborough, LE11 3JX
100030447254,,66,Holywell Drive ,07 March 2024,06 March 2029,5,5,Loughborough, LE11 3JZ 
100030447286,,108,Holywell Drive ,10 October 2023,09 October 2028,4,4,Loughborough, LE11 3JZ 
100030447555,,32,Howard Street,02 November 2023,01 November 2028,10,1,Loughborough, LE11 1PB
100030447557,,34,Howard Street,12 March 2024,11 March 2029,4,4,Loughborough, LE11 1PB
100030447567,,45,Howard Street,29 June 2023,10 August 2027,5,5,Loughborough, LE11 1PB
100030447572,,50,Howard Street,20 February 2024,21 February 2029,8,1,Loughborough, LE11 1PD
100030447574,,52,Howard Street,18 March 2024,17 March 2029,8,1,Loughborough, LE11 1PD
100030447583,,64,Howard Street,07 March 2024,06 March 2029,3,1,Loughborough, LE11 1PD
100030447584,,66,Howard Street,18 March 2024,17 March 2029,9,1,Loughborough, LE11 1PD
100030447597,,92,Howard Street,13 March 2024,12 March 2029,8,1,Loughborough, LE11 1PD
100030447657,,1,Hudson Street,25 March 2022,24 March 2027,6,5,Loughborough, LE11 1EJ
100030447702,Flat 41 ,40-45,Hume Street,17 October 2023,16 October 2028,2,1,Loughborough, LE11 1AT
100030447703,Flat 42,40-45,Hume Street,18 March 2024,17 March 2029,3,1,Loughborough, LE11 1AT
100030447992,,9,Judge Street,18 March 2024,17 March 2029,7,1,Loughborough, LE11 1RU
100030448009,,28,Judges Street ,23 October 2023,22 October 2028,6,1,Loughborough, LE11 1RX
100030448036,,57,Judges Street ,30 October 2023,29 October 2028,9,1,Loughborough, LE11 1RU
100030448043,,66,Judges Street  ,02 November 2023,01 November 2028,9,1,Loughborough, LE11 1RX
100030448270,,13,Keswick Avenue,29 February 2024,28 February 2029,6,6,Loughborough, LE11 3RL
100030448338,,52,King Edward Road,16 February 2024,15 February 2029,6,1,Loughborough, LE11 1RZ
840229683488,,54,King Edward Road,20 February 2024,19 February 2029,6,1,Loughborough, LE11 1RZ
100030448444 ,,40,King Edward Road,08 February 2024,07 February 2029,6,1,Loughborough, LE11 1RZ
100030448393,,16,King George Avenue,18 March 2024,17 March 2029,7,1,Loughborough, LE11 2NU
100030448396,,19,King George Avenue,11 March 2024,10 March 2029,6,1,Loughborough, LE11 2NU
100030448421,,46,King George Avenue,18 March 2024,17 March 2029,6,1,Loughborough, lE11 1NU
100030448352,,22,King George Road,01 March 2024,28 February 2029,6,1,Loughborough, LE11 2PA
100030448431,,9,King George Road,29 February 2024,28 February 2029,8,1,Loughborough, LE11 2NX
100030448465,,43,King George Road,12 March 2024,11 March 2029,8,1,Loughborough, LE11 2NX
100030448603 ,,74,King George Road,20 February 2024,19 February 2029,6,1,Loughborough, LE11 2PA
100030448583,,3,King Street,29 February 2024,28 February 2029,12,1,Loughborough, LE11 1SB
100030448605,,62,King Street,08 November 2023,07 November 2028,8,1,Loughborough, LE11 1SD
100030448612,,55,King Street,22 February 2024,21 February 2029,8,1,Loughborough, LE11 1SD
10023775597,,94,King Street,20 February 2024,19-2-29,8,1,Loughborough, LE11 1SB
100030448627,,77,King Street,23 October 2023,22 October 2028,5,4,Loughborough, LE11 1SD
100030448631,,81,King Street,17 June 2020,17 June 2025,5,5,Loughborough, LE11 1SB
100030448645,,108,King Street,11 March 2024,10 March 2029,9,1,Loughborough, LE11 1SD
100030448660,,138,King Street,18 March 2024,17 March 2029,8,1,Loughborough, LE11 1SD
10023775600,,Block D,"Kingfisher Halls, Kingfisher Way",21 September 2023,15 August 2027,21,21,Loughborough, LE11 3FA
100030448638,,Block A,"Kingfisher Halls, Kingfisher Way",21 September 2023,15 August 2027,34,34,Loughborough, LE11 3FA
10004000715,,27,Kingfisher Way,27 July 2023,26 July 2028,6,6,Loughborough, LE11 3NF
10004000712,,21,Kingfisher Way,13 September 2023,21 January 2028,5,5,Loughborough, LE11 3NF
10004000713,,23,Kingfisher Way,07 December 2023,06 December 2028,5,5,Loughborough, LE11 3NF
10004000716,,29,Kingfisher Way,08 December 2022,10 May 2027,6,6,Loughborough, LE11 3NF
10004000721,,39,Kingfisher Way,23 October 2020,23 October 2025,5,5,Loughborough, LE11 3NF
10004000722,,41,Kingfisher Way,28 February 2024,27 February 2029,5,5,Loughborough, LE11 3NF
10004000727,,51,Kingfisher Way,20 March 2024,19 March 2029,4,4,Loughborough, LE11 3NF
10004000728,,53,Kingfisher Way,18 January 2024,17 January 2029,4,4,Loughborough, LE11 3NF
10004000731,,58,Kingfisher Way,21 February 2024,20 February 2029,4,4,Loughborough, LE11 3NF
10004000732,,61,Kingfisher Way,18 March 2024,17 March 2029,4,4,Loughborough, LE11 3NF
10004000739,,50,Kingfisher Way,02 November 2023,01 November 2028,4,4,Loughborough, LE11 3NF
10004000740,,52,Kingfisher Way,05 February 2024,04 February 2029,4,4,Loughborough, LE11 3NF
10004000741,,54,Kingfisher Way,20 February 2024,19 March 2029,4,4,Loughborough, LE11 3NF
10004000744,,60,Kingfisher Way,14 November 2023,13 November 2028,4,4,Loughborough, LE11 3NF
10004000745,,62,Kingfisher Way,19 February 2021,18 February 2026,5,5,Loughborough, LE11 3NF
10008152290,Flat 9,64A,Kingfisher Way,23 October 2023,22 October 2028,3,3,Loughborough, LE11 3NF
10008152297,Flat 4,64b,Kingfisher Way,12 March 2024,11 March 2029,3,3,Loughborough, LE11 3NF
100030449084,Flat 11,64a,Kingfisher Way,29 February 2024,28 February 2029,3,3,Loughborough, LE11 3NF
100040007473,,59,Kingfisher Way,26 October 2023,25 October 2028,4,4,Loughborough, LE11 3NF
10004000720 ,,37,Kingfisher Way,26 February 2024,25 February 2029,4,4,Loughborough, LE11 3NF
10004000723 ,,43,Kingfisher Way,26 February 2024,25 February 2029,4,4,Loughborough, LE11 3NF
10004000733 ,,63,Kingfisher Way,15 February 2024,14 February 2024,5,4,Loughborough, LE11 3NF
10004000746,,64,Kingfisher Way,20 July 2023,17 December 2027,5,5,Loughborough, LE11 3NF
10004000725,,47,Kingfisher Way,06 November 2023,05 November 2028,4,4,Loughborough, LE11 3NF
10004000726,,49,Kingfisher Way,27 March 2024,26 March 2029,4,4,Loughborough, LE11 3NF
100030448825,,54,Kings Avenue,21 November 2023,20 November 2028,3,1,Loughborough, LE11 5HY
100030448829,,26,Kings Avenue,07 March 2024,06 March 2029,6,1,Loughborough, LE11 5HY
100030448857,,22,Kings Avenue,27 February 2024,26 February 2029,6,1,Loughborough, LE11 5HY
100030448887,,84,Kings Avenue,02 November 2023,01 November 2028,7,1,Loughborough, LE11 5HY
100030448488,,53,Kings Street,26 February 2024,25 February 2029,8,1,Loughborough, LE11 1SD
100030448660,,138,Kings Street,18 March 2024,17 March 2029,8,1,Loughborough, LE11 1SD
10008152292,,16,Kirkstone Drive,05 December 2018,04 December 2023,5,5,Loughborough, LE11 3RW
100030449104,,36,Kirkstone Drive,29 March 2022,28 March 2027,5,5,Loughborough, LE11 3RW
100030449109,,41,Kirkstone Drive,12 October 2018,12 October 2023,6,6,Loughborough, LE11 3RN
100030449109,,41,Kirkstone Drive,21 March 2024,20 March 2029,6,6,Loughborough, LE11 3RN
100030449111,,43,Kirkstone Drive,18 June 2021,17 June 2026,5,5,Loughborough, LE11 3RN
100030449136,,71,Kirkstone Drive,03 April 2024,02 April 2029,6,6,Loughborough, LE11 3RN
100030449142,,77,Kirkstone Drive,03 January 2024,02 January 2029,4,4,Loughborough, LE11 3RN
100030449191,,36,Knightthorpe Road,14 March 2024,13 March 2029,3,3,Loughborough, LE11 4JT
100030449203,,48A,Knightthorpe Road,18 July 2023,30 October 2027,5,5,Loughborough, LE11 4JT
100030449255,,101,Knightthorpe Road,01 April 2019,01 April 2024,8,8,Loughborough, LE11 5JR
100030449282,,133,Knightthorpe Road,01 April 2019,01 April 2024,7,7,Loughborough, LE11 5JR
100030449510,,8,Langdale Avenue,17 October 2023,16 October 2028,4,4,Loughborough, LE11 3RP
100030449506,,4,Langdale Avenue,16 July 2019,16 July 2024,5,5,Loughborough, LE11 3RP
100030449537,,35,Langdale Avenue,27 July 2023,26 July 2028,6,6,Loughborough, LE11 3RP
100030449611,,1,Lansdowne Drive,21 August 2019,21 August 2024,5,5,Loughborough, LE11 2BX
100030449644,,67,Lansdowne Drive,09 November 2018,09 November 2023,5,5,Loughborough, LE11 2BX
10023778451,,44b,Leicester Road,12 February 2024,12 February 2024,2,1,Loughborough, LE11 2AQ
10070066886,Flat 1,94,Leicester Road,11 December 2023,10 December 2028,2,1,Loughborough, LE11 2AQ
100030450389,,76-78,Leicester Road,07 June 2022,08 October 2026,8,8,Loughborough, LE11 2AG
100030450395,Flat,88,Leicester Road,29 July 2021,28 July 2026,10,10,Loughborough, LE11 2AQ
100030450402,Flat 4,90,Leicester Road,20 December 2023,19 December 2028,6,6,Loughborough, LE11 2AQ
100030450427,,150,Leicester Road,02 November 2023,01 November 2028,6,6,Loughborough, LE11 2AQ
100030450453,,94,Leicester Road,11 December 2023,10 December 2028,2,1,Loughborough, LE11 2AQ
100030450455,,196a,Leicester Road,04 March 2024,03 March 2029,4,1,Loughborough, LE11 2AH
100030450468,,228a,Leicester Road,18 December 2023,17 December 2028,9,1,Loughborough, LE11 2AQ
100030450474,,238,Leicester Road,07 March 2024,06 March 2029,7,1,Loughborough, LE11 2AJ
100030450497,Flat 6,94,Leicester Road,11 December 2023,10 December 2028,2,1,Loughborough, LE11 2AQ
100030450498,Flat 3,94,Leicester Road,15 February 2024,14 February 2029,4,1,Loughborough, LE11 2AQ
200000844679,Flat 5,94,Leicester Road,11 December 2023,10 December 2028,2,2,Loughborough, LE11 2AG
100030450401,,74a,Leicester Road,12 February 2024,11 February 2029,6,1,Loughborough,LE11 2AG
100030450499,Flat 2,94,Leicester Road ,15 November 2023,14 November 2028,4,1,Loughborough, LE11 2AQ
10004001771,,138,Leopold Street,17 April 2019,17 April 2024,5,5,Loughborough, LE11 5DW
10004001772,,140,Leopold Street,17 April 2019,17 April 2024,6,6,Loughborough, LE11 5DW
100030450593,,5,Leopold Street,14 March 2024,13 March 2029,5,5,Loughborough, LE11 5DL
100030450595,,7,Leopold Street,26 February 2021,25 July 2025,5,5,Loughborough, LE11 5DL
100030450596,,8,Leopold Street,27 February 2024,26 February 2029,3,3,Loughborough, LE11 5DL
100030450600,,12,Leopold Street,05 March 2021,25 July 2025,6,6,Loughborough, LE11 5DL
100030450601,,13,Leopold Street,14 March 2024,13 March 2029,4,4,Loughborough, LE11 5DL
100030450604,,18,Leopold Street,11 January 2024,30 May 2028,6,6,Loughborough, LE11 5DL
100030450605,,19,Leopold Street,08 March 2024,07 March 2029,3,3,Loughborough, LE11 5DL
100030450606,,20,Leopold Street,31 October 2023,30 October 2028,5,5,Loughborough, LE11 5DL
100030450607,,21,Leopold Street,09 March 2022,27 September 2026,5,5,Loughborough, LE11 5DL
100030450608,,22,Leopold Street,27 September 2023,06 February 2028,5,5,Loughborough, LE11 5DL
100030450609,,24,Leopold Street,12 September 2019,12 September 2024,5,5,Loughborough, LE11 5DL
100030450610,,25,Leopold Street,08 February 2024,07 February 2029,3,3,Loughborough, LE11 5DL
100030450612,,27,Leopold Street,31 October 2023,30 October 2028,4,4,Loughborough, LE11 5DL
100030450615,,30,Leopold Street,14 June 2019,14 June 2024,6,6,Loughborough, LE11 5DL
100030450616,,31,Leopold Street,13 June 2019,13 June 2024,6,6,Loughborough, LE11 5DL
100030450619,,34,Leopold Street,02 May 2019,02 May 2024,5,5,Loughborough, LE11 5DL
100030450620,,35,Leopold Street,23 February 2024,22 February 2024,4,4,Loughborough, LE11 5DL
100030450623,,38,Leopold Street,28 October 2023,27 October 2028,4,4,Loughborough, LE11 5DL
100030450624,,39a,Leopold Street,21 March 2024,20 March 2029,3,3,Loughborough, LE11 5DL
100030450625,,39,Leopold Street,22 February 2024,21 February 2029,3,3,Loughborough, LE11 5DL
100030450625,,39b,Leopold Street,24 March 2021,23 March 2026,6,6,Loughborough, LE11 5DL
100030450626,,39b,Leopold Street,24 March 2021,23 March 2026,6,6,Loughborough, LE11 5DL
100030450627,,40,Leopold Street,15 July 2020,15 July 2025,14,10,Loughborough, LE11 5DL
100030450628,,55,Leopold Street,17 March 2021,30 November 2025,5,5,Loughborough, LE11 5DN
100030450636,,41,Leopold Street,21 February 2024,20 February 2029,4,4,Loughborough, LE11 5DL
100030450639,,58,Leopold Street,14 February 2023,14 June 2027,6,6,Loughborough, LE11 5DN
100030450640,,59,Leopold Street,06 December 2023,21 January 2028,6,6,Loughborough, LE11 5DN
100030450641,,60,Leopold Street,30 August 2023,10 October 2027,6,6,Loughborough, LE11 5DN
100030450643,,62,Leopold Street,06 June 2023,13 July 2027,8,8,Loughborough, LE11 5DN
100030450644,,63,Leopold Street,21 September 2023,18 December 2027,6,6,Loughborough, LE11 5DN
100030450646,,65a,Leopold Street,11 December 2023,10 December 2028,3,3,Loughborough, LE11 5DN
100030450647,,65,Leopold Street,11 December 2023,10 December 2028,4,3,Loughborough, LE11 5SN
100030450654,,75,Leopold Street,28 October 2023,27 October 2028,4,4,Loughborough, LE11 5DN
100030450656,,77,Leopold Street,,,,,Loughborough, LE11 5DN
100030450657,,78,Leopold Street,27 April 2023,07 October 2027,5,5,Loughborough, LE11 5DN
100030450660,,81,Leopold Street,05 March 2021,25 July 2025,5,5,Loughborough, LE11 5DN
100030450661,,82,Leopold Street,11 March 2024,10 March 2029,4,4,Loughborough, LE11 5DN
100030450663,,84,Leopold Street,21 February 2020,13 September 2024,6,6,Loughborough, LE11 5DN
100030450664,,85,Leopold Street,16 April 2021,30 December 2025,6,6,Loughborough, LE11 5DN
100030450666,,88,Leopold Street,06 December 2018,06 December 2023,6,6,Loughborough, LE11 5DN
100030450667,,87,Leopold Street,28 February 2024,27 February 2029,4,4,Loughborough, LE11 5DN
100030450668,,89,Leopold Street,06 December 2018,06 December 2023,6,6,Loughborough, LE11 5DN
100030450670,,97,Leopold Street,31 October 2023,30 October 2028,4,4,Loughborough, LE11 5DW
100030450671,,98,Leopold Street,29 February 2024,28 February 2029,5,5,Loughborough, LE11 5DW
100030450672,,99,Leopold Street,06 March 2024,05 March 2029,3,3,Loughborough, LE11 5DW
100030450673,,100,Leopold Street,22 February 2024,21 February 2029,4,4,Loughborough, LE11 5DW
100030450676,,103,Leopold Street,12 March 2024,11 March 2029,4,4,Loughborough, LE11 5DW
100030450681,,108,Leopold Street,21 March 2024,20 March 2029,4,4,Loughborough, LE11 5DW
100030450689,Gladstone Cottage,117,Leopold Street,30 July 2019,02 March 2024,6,6,Loughborough, LE11 5DW
100030450690,,118,Leopold Street,17 June 2020,12 March 2025,6,6,Loughborough, LE11 5DW
100030450691,,119,Leopold Street,04 January 2024,29 July 2028,5,5,Loughborough, LE11 5DW
100030450692,,120,Leopold Street,28 July 2021,04 April 2026,6,6,Loughborough, LE11 5DW
100030450693,,121,Leopold Street,28 October 2023,27 October 2028,4,4,Loughborough, LE11 5DW
100030450694,,122,Leopold Street,12 March 2021,30 November 2025,5,5,Loughborough, LE11 5DW
100030450695,,123,Leopold Street,06 September 2019,06 September 2024,6,6,Loughborough, LE11 5DW
100030450696,,124,Leopold Street,27 August 2021,22 May 2026,6,6,Loughborough, LE11 5DW
100030450699,,127,Leopold Street,29 June 2023,25 July 2027,5,5,Loughborough, LE11 5DW
100030450702,,131,Leopold Street,08 November 2023,07 November 2028,3,3,Loughborough, LE11 5DW
100030450703,,130,Leopold Street,26 February 2024,25 February 2029,4,4,Loughborough, LE11 5DW
100030450704,,132,Leopold Street,28 October 2023,27 October 2028,4,4,Loughborough, LE11 5DW
100030450706,,134,Leopold Street,07 September 2023,29 October 2027,5,5,Loughborough, LE11 5DW
545099854943,,107,Leopold Street,10 June 2020,10 June 2025,5,5,Loughborough, LE11 5DW
100030450653 ,,74,Leopold Street,16 February 2024,15 February 2029,4,3,Loughborough, LE11 5DN
100030450680 ,,115,Leopold Street,23 February 2024,22 February 2029,3,3,Loughborough, LE11 5DW
100030450707,,135,Leopold Street,18 October 2023,17 October 2028,5,4,Loughborough, LE11 5DW
100030450821,,36,Limehurst Avenue,02 April 2020,02 April 2025,5,5,Loughborough, LE11 1PF
100030450869,,89,Limehurst Avenue,01 April 2019,01 April 2024,6,6,Loughborough, LE11 1PE
100030450870,,90,Limehurst Avenue,18 March 2024,17 March 2029,6,6,Loughborough, LE11 1PF
100030450883,,106,Limehurst Avenue,25 March 2024,24 March 2029,6,6,Loughborough, LE11 1PF
10004001588,,3,Limetree Grove,27 March 2024,26 March 2029,6,1,Loughborough, LE11 1BN
10004001595,,19,Limetree Grove,16 February 2024,15 February 2029,5,1,Loughborough, LE11 1BN
10004001602,Flat 12,2 to 18,Limetree Grove,21 November 2023,30 November 2028,3,1,Loughborough, LE11 1BN
10004001605,Flat 18,2 to 18,Limetree Grove,12 March 2024,11 March 2029,3,1,Loughborough, LE11 1BN
10004001607,Flat 20,20-30,Limetree Grove,14 March 2024,13 March 2029,3,1,Loughborough, LE11 1BN
10004001612,Flat 30,20-30,Limetree Grove,14 March 2024,13 March 2029,6,1,Loughborough, LE11 1BN
10004001619,Flat 42,32-42,Limetree Grove,26 February 2024,25 February 2029,6,1,Loughborough, LE11 1BN
10004001595 ,Flat 32,32-42,Limetree Grove,16 February 2024,15 February 2029,7,1,Loughborough, LE11 1BN
10004001611 ,Flat 28,20-30,Limetree Grove,15 February 2024,14 February 2029,5,1,Loughborough, LE11 1BN
100030450929,,6,Linden Road,07 March 2024,06 March 2029,6,1,Loughborough, LE11 1PG
100030450960,,43,Linden Road,16 February 2024,15 February 2029,9,1,Loughborough, LE11 1PG
10094172880,Flat 1 Canal House,,Lisle Street,08 February 2024,07 February 2029,4,1,Loughborough, LE11 1AW
10094172881,Flat 2 Canal House,,Lisle Street,08 February 2024,07 February 2029,4,1,Loughborough, LE11 1AW
10094172882,Flat 3 Canal House,,Lisle Street,08 February 2024,07 February 2029,4,1,Loughborough, LE11 1AW
10094172883,Flat 4 Canal House,,Lisle Street,08 December 2023,07 December 2028,2,1,Loughborough, LE11 1AW
10094172884,Flat 5 Canal House,,Lisle Street,07 March 2024,06 March 2029,4,1,Loughborough, LE11 1AW
10094172885,Flat 6 Canal House,,Lisle Street,11 December 2023,10 December 2028,2,1,Loughborough, LE11 1AW
10094172886,Flat 7 Canal House,,Lisle Street,07 March 2024,06 March 2029,4,1,Loughborough, LE11 1AW
10094172887,Flat 8 Canal House,,Lisle Street,07 March 2024,06 March 2029,4,1,Loughborough, LE11 1AW
100030451239,,25,Lisle Street,18 March 2024,17 March 2029,8,1,Loughborough, LE11 1AW
100030451240,,27,Lisle Street,04 January 2024,03 January 2029,8,1,Loughborough, LE11 1AW
10094172888,Flat 9 Canal House,,Lisle Street,03 October 2023,02 October 2028,4,1,Loughborough,LE11 1AW
100030451474,,107,Loughborough Road,03 March 2020,03 March 2025,5,5,Hathern, LE12 5HY
100030451906,,78,Lower Cambridge Street,13 March 2024,12 March 2029,8,1,Loughborough, LE11 1PH
100030451865,,22,Lower Cambridge Street,12 March 2024,11 March 2029,7,1,Loughborough,LE11 1PH
100030451858,,15,Lower Cambridge Street,23 October 2023,22 October 2028,4,1, Loughborough, LE11 1PQ 
100030451862,,19,Lower Cambridge Street,31 October 2023,30 October 2028,8,1, Loughborough, LE11 1PQ 
100030451870,,32,Lower Cambridge Street  ,08 November 2023,07 November 2028,9,1,Loughborough, LE11 1PH
100030451891,,46,Lower Cambridge Street  ,12 February 2024,12 February 2029,8,1,Loughborough, LE11 1PH
100030451880 ,,58,Lower Cambridge Street  ,08 February 2024,07 February 2024,8,1,Loughborough, LE11 1PH
100030451871,,33,Lower Cambridge Street ,11 March 2024,10 March 2029,4,1,Loughborough, LE11 1PH
100030451955,,25,Loweswater Drive,07 April 2021,06 April 2026,6,6,Loughborough, LE11 3RR
10013596209,Flat 8,7-18,Manor Gardens Close,07 March 2024,06 March 2029,4,1,Loughborough, LE11 1DL
10013596215,Flat 15,7 to 18,Manor Gardens Close,22 February 2024,21 February 2029,6,1,Loughborough, LE11 1DL
10013596225,Flat 25,19 - 26,Manor Gardens Close,28 March 2024,27 March 2029,4,1,Loughborough, LE11 1DL
10013596228,Flat 28,27-35,Manor Gardens Close,01 March 2024,28 February 2029,4,1,Loughborough, LE11 1DL
10013596232,Flat 32,27-34,Manor Gardens Close,14 March 2024,13 March 2029,5,1,Loughborough, LE11 1DL
100030452800,,132,Maple Road South,24 September 2019,24 September 2024,6,4,Loughborough, LE11 2JR
10094172893,Flat 1,21,Market Place,29 January 2021,29 January 2026,5,5,Loughborough, LE11 3EB
10094172894,Flat 2,21,Market Place,03 November 2023,02 November 2028,5,4,Loughborough, LE11 3EB
100030453217,,28,Mayfield Drive,05 November 2019,05 November 2024,6,6,Loughborough, LE11 2EB
100030453218,,29,Mayfield Drive,30 May 2019,30 May 2024,6,6,Loughborough, LE11 2EA
100030453325,,37,Meadow Avenue,11 March 2024,10 March 2029,6,1,Loughborough, LE11 1JS
100030453332,,29,Meadow Avenue,12 February 2024,11 February 2029,7,1,Loughborough, LE11 1JS
100030453364,,44,Meadow Avenue,11 March 2024,10 March 2029,5,1,Loughborough, LE11 1JT
100030453317,,14,Meadow Lane,01 March 2024,28 February 2029,4,1,Loughborough, LE11 1JY
100030453378,,38,Meadow Lane,11 March 2024,10 March 2029,8,1,Loughborough, LE11 1JY
100030453381,,44,Meadow Lane,07 March 2024,06 March 2029,9,1,Loughborough, LE11 1JY
100030453398,,26,Meadow Lane,30 January 2020,30 January 2025,6,6,Loughborough, LE11 1JY
100030453421,,79,Meadow Lane,15 November 2023,14 November 2028,3,3,Loughborough, LE11 1JU
100030454037,,139,Meadow Lane,11 December 2023,10 December 2028,9,1,Loughborough, LE11 1JX
100030454038,,155,Meadow Lane,26 February 2019,26 February 2024,10,10,Loughborough, LE11 1JX
100032235470,,20a,Meadow Lane,30 January 2020,30 January 2025,8,8,Loughborough, LE11 1JY
100030453361,,11,Meadow Lane ,04 March 2024,3-Mach-29,8,1,Loughborough, LE11 1JU
100030453406,,91a,Meadow Lane ,15 February 2024,14 February 2029,2,1,Loughborough, LE11 1JU
100030453407,,91,Meadow Lane ,15 February 2024,14 February 2029,2,1,Loughborough, LE11 1JU
100030453751,,21,Middle Avenue,07 March 2024,06 March 2029,7,1,Loughborough, LE11 5HZ 
10004000764,Flat 56,18-58,Moira Street,06 December 2023,05 December 2028,4,1,Loughborough, LE11 1AX
100030453436,Flat 5,9a,Moira Street,28 February 2024,27 February 2029,2,1,Loughborough, LE11 1AU
100030454039,Flat 1 ,9a,Moira Street,28 February 2024,27 February 2029,2,1,Loughborough, LE11 1AU
100030454040,Flat 2,9a,Moira Street,28 February 2024,27 February 2029,2,1,Loughborough, LE11 1AU
100030454041,Flat 3,9a,Moira Street,28 February 2024,27 February 2029,2,1,Loughborough, LE11 1AU
100030454042,Flat 4,9a,Moira Street,28 February 2024,27 February 2029,2,1,Loughborough, LE11 1AU
100030454066,Flat 6,9a,Moira Street,28 February 2024,27 February 2029,2,1,Loughborough, LE11 1AU
100030454265,,56,Moor Lane,29 February 2024,28 February 2029,4,1,Loughborough,LE11 1BA
100030454284,,94,Moor Lane,16 February 2024,15 February 2029,7,1,Loughborough,LE11 1BA
10004000764,,2,Moorhen Way,08 February 2021,16 December 2025,5,5,Loughborough, LE11 3HH
10004000768,,6,Moorhen Way,21 March 2024,20 March 2029,4,4,Loughborough, LE11 3HH
10004000770,,8,Moorhen Way,20 March 2024,19 March 2029,4,4,Loughborough, LE11 3HH
10004000772,,10,Moorhen Way,20 March 2024,19 March 2029,4,4,Loughborough, LE11 3HH
10004000774,,12,Moorhen Way,05 March 2024,04 March 2029,4,4,Loughborough, LE11 3HH
10004000776,,14,Moorhen Way,04 December 2020,24 July 2025,6,6,Loughborough, LE11 3HH
10004000777,,15,Moorhen Way,23 September 2020,22 September 2025,6,6,Loughborough, LE11 3HH
10004000779,,16,Moorhen Way,26 April 2022,25 April 2027,6,6,Loughborough, LE11 3HH
100030454489,,19,Moorhen Way,09 March 2022,08 March 2027,6,6,Loughborough, LE11 3HH
100030454680,,52,Mountfields Drive,05 December 2023,04 December 2028,4,4,Loughborough, LE11 3JE 
10093368090,,29,Nanpantan Road,25 October 2018,25 October 2023,5,5,Loughborough, LE11 3ST
100030454701,,29,Nanpantan Road,21 March 2024,20 March 2029,5,5,Loughborough, LE11 3ST
100030454701,,6,Nanpantan Road,23 August 2022,22 August 2027,5,5,Loughborough, LE11 3SU
100030454721,,69,Nanpantan Road,06 December 2018,06 December 2023,6,6,Loughborough, LE11 3ST
100030454916,,198a,Nanpantan Road,29 February 2024,28 February 2029,4,4,Loughborough, LE11 3ST
100030454846,,10,Naylor Avenue,28 February 2024,27 February 2029,8,1,Loughborough, LE11 2PL
100030454912,,311,New Ashby Road,07 March 2029,06 March 2029,4,4,Loughborough, LE11 4ET
100030454924,,319,New Ashby Road,25 October 2018,25 October 2023,5,5,Loughborough, LE11 4ET
100030454933,,355,New Ashby Road,11 March 2024,10 March 2029,4,4,Loughborough, LE11 4ET
100030454934,,335,New Ashby Road,13 February 2024,12 February 2029,5,5,Loughborough, LE11 4ET
100030454935,,401,New Ashby Road,28 February 2024,27 February 2029,4,4,Loughborough, LE11 4ET
100030454940,,359,New Ashby Road,23 October 2023,22 October 2028,4,4,Loughborough, LE11 4EU
100030454956,,405,New Ashby Road,06 March 2024,05 March 2029,4,4,Loughborough, LE11 4ET
100030454957,,403,New Ashby Road,11 March 2024,10 March 2029,2,2,Loughborough, LE11 4ET
100030454958,,385,New Ashby Road,08 February 2024,07 February 2029,3,3,Loughborough, LE11 4ET
100030454960,,357,New Ashby Road,31 October 2023,30 October 2028,4,4,Loughborough, LE11 4ET
100030454969,,427,New Ashby Road,18 March 2024,17 March 2029,3,3,Loughborough, LE11 4EU
100030454982,,409,New Ashby Road,23 October 2023,22 October 2028,4,3,Loughborough, LE11 4ET
100030454982,,453,New Ashby Road,14 March 2024,13 March 2029,5,5,Loughborough, LE11 4EU
100030454984,,457,New Ashby Road,05 March 2024,04 March 2029,5,5,Loughborough, LE11 4EU
100030454994,,471,New Ashby Road,06 December 2018,06 December 2023,6,6,Loughborough, LE11 4EU
100030455009,,477,New Ashby Road,08 February 2024,07 February 2029,3,3,Loughborough, LE11 4EU
100030455010,,505,New Ashby Road,24 January 2024,14 November 2028,5,5,Loughborough, LE11 4EU
100030455015,,507,New Ashby Road,22 January 2024,06 November 2028,5,5,Loughborough, LE11 4EU
100030455015,,517,New Ashby Road,14 March 2024,13 March 2029,6,6,Loughborough, LE11 4EU
100030455024,,535,New Ashby Road,21 March 2024,20 March 2029,4,4,Loughborough, LE11 4EX
100030454948 ,,369,New Ashby Road,08 November 2023,07 November 2028,4,4,Loughborough, LE11 4ET
100030455155,,9,Newbon Close,27 February 2024,26 February 2029,3,3,Loughborough, LE11 4WJ
10008151334,Flat 1 Orchard Court,17,Nottingham Road,17 October 2023,16 October 2028,4,1,Loughborough, LE11 1DW
10008151337,City Heights ,18,Nottingham Road,19 March 2024,18 March 2029,4,1,Loughborough, LE11 1DW
10008151391,City Heights,45,Nottingham Road,14 October 2023,13 October 2028,4,1,Loughborough, LE11 1DW
10008151392,City Heights ,46,Nottingham Road,27 February 2024,26 February 2029,4,1,Loughborough, LE11 1DW
10013598170,7 Villency Court,62,Nottingham Road,04 March 2024,03 March 2029,2,2,Loughborough, LE11 1DW
10013598165 ,1 Villency Court,62,Nottingham Road,12 February 2024,11 February 2029,2,1,Loughborough, LE11 1DW
10008150790,City Heights ,,Nottingham Road,18 March 2024,17 March 2029,4,1,Loughborough, LE11 1DW
10008151359,City Heights ,26,Nottingham Road,18 March 2024,17 March 2029,4,1,Loughborough, LE11 1DW
10008151363,City Heights ,30,Nottingham Road,28 March 2024,27 March 2029,4,1,Loughborough, LE11 1DW
10008151364,City Heights ,31,Nottingham Road,28 March 2024,27 March 2029,4,1,Loughborough, LE11 1DW
10008151367,City Heights ,33,Nottingham Road,28 October 2023,27 October 2028,4,1,Loughborough, LE11 1DW
10008151386,City Heights ,44,Nottingham Road,19 March 2024,18 March 2029,4,1,Loughborough, LE11 1DW
10008150788,City Heights,12,Nottingham Road,25 March 2024,24 March 2029,6,1,Loughborough, LE11 1EU
10013598166,2 Villency Court,62,Nottingham Road,21 November 2023,20 November 2028,2,1,Loughborough, LE11 1DW
10013598178,3 Villency Court,62,Nottingham Road,28 October 2023,27 October 2028,2,1,Loughborough, LE11 1DW
10013598181,18 Villency Court,62,Nottingham Road,07 March 2024,06 March 2029,2,1,Loughborough, LE11 1EB
10013598184,15 Villency Court,62,Nottingham Road,23 October 2023,22 October 2028,8,1,Loughborough, LE11 1EB
10013598185,21 Villency Court,62,Nottingham Road,23 February 2024,22 February 2029,2,1,Loughborough, LE11 1EB
10070068057,Flat 1 Orchard Court,7,Nottingham Road,13 February 2024,12 February 2029,2,1,Loughborough, LE11 1AE
10070068064,Flat 8 Orchard Court,7,Nottingham Road,13 February 2024,12 February 2029,4,1,Loughborough, LE11 1AE
10070068068,Flat 12 Orchard Court,7,Nottingham Road,13 February 2024,12 February 2029,4,1,Loughborough, LE11 1AE
100012189932,Flat 2,28,Nottingham Road,18 March 2024,17 March 2029,4,1,Loughborough, LE11 1EU
100030455612,,8b,Nottingham Road,14 March 2024,13_mar-29,4,1,Loughborough, LE11 1EU
100030455624,,28,Nottingham Road,23 October 2023,22 October 2028,2,1,Loughborough, LE11 1EU
100030455640,,85a,Nottingham Road,14 March 2024,13 March 2029,6,1,Loughborough, LE11 1ES
100030455650,Flat 1,30b,Nottingham Road,29 February 2024,28 February 2029,2,1,Loughborough, LE11 1EU
100030455655,Flat 2,30b,Nottingham Road,15 February 2024,14 February 2024,2,1,Loughborough, LE11 1EU
100030455778,25 Villecy Court,62,Nottingham Road,19 February 2024,18 February 2029,4,1,Loughborough, LE11 1EB
100032038941,,85,Nottingham Road,14 March 2024,13 March 2029,6,1,Loughborough, LE11 1ES
10070069760 ,22 Villency Court,62,Nottingham Road,19 February 2024,18 February 2029,4,1,Loughborough, LE11 1EB
10070069758,,89a,Nottingham Road,15 February 2024,14-02-29,6,1,Loughborough, LE11 1AE
100030000000,,13,Oaklands Avenue,03 January 2024,02 January 2029,4,4,Loughborough, LE11 3JF
100030455778,,2,Oaklands Avenue,14 March 2024,13 March 2029,5,5,Loughborough, LE11 3JF
100030455781,,4,Oaklands Avenue,28 October 2023,27 October 2028,3,3,Loughborough, LE11 3JF
100030455782,,5,Oaklands Avenue,18 December 2023,17 December 2028,3,3,Loughborough, LE11 3JF
100030455794,,18,Oaklands Avenue,26 March 2024,25 March 2029,4,4,Loughborough, LE11 3JF
100030455796,,16,Oaklands Avenue,26 July 2023,25 July 2028,6,6,Loughborough, LE11 3JF
100030455807,,20,Oaklands Avenue,27 November 2020,26 November 2025,5,5,Loughborough, LE11 3JF
100030455808,,39,Oaklands Avenue,22 February 2024,21 February 2029,4,4,Loughborough, LE11 3JF 
100030455891,,37,Oaklands Avenue,28 October 2023,27 October 2028,4,4,Loughborough, LE11 3JF
100030455783,,7,"Oaklands Avenue, ",04 March 2024,03 March 2029,3,3,Loughborough, LE11 3JF 
100030455789,,6,"Oaklands Avenue, ",13 October 2023,12 October 2028,3,3,Loughborough, LE11 3JF
100030455912,,88,Old Ashby Road,28 March 2024,27 March 2029,4,4,Loughborough, LE11 4PG
100030455923,,46,Old Ashby Road,13 February 2024,12 February 2029,5,5,Loughborough, LE11 4PG
100030455929,,122,Old Ashby Road,13 March 2024,12 March 2029,4,4,Loughborough, LE11 4PQ
100030455932,,110,Old Ashby Road,05 March 2024,04 March 2029,4,4,Loughborough, LE11 4PQ
100030455963,,128,Old Ashby Road,15 November 2023,14 November 2028,3,3,Loughborough, LE11 4PQ
100030456084,,184,Old Ashby Road,10 April 2019,10 April 2024,6,6,Loughborough, LE11 4PQ
100030456094,,1,Oliver Road,10 October 2023,09 October 2028,7,7,Loughborough, LE11 2BZ
100030456095,,9,Oliver Road,10 November 2022,09 November 2027,6,6,Loughborough, LE11 2BZ
100030456250,,10,Oliver Road,23 February 2024,22 February 2029,4,3,Loughborough, LE11 2BZ
10070068058,Flat 2 ,7,Nottingham Road ,10 January 2024,18-01-2029,4,1,Loughborough,LE11 1AE
10070068059,Flat 3,7,Nottingham Road ,19 February 2024,18 February 2029,6,1,Loughborough,LE11 1AE
10070068060,Flat 4,7,Nottingham Road ,19 February 2024,18 February 2029,6,1,Loughborough,LE11 1AE
10070068061,Flat 5,7,Nottingham Road ,19 February 2024,18 February 2029,4,1,Loughborough,LE11 1AE
10070068062,Flat 6,7,Nottingham Road ,19 February 2024,18 February 2029,4,1,Loughborough,LE11 1AE
10070068063,Flat 7,7,Nottingham Road ,19 February 2024,18 February 2029,6,1,Loughborough,LE11 1AE
10070068065,Flat 9,7,Nottingham Road ,19 February 2024,18 February 2029,2,1,Loughborough,LE11 1AE
10070068066,Flat 11,7,Nottingham Road ,19 February 2024,18 February 2029,4,1,Loughborough,LE11 1AE
100030456195,Flat 10,7,Nottingham Road ,19 February 2024,18 February 2029,4,1,Loughborough,LE11 1AE
10070068067,,19,Osborne Road,28 February 2024,27 February 2029,3,3,Loughborough,LE11 5RY
100030456251,,1,Outwoods Avenue,23 February 2024,22 February 2024,6,6,Loughborough, LE11 3LP
100030456474,,2A,Outwoods Avenue,04 August 2021,03 August 2026,6,6,Loughborough, LE11 3LP
100030456293,,34,Outwoods Drive,02 April 2019,02 April 2024,6,6,Loughborough, LE11 3LT
100030456494,,23,Oxford Street,17 October 2023,16 October 2028,4,4,Loughborough, LE11 5DP
10004001116,,75,Oxford Street,01 March 2024,28 February 2029,4,3,Loughborough, LE11 5DP
100030456476,,2,Oxford Street,06 March 2024,05 March 2029,3,3,Loughborough, LE11 5DR
100030456478,,6,Oxford Street,19 March 2024,18 March 2029,4,4,Loughborough, LE11 5DR
100030456479,,4,Oxford Street,08 February 2024,07 February 2029,3,3,Loughborough, LE11 5DR
100030456482,,9,Oxford Street,16 February 2024,15 February 2029,4,3,Loughborough, LE11 5DP
100030456485,,13,Oxford Street,12 March 2024,11 March 2029,3,3,Loughborough, LE11 5DP
100030456492,,10,Oxford Street,16 February 2024,15 February 2024,4,3,Loughborough, LE11 5DP
100030456493,,22,Oxford Street,24 August 2023,25 October 2027,5,5,Loughborough, LE11 5DP
100030456495,,24,Oxford Street,15 December 2023,14 December 2028,3,3,Loughborough, LE11 5DR
100030456498,,28,Oxford Street,12 March 2024,11 March 2029,3,3,Loughborough, LE11 5DP
100030456501,,25,Oxford Street,08 November 2023,07 November 2028,4,4,Loughborough, LE11 5DP
100030456502,,31,Oxford Street,08 July 2020,08 July 2025,6,6,Loughborough, LE11 5DP
100030456504,,34,Oxford Street,18 January 2019,18 January 2024,5,5,Loughborough, LE11 5DR
100030456505,,32,Oxford Street,15 February 2022,10 October 2026,5,5,Loughborough, LE11 5DR
100030456506,,34A,Oxford Street,20 March 2020,25 May 2024,5,5,Loughborough, LE11 5DR
100030456507,,35,Oxford Street,15 December 2022,14 December 2027,5,5,Loughborough, LE11 5DP
100030456509,,36,Oxford Street,18 December 2023,17 December 2028,3,3,Loughborough, LE11 5DR
100030456510,,38,Oxford Street,28 July 2021,27 July 2026,6,6,Loughborough, LE11 5DR
100030456513,,40,Oxford Street,15 November 2022,15 March 2027,6,6,Loughborough, LE11 5DR
100030456517,,45,Oxford Street,01 July 2019,01 July 2024,5,5,Loughborough, LE11 5DP
100030456520,,51,Oxford Street,05 March 2024,04 March 2029,6,6,Loughborough, LE11 5DP
100030456524,,48,Oxford Street,23 February 2024,22 February 2029,4,4,Loughborough, LE11 5DR
100030456526,,55,Oxford Street,08 March 2024,07 March 2029,3,3,Loughborough, LE11 5DP
100030456528,,57,Oxford Street,02 November 2023,01 November 2028,3,3,Loughborough, LE11 5DP
100030456530,,59,Oxford Street,03 January 2024,02 January 2029,5,5,Loughborough, LE11 5DP
100030456533,,65,Oxford Street,11 March 2024,20 March 2029,4,4,Loughborough, LE11 5DR
100030456540,,64,Oxford Street,09 March 2022,08 March 2027,6,6,Loughborough, LE11 5DR
100030456542,,74,Oxford Street,06 December 2018,06 December 2023,5,5,Loughborough, LE11 5DR
100030456543,,72,Oxford Street,27 April 2023,04 October 2027,5,5,Loughborough, LE11 5DR
100030456481 ,,7,Oxford Street,06 November 2023,05 November 2028,4,4,Loughborough, LE11 5DP
100030456516 ,,49,Oxford Street,13 December 2023,12 December 2028,4,4,Loughborough, LE11 5DP
100030456537,,69,Oxford Street,25 March 2024,24 March 2029,4,4,Loughborough,LE11 5DP
100030456539,,71,Oxford Street,16 February 2024,15 February 2029,3,3,Loughborough,LE11 5DP
10095778451,Bill Rocke  House,,Packe Street,11 December 2023,12 February 2028,6,6,Loughborough, LE11 3EZ
100030456620,,2,Packe Street,21 December 2023,20 December 2028,4,4,Loughborough, LE11 3EZ
100030456660,,36,Paget Street,23 February 2024,22 February 2029,4,4,Loughborough, LE11 5DS
100030456722,,121,Paget Street,14 March 2024,13 March 2029,3,3,Loughborough, LE11 5DU 
100030456726,,120,Paget Street,03 November 2023,02 November 2028,4,4,Loughborough, LE11 5DU 
100030456621,,1,Paget Street,03 March 2021,02 March 2026,5,5,Loughborough, LE11 5DS
100030456625,,2,Paget Street,08 October 2023,07 October 2028,3,3,Loughborough, LE11 5DS
100030456626,,7,Paget Street,18 March 2024,17 March 2029,3,3,Loughborough, LE11 5DS
100030456628,,9,Paget Street,21 March 2024,20 March 2029,3,3,Loughborough, LE11 5DS
100030456635,,16,Paget Street,24 August 2023,23 August 2028,5,5,Loughborough, LE11 5DS
100030456636,,6,Paget Street,08 January 2024,01 January 2029,4,4,Loughborough, LE11 5DS
100030456638,,19,Paget Street,25 March 2024,24 March 2029,4,4,Loughborough, LE11 5DS
100030456642,,17,Paget Street,04 March 2024,03 March 2029,4,4,Loughborough, LE11 5DS
100030456649,,30,Paget Street,23 August 2022,22 August 2027,5,5,Loughborough, LE11 5DS
100030456650,,32,Paget Street,25 March 2024,24 March 2029,4,4,Loughborough, LE11 5DS
100030456651,,33,Paget Street,25 March 2024,24 March 2029,4,4,Loughborough, LE11 5DS
100030456652,,31,Paget Street,10 March 2021,09 March 2026,5,5,Loughborough, LE11 5DS
100030456653,,34,Paget Street,23 October 2023,22 October 2028,5,5,Loughborough, LE11 5DS
100030456655,,37,Paget Street,12 March 2024,11 March 2029,4,4,Loughborough, LE11 5DS
100030456657,,35,Paget Street,05 March 2021,25 July 2025,5,5,Loughborough, LE11 5DS
100030456657,,39,Paget Street,08 March 2024,07 March 2029,4,4,Loughborough, LE11 5DS
100030456664,,42,Paget Street,18 July 2023,11 July 2028,5,5,Loughborough, LE11 5DS
100030456665,,54,Paget Street,20 March 2024,19 March 2029,3,3,Loughborough, LE11 5DT
100030456671,,56,Paget Street,04 January 2024,03 January 2029,4,4,Loughborough, LE11 5DT
100030456677,,66,Paget Street,18 March 2024,17 March 2029,3,3,Loughborough, LE11 5DT
100030456678,,60,Paget Street,11 January 2024,10 January 2029,3,3,Loughborough, LE11 5DT
100030456679,,67,Paget Street,17 June 2020,12 March 2025,5,5,Loughborough, LE11 5DT
100030456680,,68,Paget Street,27 May 2020,27 May 2025,6,6,Loughborough, LE11 5DT
100030456685,,81,Paget Street,07 March 2024,06 March 2029,4,4,Loughborough, LE11 5DT
100030456686,,79,Paget Street,29 February 2024,28 February 2029,4,4,Loughborough, LE11 5DT
100030456687,,70,Paget Street,25 January 2019,25 January 2024,7,7,Loughborough, LE11 5DT
100030456688,,78,Paget Street,05 March 2024,04 March 2029,4,4,Loughborough, LE11 5DT
100030456694,,80,Paget Street,07 March 2024,06 March 2029,4,4,Loughborough, LE11 5DT
100030456695,,87,Paget Street,18 November 2023,17 November 2028,3,3,Loughborough, LE11 5DT
100030456696,,88,Paget Street,24 November 2023,23 November 2028,3,3,Loughborough, LE11 5DT
100030456698,,89,Paget Street,18 December 2023,17 December 2028,7,1,Loughborough, LE11 5DR
100030456700,,93,Paget Street,22 February 2024,21-2-29,3,3,Loughborough, LE11 5DT
100030456702,,91,Paget Street,06 April 2020,06 April 2025,5,5,Loughborough, LE11 5DT
100030456705,,95,Paget Street,15 February 2022,27 September 2026,5,5,Loughborough, LE11 5DT
100030456706,,98,Paget Street,02 November 2023,01 November 2028,3,3,Loughborough, LE11 5DT
100030456710,,99,Paget Street,02 November 2023,01 November 2028,3,3,Loughborough, LE11 5DT
100030456713,,109,Paget Street,30 September 2020,30 September 2025,5,5,Loughborough, LE11 5DU
100030456715,,112,Paget Street,28 October 2023,27 October 2028,3,3,Loughborough, LE11 5DU
100030456719,,114,Paget Street,06 November 2023,05 November 2028,3,3,Loughborough, LE11 5DU
100030456721,,118,Paget Street,21 December 2023,20 December 2028,4,4,Loughborough, LE11 5DU
100030456731,,128,Paget Street,31 October 2023,30 October 2028,4,4,Loughborough, LE11 5DU
100030456732,,131,Paget Street,21 March 2024,20 March 2029,3,3,Loughborough, LE11 5DU 
100030456737,,130,Paget Street,11 December 2020,11 December 2025,5,5,Loughborough, LE11 5DU
100030456741,,136,Paget Street,17 October 2023,16 October 2028,4,4,Loughborough, LE11 5DU
100030456742,,140,Paget Street,28 October 2023,27 October 2028,3,3,Loughborough, LE11 5DU
100030456743,,142,Paget Street,11 March 2024,10 March 2029,3,3,Loughborough, LE11 5DU
100030456747,,141,Paget Street,28 October 2023,27 October 2028,3,3,Loughborough, LE11 5DU
100030456751,,150,Paget Street,07 March 2024,06 March 2029,4,4,Loughborough, LE11 5DU
100030456775,,146,Paget Street,20 November 2023,19 November 2028,4,4,Loughborough, LE11 5DU
 100030456667,,53,Paget Street,20 December 2023,19 December 2028,3,3,Loughborough, LE11 5DT
100030456624 ,,5,Paget Street,22 February 2024,21 February 2029,4,4,Loughborough, LE11 5DS
100030456644,,26,Paget Street ,06 March 2024,05 March 2029,4,4,Loughborough, LE11 5DS
100030456648,,24,Paget Street ,17 October 2023,16 October 2028,4,4,Loughborough, LE11 5DS
100030456729,,125,Paget Street ,16 October 2023,15 October 2028,4,4,Loughborough, LE11 5DU 
100030456937,,23,Palmer Avenue,29 March 2019,29 March 2024,6,6,Loughborough, LE11 5NH
100030000000,,112,Park Road,26 February 2024,25 February 2029,4,4,Loughborough, LE11 2HH
100030457016,,122,Park Road,07 August 2023,06 September 2026,6,6,Loughborough, LE11 2HH
100030456938,,11,Park Road,02 August 2022,22 September 2026,4,4,Loughborough, LE11 2ED
100030456940,,11a,Park Road,29 February 2024,28 February 2024,4,3,Loughborough, LE11 2ED
100030456951,,41a,Park Road,14 March 2024,13 March 2029,4,4,Loughborough, LE11 2ED
100030456953,,15,Park Road,08 December 2022,07 December 2027,5,5,Loughborough, LE11 2ED
100030456954,,43,Park Road,09 March 2022,09 March 2027,6,6,Loughborough, LE11 2ED
100030456965,,70,Park Road,04 March 2024,03 March 2029,6,6,Loughborough, LE11 2HH
100030456966,,45,Park Road,26 April 2022,25 April 2027,9,9,Loughborough, LE11 2ED
100030456984,,75,Park Road,24 June 2020,02 October 2024,12,12,Loughborough, LE11 2HD
100030456986,,97,Park Road,05 May 2021,04 May 2026,5,5,Loughborough, LE11 2HD
100030456990,,99,Park Road,21 December 2023,20 December 2028,4,4,Loughborough, LE11 2HD
100030456993,,103,Park Road,22 March 2021,21 March 2026,6,6,Loughborough, LE11 2HD
100030457000,,106,Park Road,12 July 2022,23 January 2027,5,5,Loughborough, LE11 2HH
100030457029,,127,Park Road,22 January 2020,22 January 2025,7,7,Loughborough, LE11 2HD
100030457065,,141,Park Road,25 March 2022,19 December 2026,5,5,Loughborough, LE11 2HD
100030457092,,247,Park Road,11 March 2024,10 March 2029,4,4,Loughborough, LE11 2HE
100030457095,,251,Park Road,11 March 2024,10 March 2029,3,3,Loughborough, LE11 2HE
100030457637,,181,Park Road,01 November 2019,01 November 2024,6,6,Loughborough, LE11 2HE
10095778715,,7a,Park Street,01 March 2024,28 February 2029,6,6,Loughborough, LE11 2EG
100030456969,,72,Park Street,29 February 2024,28 February 2029,4,4,Loughborough,LE11 2HH
10012189941,,1a,Parklands Drive,21 February 2024,20 February 2029,4,4,Loughborough, LE11 2SZ
100030457360,,4,Parklands Drive,11 March 2024,10 March 2029,3,3,Loughborough, LE11 2TB
100030457775,,17,Patterdale Drive,15 March 2019,15 March 2024,6,6,Loughborough, LE11 3RT
10023776224,Flat 128,124-138,Peel Drive,21 November 2023,20 November 2028,5,1,Loughborough, LE11 1DF
100030457776,Flat 130,124-138,Peel Drive,18 March 2024,17 March 2029,4,1,Loughborough, LE11 1DF
10008151594,,11,Pen Lane Avenue,01 November 2018,01 November 2023,6,6,Birstall, LE4 3NL
10091075633,,25,Pinfold Gate,18 March 2024,17 March 2029,4,1,Loughborough, LE11 1BE
100030458267,,18b,Pinfold Gate,17 April 2019,17 April 2024,5,5,Loughborough, LE11 1BE
100032039083,,18a,Pinfold Gate,27 March 2024,26 March 2029,4,4,Loughborough, LE11 1BE
100030458155,Flat 1,8,Pinfold Jetty,08 March 2024,07 March 2029,4,1,Loughborough, LE11 1BQ
100030458156,Flat 2,8,Pinfold Jetty,08 March 2024,07 March 2029,4,1,Loughborough, LE11 1BQ
10093365919,,6,Pleasant Close,04 March 2024,03 March 2029,4,4,Loughborough, LE11 5BF
100030458275,,15,Pleasant Close,18 March 2024,18 March 2029,5,5,Loughborough, LE11 5BF
100030458275,,15,Pleasant Close,25 October 2018,25 October 2023,5,5,Loughborough, LE11 5BF
100030458876,,1,Purnell Walk,01 March 2024,28 February 2029,6,1,Loughborough, LE11 1FR
100093365920,,2,Purnell Walk,29 February 2024,28 February 2029,6,1,Loughborough, LE11 1FR
100093365921,,3,Purnell Walk,29 February 2024,28 February 2029,6,1,Loughborough, LE11 1FR
100093365922,,4,Purnell Walk,29 February 2024,28 February 2029,7,1,Loughborough, LE11 1FR
100093365923,,5,Purnell Walk,29 February 2024,28 February 2029,7,1,Loughborough, LE11 1FR
100093365924,,6,Purnell Walk,29 February 2024,28 February 2029,7,1,Loughborough, LE11 1FR
100093365925,,7,Purnell Walk,29 February 2024,28 February 2029,7,1,Loughborough, LE11 1FR
100093365926,,8,Purnell Walk,29 February 2024,28 February 2024,6,1,Loughborough, LE11 1FR
100093365927,,9,Purnell Walk,29 February 2024,28 February 2029,6,6,Loughborough, LE11 1FR
10012191454,Apartment 8,Crown Apartments,Queens Street,27 February 2024,26 February 2029,6,1,Loughborough, LE11 1AG
10004000058,4 Towles Mill,,Queens Road,06 September 2023,05 September 2028,7,7,Loughborough,LE11 1GG
10004000055,,61,Queens Road,08 March 2024,07 March 2029,4,4,Loughborough, LE11 1HA
10004000057,2 Towles Mill,,Queens Road,18 July 2019,08 December 2023,6,6,Loughborough, LE11 1GG
10004000059,5 Towles Mill,,Queens Road,10 June 2020,10 June 2025,6,6,Loughborough, LE11 1GG
10004000060,6 Towles Mill,,Queens Road,11 November 2018,11 November 2023,6,6,Loughborough, LE11 1GG
10004000061,7 Towles Mill,,Queens Road,14 September 2019,14 September 2024,6,6,Loughborough, LE11 1GG
10004000062,8 Towles Mill,,Queens Road,20 October 2019,20 October 2024,6,6,Loughborough, LE11 1GG
10004000063,9 Towles Mill,,Queens Road,23 January 2020,13 September 2024,6,6,Loughborough, LE11 1GG
10004000064,10 Towles Mill,,Queens Road,27 February 2024,26 February 2029,6,6,Loughborough, LE11 1GG
10004000065,11 Towles Mill,,Queens Road,08 November 2019,15 February 2024,6,6,Loughborough, LE11 1GG
10004000066,12 Towles Mill,,Queens Road,05 January 2023,04 January 2028,5,5,Loughborough, LE11 1GG
10004000067,14 Towles Mill,,Queens Road,29 May 2019,29 May 2024,6,6,Loughborough, LE11 1GG
10012191460,15 Towles Mill,,Queens Road,09 December 2018,09 December 2023,6,6,Loughborough, LE11 1GG
100030458841,,13,Queens Road,28 March 2024,27 March 2029,10,1,Loughborough, LE11 1HA
100030458870,,49,Queens Road,24 March 2020,24 March 2025,5,5,Loughborough, LE11 1HA
10070073454,Apartment 4,Crown Apartments,Queens Street,16 February 2024,15 February 2024,8,1,Loughborough, LE11 1AG
10070073456,"Apartment 14, ",Crown Apartments,Queens Street,06 November 2023,05 November 2028,5,1,Loughborough, LE11 1AG
10070073458,Apartment 8,1,Racecourse Mews,24 October 2023,23 October 2028,6,1,Loughborough,LE11 5AR
10070073459,"Apartment 14, ",1,Racecourse Mews,16 February 2024,15 February 2029,4,1,Loughborough, LE11 5AR
10070073461,Apartment 10,1,Racecourse Mews,11 January 2024,10 January 2029,2,2,Loughborough, LE11 5AR
10070073462,Apartment 12,1,Racecourse Mews,08 February 2024,07 February 2029,4,1,Loughborough, LE11 5AR
10070073463,Apartment 18,1,Racecourse Mews,11 March 2024,10 March 2029,6,1,Loughborough,LE11 5AR
100030458912,Apartment 16,1,Racecourse Mews,23 October 2023,22 October 2028,6,1,Loughborough, LE11 5AR
100030458913,Apartment 17,1,Racecourse Mews,29 February 2024,28 February 2029,5,1,Loughborough,LE11 5AR
1095777207,Flat 1,37,Radmoor Road,18 April 2019,18 April 2024,8,8,Loughborough, LE11 3BP
10004001118,Flat 2,37,Radmoor Road,13 October 2023,12 October 2028,6,6,Loughborough, LE11 3BP
10095777206,,29,Radmoor Road,20 November 2020,10 March 2025,7,7,Loughborough, LE11 3BP
100030458915,,3,Radmoor Road,18 September 2020,18 September 2025,6,6,Loughborough, LE11 3BP
100030458916,,4,Radmoor Road,05 February 2019,05 February 2024,5,5,Loughborough, LE11 3BS
100030458917,,6,Radmoor Road,01 November 2019,01 November 2024,5,5,Loughborough, LE11 3BS
100030458918,,7,Radmoor Road,10 May 2019,10 May 2024,6,6,Loughborough, LE11 3BP
100030458923,,8,Radmoor Road,18 November 2023,17 November 2028,4,4,Loughborough, LE11 3BP
100030458928,,13,Radmoor Road,21 October 2018,21 October 2023,6,6,Loughborough, LE11 3BP
100030458932,,21,Radmoor Road,14 March 2024,13 March 2029,6,6,Loughborough, LE11 3BP
100030458932,,18,Radmoor Road,04 July 2023,12 November 2027,6,6,Loughborough, LE11 3BS
100030458935,,20,Radmoor Road,01 October 2019,29 December 2023,6,6,Loughborough, LE11 3BS
100030458937,,24,Radmoor Road,07 September 2023,18 December 2027,6,6,Loughborough, LE11 3BP
100030458939,,25,Radmoor Road,11 March 2020,29 October 2024,6,6,Loughborough, LE11 3BP
100030458940,,26,Radmoor Road,07 September 2023,19 December 2027,5,5,Loughborough, LE11 3BP
100030458943,,28,Radmoor Road,08 October 2023,07 October 2028,6,5,Loughborough, LE11 3BP
100030459208,,57,Radmoor Road,25 January 2019,25 January 2024,6,6,Loughborough, LE11 3BP
 100030458926,,9,Radmoor Road,28 August 2020,25 July 2025,6,6,Loughborough, LE11 3BP
100030459220 ,,55,Radmoor Road,21 February 2019,21 February 2024,6,6,Loughborough, LE11 3BP
10004001119,,37,Radmoor Road ,14 October 2023,13 October 2028,5,5,Loughborough, LE11 3BP
10013598390,,16,Radmoor Road ,08 November 2023,07 November 2028,7,7,Loughborough, LE11 3BS
100030458922,,12,Radmoor Road ,14 March 2024,13 March 2029,8,8,Loughborough, LE11 3BS
100030458924,,14,Radmoor Road ,14 March 2024,13 March 2029,8,8,Loughborough, LE11 3BS
100030459320,,121,Ratcliffe Road,16 January 2024,15 February 2029,9,1,Loughborough, LE11 1LG
100030459322,,123a,Ratcliffe Road,13 March 2024,12 March 2029,3,1,Loughborough, LE11 1LG
100032039038,,123,Ratcliffe Road,04 March 2024,03 March 2029,5,1,Loughborough, LE11 1LG
10013598407,Apartment 2,156,Ratcliffe Road,11 March 2024,10 March 2029,2,1,Loughborough, LE11 1LH
10013598411,Apartment 6,156,Ratcliffe Road,14 March 2024,13 March 2029,4,1,Loughborough, LE11 1LH
10013598412,,112,Ratcliffe Road,01 March 2024,28 February 2029,3,1,Loughborough, LE11 1LH
10013598412,Apartment 7,156,Ratcliffe Road,16 February 2024,15 February 2029,2,1,Loughborough, LE11 1LH
10013598417,Apartment 12,156,Ratcliffe Road,25 March 2024,24 March 2029,4,1,Loughborough, LE11 1LH
100030459216,,15,Ratcliffe Road,07 March 2024,06 March 2029,8,1,Loughborough, LE11 1LF
100030459222,,7,Ratcliffe Road,20 February 2024,19 February 2029,8,1,Loughborough, LE11 1LQ
100030459224,,18,Ratcliffe Road,26 February 2024,25 February 2029,9,1,Loughborough, LE11 1LQ
100030459233,,31,Ratcliffe Road,19 March 2024,18 March 2029,8,1,Loughborough, LE11 1LF
100030459249,,20,Ratcliffe Road,30 August 2023,30 October 2027,6,6,Loughborough, LE11 1LQ
100030459251,,44,Ratcliffe Road,15 February 2024,14 February 2029,8,1,Loughborough, LE11 1LQ
100030459255,,47,Ratcliffe Road,16 August 2018,16 August 2023,5,5,Loughborough, LE11 1LF
100030459257,,49,Ratcliffe Road,25 March 2024,24 March 2029,5,5,Loughborough, LE11 1LF
100030459291,,89,Ratcliffe Road,25 March 2024,24 March 2029,8,1,Loughborough, LE11 1LG
100030459300,,55,Ratcliffe Road,23 October 2023,22 October 2028,8,1,Loughborough, LE11 1LF
100030459303,,84,Ratcliffe Road,16 February 2024,15 February 2029,4,1,Loughborough, LE11 1LH
100030459310,,101,Ratcliffe Road,09 September 2018,09 September 2023,6,6,Loughborough, LE11 1LG
100030459321,,105,Ratcliffe Road,14 September 2023,13 September 2028,6,6,Loughborough, LE11 1LG
100030459321,,122,Ratcliffe Road,11 March 2024,10 March 2029,5,5,Loughborough, LE11 1LH
100030459246 ,,22,Ratcliffe Road,11 March 2020,31 May 2024,6,6,Loughborough, LE11 1LQ
10013598409,Apartment 4 ,156,Ratcliffe Road ,18 March 2024,17 March 2029,4,1,Loughborough, LE11 1LH
10013598421,Apartment 16,156,Ratcliffe Road ,18 March 2024,17 March 2029,4,1,Loughborough, LE11 1LH
100013598418,Apartment 13,156,Ratcliffe Road ,18 March 2024,17 March 2029,2,1,Loughborough, LE11 1LH
100030459286 ,,53,Ratcliffe Road ,31 October 2023,30 October 2028,9,1,Loughborough, LE11 1LF
10070073219,Apartment 2 ,1,Rectory Place,07 March 2024,06 March 2029,4,1,Loughborough, LE11 1UW
10070073220,Apartment 3,1,Rectory Place,07 March 2024,06 March 2029,4,1,Loughborough, LE11 1UW
10070073221,Apartment 4 ,1,Rectory Place,07 March 2024,06 March 2029,4,1,Loughborough, LE11 1UW
10070073222,Apartment 5 ,1,Rectory Place,11 March 2024,10 March 2029,4,1,Loughborough, LE11 1UW
10070073223,Apartment 6 ,1,Rectory Place,11 March 2024,10 March 2029,5,1,Loughborough, LE11 1UW
100030459465,,25,Rectory Place,08 February 2022,07 February 2027,6,6,Loughborough, LE11 1UW
100030459583,,25a,Rectory Place,08 February 2022,07 February 2027,6,6,Loughborough, LE11 1UW
100030459469,,11a,Rectory Road,12 March 2024,11 March 2029,4,1,Loughborough, LE11 1PL
100030459470,,11,Rectory Road,11 March 2024,10 March 2029,4,1,Loughborough, LE11 1PL
100070073218,Apartment 1,1,Rectory Road,14 March 2024,13 March 2029,4,1,Loughborough, LE11 1UW
100030459560 ,,7,Rectory Road,02 August 2021,28 June 2026,6,6,Loughborough, LE11 1PL
10004000784 ,,27,Rendell Street,16 February 2024,15 February 2029,8,1,Loughborough, LE11 1LJ
10004000785,,105,Rendell Street,30 April 2021,16 December 2025,5,5,Loughborough, LE11 1LJ
100030459544,,6,Rendell Street,18 March 2024,17 March 2029,6,1,Loughborough, LE11 1LL
100030459601,,50,Rendell Street,29 February 2024,28 February 2029,8,1,Loughborough, LE11 1LL
10004000789,,8,Robin Mews,11 March 2024,10 March 2029,4,4,Loughborough, LE11 3HJ
10093366413,,3,Robin Mews,22 February 2024,21 February 2029,4,4,Loughborough, LE11 3HJ
10093366420,,4,Robin Mews,18 January 2024,17 January 2029,4,4,Loughborough, LE11 3HJ
10093366421,,2,Robinson Crescent,17 October 2023,16 October 2028,6,1,Loughborough, LE11 1SZ
10093366422,Flat 1,20,Robinson Crescent,27 February 2024,26 February 2029,6,1,Loughborough, LE11 1SZ
10093366423,Flat 2,20,Robinson Crescent,27 February 2024,26 February 2029,4,1,Loughborough, LE11 1SZ
10093366424,Flat 3,20,Robinson Crescent,27 February 2024,26 February 2029,4,1,Loughborough, LE11 1SZ
10093366425,Flat 4,20,Robinson Crescent,27 February 2024,26 February 2029,6,1,Loughborough, LE11 1SZ
10093366426,Flat 5,20,Robinson Crescent,27 February 2024,26 February 2029,4,1,Loughborough, LE11 1SZ
10093366428,Flat 7,20,Robinson Crescent,27 February 2024,26 February 2029,6,1,Loughborough, LE11 1SZ
10093366429,Flat 8,20,Robinson Crescent,16 February 2024,15 February 2029,4,1,Loughborough, LE11 1SZ
10093366430,Flat 11,20,Robinson Crescent,11 March 2024,10 March 2029,4,1,Loughborough, LE11 1SZ
10093366431,Flat 12,20,Robinson Crescent,14 March 2024,13 March 2029,4,1,Loughborough, LE11 1SZ
10093366433,Flat 1,22,Robinson Crescent,18 March 2024,17 March 2029,6,1,Loughborough, LE11 1TA
10093366434,Flat 2,22,Robinson Crescent,18 March 2024,17 March 2029,4,1,Loughborough, LE11 1TA
10093366442,Flat 10,22,Robinson Crescent,18 March 2024,17 March 2029,6,1,Loughborough, LE11 1TA
10093366443,Flat 11 ,22,Robinson Crescent,21 March 2024,20 March 2029,4,1,Loughborough, LE11 1TA
10093366444,Flat 12,22,Robinson Crescent,18 March 2024,17 March 2029,4,1,Loughborough, LE11 1TA
10094172544,,1,Robinson Crescent,04 March 2024,03 March 2029,7,1,Loughborough, LE11 1SX
10094172545,,3,Robinson Crescent,04 March 2024,03 March 2029,7,1,Loughborough, LE11 1SX
10094172546,,5,Robinson Crescent,04 March 2024,03 March 2029,7,1,Loughborough, LE11 1SX
10094172547,,7,Robinson Crescent,04 March 2024,03 March 2029,7,1,Loughborough, LE11 1SX
10094172548,,9,Robinson Crescent,04 March 2024,03 March 2029,7,1,Loughborough, LE11 1SX
10094172549,,11,Robinson Crescent,04 March 2024,03 March 2029,7,1,Loughborough, LE11 1SX
10094172551,,17,Robinson Crescent,04 March 2024,03 March 2029,7,1,Loughborough, LE11 1SX
100030460129,Flat 10,20,Robinson Crescent,01 March 2024,28 February 2029,6,1,Loughborough, LE11 1SZ
100030460131,Flat 9,20,Robinson Crescent,27 February 2024,26 February 2029,4,1,Loughborough, LE11 1SZ
10093366427 ,Flat 6,20,Robinson Crescent,27 February 2024,26 February 2029,4,1,Loughborough, LE11 1SZ
100030000000,,39,Rosebery Street,19 December 2023,07 March 2028,5,5,Loughborough, LE11 5DX
100030460153,,39a,Rosebery Street,27 July 2023,26 July 2028,5,5,Loughborough, LE11 5DX
100030460154,,41,Rosebery Street,08 March 2024,07 March 2029,4,4,Loughborough, LE11 5DX
100030460138,,6,Rosebery Street,07 March 2024,06 March 2029,4,3,Loughborough, LE11 5DX
100030460139,,10,Rosebery Street,16 February 2024,15 February 2029,4,4,Loughborough, LE11 5DX
100030460141,,14,Rosebery Street,08 November 2023,07 November 2028,4,4,Loughborough, LE11 5DX
100030460143,,29,Rosebery Street,,,,,Loughborough, LE11 5DX
100030460146,,13,Rosebery Street,08 January 2024,07 January 2029,3,3,Loughborough, LE11 5DX
100030460149,,16,Rosebery Street,06 March 2024,05 March 2029,4,4,Loughborough, LE11 5DX
100030460150,,35,Rosebery Street,14 February 2023,14 June 2027,5,5,Loughborough, LE11 5DX
100030460155,,47,Rosebery Street,18 March 2022,17 March 2027,6,6,Loughborough, LE11 5DX
100030460156,,49,Rosebery Street,17 October 2023,16 October 2028,4,4,Loughborough, LE11 5DX
100030460157,,51,Rosebery Street,04 January 2024,03 January 2029,4,4,Loughborough, LE11 5DX
100030460435,,53,Rosebery Street,18 December 2023,17 December 2028,4,4,Loughborough, LE11 5DX
100030460436,,55,Rosebery Street,21 December 2023,20 December 2028,4,4,Loughborough, LE11 5DX
100030460135 ,,4,Rosebery Street,30 October 2019,30 October 2024,6,6,Loughborough, LE11 5DX
100030460438,,12,Royland Road,27 September 2019,27 September 2024,6,6,Loughborough, LE11 2EH
100030460439,,14,Royland Road,26 July 2022,25 July 2027,7,7,Loughborough, LE11 2EH
100030460440,,18,Royland Road,08 November 2023,07 November 2028,6,6,Loughborough, LE11 2EH
100030460442,,20,Royland Road,11 December 2023,25 April 2028,6,6,Loughborough, LE11 2EH
100030460443,,22,Royland Road,04 July 2019,04 July 2024,6,6,Loughborough, LE11 2EH
100030460445,,32,Royland Road,18 March 2024,17 March 2029,6,6,Loughborough, LE11 2EH
100030460447,,26,Royland Road,03 January 2024,02 January 2029,4,4,Loughborough, LE11 2EH
100030460448,,28,Royland Road,09 March 2022,08 March 2027,6,6,Loughborough, LE11 2EH
100030460449,,40,Royland Road,14 March 2024,13 March 2029,6,6,Loughborough, LE11 2EH
100030460450,,36,Royland Road,21 November 2018,21 November 2023,5,5,Loughborough, LE11 2EH
100030460486,,38,Royland Road,21 November 2018,21 November 2023,5,5,Loughborough, LE11 2EH
100030460506,,42,Royland Road,13 December 2023,25 March 2028,6,6,Loughborough, LE11 2EH
100030460497,,4,Rupert Brooke Road,27 May 2020,27 May 2025,5,5,Loughborough, LE11 4NJ
100030460680,,23,Rupert Brooke Road,28 February 2024,27 February 2029,4,4,Loughborough, LE11 4NJ
100030460565 ,,14,Rupert Brooke Road,23 October 2023,22 October 2028,3,3,Loughborough, LE11 4NJ
100030460529,,3,Russell Street,08 April 2024,07 April 2029,8,1,Loughborough, LE11 1BH
100030460532,,5,Russell Street,16 February 2024,15 February 2029,4,1,Loughborough, LE11 1BH
100030460542,,14,Russell Street,20 March 2024,19 March 2029,8,1,Loughborough, LE11 1BH
100030460580,Flat 53a,53-57a,Russell Street,18 March 2024,17 March 2029,4,1,Loughborough, LE11 1BH
100030460706,,37,Russell Street,16 February 2024,15 February 2024,7,1,Loughborough, LE11 1BH
10013598395,,92,Rydal Avenue,05 March 2024,04 March 2029,4,4,Loughborough, LE11 3RX
100030460708,,5,Rydal Avenue,06 December 2018,06 December 2023,5,5,Loughborough, LE11 3RU
100030460725,,52,Rydal Avenue,30 April 2019,30 April 2024,6,6,Loughborough, LE11 3RX
100030460745,,50,Rydal Avenue,07 December 2023,06 December 2028,4,4,Loughborough, LE11 3RX
100030460760,,69,Rydal Avenue,02 May 2019,02 May 2024,6,6,Loughborough, LE11 3RU
10013598397,,30a,Salisbury Street,11 March 2024,10 March 2029,6,1,Loughborough, LE11 1HF
10013598398,,30,Salisbury Street,26 February 2024,25 February 2029,6,1,Loughborough, LE11 1HF
10013598399,Flat 1,32,Salisbury Street,23 February 2024,22 February 2029,6,1,Loughborough, LE11 1HF
10013598400,Flat 2,32,Salisbury Street,28 February 2024,27 February 2029,3,1,Loughborough, LE11 1HF
10013598401,Flat 3,32,Salisbury Street,11 March 2024,10 March 2029,5,1,Loughborough, LE11 1HF
10013598402,Flat 6,32,Salisbury Street,14 March 2024,13 March 2029,4,1,Loughborough, LE11 1HF
100030460761,,3,Salisbury Street,11 March 2024,10 March 2029,6,1,Loughborough, LE11 1HF
100030460970,Flat 5,32,Salisbury Street,07 December 2023,06 December 2028,4,1,Loughborough, LE11 1HF
100030460975,Flat 4,32,Salisbury Street,07 December 2023,06 December 2028,6,1,Loughborough, LE11 1HF
10013598394 ,,2,Salisbury Street,08 November 2023,07 November 2028,6,1,Loughborough, LE11 1HF
10093366752,,16,Schofield Road,16 July 2019,16 July 2024,5,5,Loughborough, LE11 4QJ
100030460980,,4,Schofield Road,19 October 2018,19 October 2023,6,6,Loughborough, LE11 4QJ
100030460982,,9,Schofield Road,10 February 2024,09 February 2029,3,3,Loughborough, LE11 4QH
100030461009,,14,Schofield Road,06 December 2023,18 October 2028,6,6,Loughborough, LE11 4QJ
100030461073,Flat 3,45,Schofield Road,08 May 2019,08 May 2024,5,5,Loughborough, LE11 4QH
10070065647,,23,School Street ,16 February 2024,15 February 2029,8,1,Loughborough, LE11 1BP
100030461064,,13,School Street ,05 March 2024,04 March 2028,6,1,Loughborough, LE11 1BP
100030461074,,22,School Street ,15 February 2024,14 February 2029,9,1,Loughborough, LE11 1BP
100030461078,,27,School Street ,11-March-24,10-Mar-29,8,1,Loughborough, LE11 1BP
100030461307,,26,School Street ,15 November 2023,14 November 2028,2,1,Loughborough, LE11 1BP
100093366751,Flat 2,26,School Street ,21 March 2024,20 March 2029,2,1,Loughborough, LE11 1BP
100030461434 ,,252b,Seagrave Road,13 December 2021,12 December 2026,6,5,Sileby, LE12 7NJ
10004001258,,29a,Selbourne Street,02 November 2023,01 November 2028,9,1,Loughborough, LE11 1BS
10004001259,,11,Shakespeare Street,15 January 2024,04 February 2029,5,1,Loughborough, LE11 1QQ
10004001260,Flat 2,15,Shakespeare Street,06 March 2024,05 March 2029,5,1,Loughborough, LE11 1QQ
100030461439,Flat 1,6,Shakespeare Street,26 February 2024,25 February 2029,2,2,Loughborough, LE11 1QQ
100030461446,,18,Shakespeare Street,11 March 2024,10 March 2029,7,1,Loughborough, LE11 1QQ
100030461456,Flat 3,15,Shakespeare Street,15 February 2024,14 February 2029,2,2,Loughborough, LE11 1QQ
100030461464,,15,Shakespeare Street,16 February 2024,15 February 2029,2,2,Loughborough, LE11 1QQ
100030461487,,28,Shakespeare Street,20 July 2022,23 February 2027,6,6,Loughborough, LE11 1QQ
10003046155,,126,Sharpley Road,13 March 2024,12 March 2029,4,4,Loughborough, LE11 4BW
10004001260,,189,Sharpley Road,28 March 2024,27 March 2029,5,5,Loughborough, LE11 4PL
100030461462,,3,Sharpley Road,07 March 2024,06 March 2024,4,4,Loughborough, LE11 1QQ
100030461503,,7,Sharpley Road,07 September 2023,06 September 2028,5,5,Loughborough, LE11 4PJ
100030461538,,62,Sharpley Road,23 February 2024,22 February 2029,5,4,Loughborough, LE11 4PN
100030461563,,78,Sharpley Road,14 December 2018,14 December 2023,5,5,Loughborough, LE11 4PN
100030461580,,134,Sharpley Road,28 March 2024,27 March 2029,5,5,Loughborough, LE11 4PW
100030461581,,113,Sharpley Road,25 January 2019,25 January 2024,5,5,Loughborough, LE11 4PL
100030461587,,151,Sharpley Road,11 January 2024,10 January 2029,3,3,Loughborough, LE11 4PL
100030461613,,184,Sharpley Road,18 March 2024,17 March 2029,3,3,Loughborough, LE11 4PW
100030461618,,152,Sharpley Road,07 March 2024,06 March 2029,3,3,Loughborough, LE11 4PW
100030461625,,196,Sharpley Road,14 March 2024,13 March 2029,4,4,Loughborough, LE11 4PW
100030461762,,158,Sharpley Road,18 January 2024,17 January 2029,4,4,Loughborough, LE11 4PW
100030461652,,22,Shelley Street,06 March 2024,03 May 2024,3,3,Loughborough, LE11 5LD
10070075154,,29,Shelthorpe Road,22 February 2024,21 February 2029,7,7,Loughborough, LE11 2PB
100030461778,,13,Shelthorpe Road,10 May 2023,01 March 2027,6,5,Loughborough, LE11 2PB
100030462254,,19,Shelthorpe Road,16 February 2024,15 February 2029,2,2,Loughborough, LE11 2PB
100030462254,,10,Silverton Road,14 March 2024,13 March 2029,5,5,Loughborough, LE11 2RJ
100030462368,Flat 2 ,30,Soar Road,25 June 2019,25 June 2024,5,5,Quorn, LE12 8BW
10070068523,Flat 4,14,Sparrow Hill,29 February 2024,28 February 2029,1,1,Loughborough, LE11 1GH
10070068526,Flat 5,14,Sparrow Hill,,,,,Loughborough, LE11 1GH
100030462511,,3,Sparrow Hill,13 March 2024,12 March 2029,8,1,Loughborough, LE11 1BT
100030462526,Flat 2 ,14,Sparrow Hill,29 February 2024,28 February 2029,1,1,Loughborough, LE11 1GH
100030462534,,14,Sparrow Hill,28 February 2024,27 February 2029,1,1,Loughborough, LE11 1GH
100030462894,,61,Sparrow Hill,23 October 2018,22 October 2023,6,6,Loughborough, LE11 1BU
10070068527 ,Flat 6,,Sparrow Hill,28 February 2024,27 February 2029,4,1,Loughborough, LE11 1BT
100030462531,,1,Speeds Pingle,04 March 2024,03 March 2024,4,4,Loughborough, LE11 5BN
100030462916,,4,Speeds Pingle,31 October 2023,30 October 2028,4,4,Loughborough, LE11 5BN
100030463045,,12,Squirrel Way,24 December 2018,24 December 2023,6,6,Loughborough, LE11 3GP
100030462908,,3,Stanford Hill,13 March 2024,12 March 2029,5,1,Loughborough, LE11 1LX
100030462914,,9,Stanford Hill,18 March 2024,17 March 2029,5,1,Loughborough, LE11 1LX
100030463049,,11,Stanford Hill,03 October 2028,02 October 2028,4,1,Loughborough, LE11 1LX
54850126650,,79,Station Street,19 February 2024,18 February 2029,4,4,Loughborough, LE11 5EF
100030463047,,11a,Station Street,31 October 2023,30 October 2028,4,4,Loughborough, LE11 5ED
100030463048,,13,Station Street,25 March 2024,24 March 2029,4,4,Loughborough,Le11 5ED
100030463049,,14,Station Street,20 December 2023,19 December 2028,4,4,Loughborough, LE11 5ED
100030463050,,15,Station Street,13 December 2019,13 December 2024,5,5,Loughborough, LE11 5ED
100030463051,,12,Station Street,22 February 2024,21 February 2029,4,4,Loughborough, LE11 5ED
100030463052,,16,Station Street,28 February 2024,27 February 2029,4,4,Loughborough, LE11 5ED
100030463053,,18a,Station Street,28 March 2024,27 March 2029,4,4,Loughborough, LE11 5ED
100030463059,,17,Station Street,26 March 2021,25 March 2026,5,5,Loughborough, LE11 5ED
100030463060,,24,Station Street,11 March 2024,10 March 2029,3,3,Loughborough, LE11 5ED
100030463061,,23,Station Street,13 March 2020,01 June 2024,5,5,Loughborough, LE11 5ED
100030463067,,25,Station Street,07 August 2020,06 August 2025,5,5,Loughborough, LE11 5ED
100030463075,,37,Station Street,28 October 2023,27 October 2028,3,3,Loughborough, LE11 5ED
100030463077,,39,Station Street,18 January 2019,18 January 2024,5,5,Loughborough, LE11 5ED
100030463078,,60,Station Street,28 October 2023,27 October 2028,4,4,Loughborough, LE11 5EE
100030463091,,49,Station Street,10 January 2020,10 January 2025,5,5,Loughborough, LE11 5EE
100030463095,,67,Station Street,19 February 2024,18 February 2029,4,4,Loughborough, LE11 5EE
100030463096,,70,Station Street,19 February 2024,18 February 2029,4,4,Loughborough, LE11 5EE
100030463098,,72,Station Street,19 February 2024,18 February 2029,4,4,Loughborough, LE11 5EE
100030463100,,78,Station Street,28 February 2024,29-Feb-29,3,3,Loughborough, LE11 5EE
100030463105,,68,Station Street,19 February 2024,18 February 2029,3,3,Loughborough, LE11 5EE
100030463109,,63,Station Street,07 March 2024,06 March 2029,4,4,Loughborough, LE11 5EE
100030463112,,85,Station Street,25 March 2024,24 March 2029,4,4,Loughborough, LE11 5EF
100030463120,,82,Station Street,08 March 2021,25 July 2025,5,5,Loughborough, LE11 5EF
100030463121,,100,Station Street,08 March 2024,07 March 2029,4,4,Loughborough, LE11 5EG 
100030463127,,87,Station Street,04 January 2024,03 January 2029,4,4,Loughborough, LE11 5EF
100030463133,,93,Station Street,29 February 2024,28 February 2029,3,3,Loughborough, LE11 5EF
100030463140,,112,Station Street,18 December 2023,17 December 2028,4,4,Loughborough, LE11 5EG 
100030463141,,114,Station Street,06 December 2023,05 December 2028,3,3,Loughborough, LE11 5EG
100030463148,,113,Station Street,18 December 2023,17 December 2028,4,4,Loughborough, LE11 5EG
100030463151,,120,Station Street,22 February 2024,21 February 2029,4,4,Loughborough, LE11 5EG
100030463157,,121,Station Street,08 March 2024,07 March 2029,3,3,Loughborough, LE11 5EG
100030463160,,132,Station Street,01 October 2018,01 October 2023,5,5,Loughborough, LE11 5EG
100030463147 ,,124,Station Street,08 November 2023,07 November 2028,3,3,Loughborough, LE11 5EG
100032038988 ,,133,Station Street,10 September 2023,09 October 2028,6,6,Loughborough, LE11 5EG
100030463088,,50,Station Street,05 February 2024,04 February 2029,3,3,Loughborough,LE11 5EE
100030463073,,31,Station Street ,04 March 2024,03 March 2029,4,4,Loughborough, LE11 5ED
100030463089,,61,Station Street ,18 March 2024,17 March 2029,3,3,Loughborough, LE11 5EE
100030463114,,94,Station Street ,10 February 2024,09 February 2029,4,3,Loughborough, LE11 5EF
100030463139,,106,Station Street ,28 February 2024,27 February 2029,4,4,Loughborough, LE11 5EG 
100030463154,,127,Station Street ,08 October 2023,07 October 2028,6,1,Loughborough, LE11 5EG
100030463159,,130,Station Street ,07 March 2024,06 March 2029,3,3,Loughborough, LE11 5EG
100030463235,Flat 76,73-78,Staveley Court,27 February 2024,26 February 2029,5,1,Loughborough, LE11 1HY
100032039013,Flat 65,61-66,Staveley Court,14 March 2024,13 March 2029,4,1,Loughborough, LE11 1HY
100032039025,Flat 42,41-46,Staveley Court,16 February 2024,15 February 2029,4,1,Loughborough, LE11 1HY
100030463292,,14,Stirling Avenue ,02 November 2023,01 November 2028,4,4,Loughborough, LE11 4LJ
100030430729,,37,Storer Road,07 September 2023,13 November 2027,5,5,Loughborough, LE11 5EH
100030431488,,13,Storer Road,16 June 2019,16 June 2024,6,6,Loughborough, LE11 5EQ
100030463292,,107,Storer Road,15 February 2021,25 July 2025,6,6,Loughborough, LE11 5EH
100030463295,,6,Storer Road,07 March 2024,07 March 2029,4,4,Loughborough, LE11 5EQ
100030463303,,5,Storer Road,17 September 2021,16 September 2026,11,11,Loughborough, LE11 5EQ
100030463309,,19,Storer Road,14 September 2023,13 September 2028,5,5,Loughborough, LE11 5EQ
100030463310,,25,Storer Road,23 February 2024,22 February 2029,6,6,Loughborough, LE11 5EQ
100030463311,,27,Storer Road,24 January 2019,24 January 2024,5,5,Loughborough, LE11 5EQ
100030463312,,29,Storer Road,26 February 2024,25 February 2029,4,4,Loughborough, LE11 5EQ
100030463314,,31,Storer Road,13 December 2023,25 March 2028,8,8,Loughborough, LE11 5EQ
100030463315,,39,Storer Road,11 March 2024,10 March 2029,3,3,Loughborough, LE11 5EH
100030463318,,41,Storer Road,08 October 2023,07 October 2028,5,5,Loughborough, LE11 5EH
100030463321,,43,Storer Road,04 October 2022,15 March 2027,5,5,Loughborough, LE11 5EH
100030463324,,49,Storer Road,29 June 2023,06 February 2028,6,6,Loughborough, LE11 5EH
100030463325,,53,Storer Road,20 August 2019,29 December 2023,6,6,Loughborough, LE11 5EH
100030463327,,55,Storer Road,28 January 2019,28 January 2024,6,6,Loughborough, LE11 5EH
100030463328,,57,Storer Road,13 March 2020,12 March 2025,5,5,Loughborough, LE11 5EH
100030463329,,59,Storer Road,07 July 2021,06 July 2026,5,5,Loughborough, LE11 5EH
100030463330,,61,Storer Road,20 December 2023,08 May 2028,6,6,Loughborough, LE11 5EH
100030463331,,63,Storer Road,15 March 2019,15 March 2024,6,6,Loughborough, LE11 5EH
100030463332,,67,Storer Road,14 March 2024,13 March 2029,3,3,Loughborough, LE11 5EH
100030463334,,65,Storer Road,05 March 2019,05 March 2024,5,5,Loughborough, LE11 5EH
100030463336,,71,Storer Road,29 March 2019,29 March 2024,5,5,Loughborough, LE11 5EH
100030463338,,75,Storer Road,25 January 2019,25 January 2024,5,5,Loughborough, LE11 5EH
100030463339,,79,Storer Road,19 July 2022,20 December 2026,6,6,Loughborough, LE11 5EH
100030463341,,81,Storer Road,24 August 2023,30 October 2027,5,5,Loughborough, LE11 5EH
100030463342,,85,Storer Road,08 October 2023,07 October 2028,5,5,Loughborough, LE11 5EH
100030463344,,87,Storer Road,19 May 2021,18 May 2026,6,6,Loughborough, LE11 5EH
100030463346,,103,Storer Road,17 October 2023,16 October 2028,3,3,Loughborough, LE11 5EH
100030463348,,99,Storer Road,11 March 2024,10 March 2029,4,4,Loughborough, LE11 5EH
100030463350,,95,Storer Road,31 October 2023,30 October 2028,4,4,Loughborough, LE11 5EH
100030463352,,91,Storer Road,10 September 2021,09 September 2026,5,5,Loughborough, LE11 5EH
100030463353,,109,Storer Road,14 March 2024,13 March 2029,4,4,Loughborough, LE11 5EH
100030463354,,111,Storer Road,11 March 2024,10 March 2029,4,4,Loughborough, LE11 5EH
100030463857,,1a,Storer Road,23 October 2023,22 November 2028,5,5,Loughborough, LE11 5EQ
100030463294,,1a,Storer Road ,23 October 2023,22 October 2028,6,5,Loughborough, LE11 5EQ
100030463849,,2,Tennyson Road,26 February 2024,25 February 2029,3,3,Loughborough, LE11 4LE
100030463857,,10,Tennyson Road,06 December 2018,06 December 2023,6,6,Loughborough, LE11 4LE
100030463859,,12,Tennyson Road,14 December 2018,14 December 2023,6,6,Loughborough, LE11 4LE
10012189550,,18a,The Rushes,18 March 2024,17 March 2029,8,8,Loughborough, LE11 5BE
10012192336,,19a,The Rushes,02 February 2024,01 February 2029,3,3,Loughborough, LE11 5BE
10012192337,,18b,The Rushes,01 March 2024,28 February 2029,2,1,Loughborough, LE11 5BE
10070068444,,11b,The Rushes,13 March 2024,12 March 2029,3,3,Loughborough, LE11 5BE
100030464468,,11a,The Rushes,13 March 2024,12 March 2029,4,4,Loughborough, LE11 5BE
100030464710,,19,Thomas Street,12 February 2024,11 February 2029,2,2,Loughborough, LE11 1SH
100030464700,,30,Thomas Street ,16 January 2024,15 January 2029,8,1,Loughborough, LE11 1SH
100030464714,,35,Thomas Street ,21 March 2024,20 March 2029,9,1,Loughborough, LE11 1SH
100030464749,,20,Thorpe Acre Road,15 February 2024,14 February 2029,4,4,Loughborough, LE11 4LF
100030465058,,45,Toothill Road,22 November 2019,22 November 2024,9,9,Loughborough, LE11 1PN
100030465060,,47,Toothill Road,07 August 2020,07 August 2025,8,8,Loughborough, LE11 1PN
100030465105,,91,Toothill Road,09 July 2019,09 July 2024,5,5,Loughborough, LE11 1PN
100030465111,,97,Toothill Road,05 June 2020,01 June 2024,5,5,Loughborough, LE11 1PN
100030437541,,10,Tuckers Road ,23 February 2024,22 February 2029,6,1,Loughborough, LE11 2PJ
100030465354,,40,Tuckers Road ,08 April 2024,07 April 2029,8,1,Loughborough, LE11 2PJ
100030465443,,153,Tuckers Road ,25 March 2024,24 March 2029,8,1,Loughborough, LE11 2PH
100030465329 ,,14,Tuckers Road ,22 February 2024,21 February 2029,5,1,Loughborough, LE11 2PJ
100030465500,,22,Turner Avenue,14 March 2024,13 March 2029,3,3,Loughborough,LE11 2DA
100030465331 ,,41,Tyler Avenue,28 February 2024,27 February 2029,4,4,Loughborough, LE11 5NL
100030465789,Flat 5,5,Valley Road,22 March 2019,22 March 2024,6,6,Loughborough, LE11 3PX
100030465841,,72,Valley Road,23 August 2019,02 March 2024,26,26,Loughborough, LE11 3QA
100030466013,,13,Victoria Street,23 February 2024,22 February 2029,6,6,Loughborough, LE11 2EN
100030466161,,26,Wallace Road,04 November 2019,04 November 2024,6,6,Loughborough, LE11 3NX
100030428997,,46,Wanlip Road,28 September 2023,21 March 2028,6,6,Syston, LE7 1PA
100030466317,,28,Warner Place,18 March 2024,17 March 2029,8,1,Loughborough,LE11 1SJ
100030466300 ,,6,Warner Place,06 February 2024,05 February 2029,8,1,Loughborough,LE11 1SJ
100030466514,Flat 16,13-24,Waterside Close,08 January 2024,07 January 2029,4,1,Loughborough, LE11 1LP
10094170208,,6,Webster Road,21 March 2024,20 March 2029,7,1,Loughborough, LE11 1RP
10094170203 ,,1,Webster Road,01 March 2024,28 February 2029,6,1,Loughborough, LE11 1RP
10094170210,,8,Webster RoadL,07 March 2024,03 March 2029,7,1,Loughborough, LE11 1RP
10094173600,Flat 22,14,Wellington Street,16 February 2024,15 February 2029,5,1,Loughborough,LE11 1BZ
100030466795, ,4,Westfield Drive,30 October 2018,30 October 2023,6,6,Loughborough, LE11 3QL
100030466798,,8,Westfield Drive,29 January 2019,29 January 2024,6,6,Loughborough, LE11 3QL
100030466811,,22,Westfield Drive,20 March 2024,19 March 2029,5,3,Loughborough, LE11 3QL
100030466855,,79,Westfield Drive,21 May 2019,21 May 2024,6,6,Loughborough, LE11 3QJ
100030466869,Flat 7,11,Westmorland Avenue,06 December 2018,06 December 2023,7,7,Loughborough, LE11 3RY
10008150860,The Carpenters Arms,,Wharncliffe Road,14 September 2023,04 November 2027,12,12,Loughborough, LE11 1SL
100030466954,,62,Wharncliffe Road,29 February 2024,28 February 2029,9,1,Loughborough, LE11 1SN
100030466978,,97,Wharncliffe Road,04 April 2023,03 April 2028,8,8,Loughborough, LE11 1SL
100030466993,,85,Wharncliffe Road,13 February 2024,12 February 2029,8,1,Loughborough, LE11 1SL
730026085773,,32,Wharncliffe Road,07 May 2021,06 May 2026,7,7,Loughborough, LE11 1SN
10093366447,,9,Wharncliffe Road,18 March 2024,17 March 2029,6,1,Loughborough,LE11 1SL
100030466938,,5,Wharncliffe Road,16 February 2024,15 February 2029,6,1,Loughborough, LE11 1SL
10091071210,Flat 2,2d,Wharncliffe Road,14 October 2023,13 October 2028,1,1,Loughborough,LE11 1SN
10091071210,Flat 2,2f,Wharncliffe Road,14 October 2023,13 October 2028,1,1,Loughborough,LE11 1SN
10008151648,,1,Wheel Tappers Way,15 July 2019,15 July 2024,5,4,Loughborough, LE11 5EA
10008151649,,3,Wheel Tappers Way,18 January 2019,18 January 2024,5,5,Loughborough, LE11 5EA
10008151651,,7,Wheel Tappers Way,16 December 2021,09 August 2026,5,5,Loughborough, LE11 5EA
10008151652,,9,Wheel Tappers Way,05 February 2019,05 February 2024,5,5,Loughborough, LE11 5EA
10008151650,,5,Wheel Tappers Way,12 February 2024,12 February 2024,3,3,Loughborough,LE11 5EA
100030467064,,1a,Whitegate,28 February 2024,27 February 2029,6,1,Loughborough, LE11 1FH
10030467801,,31,Whitehouse Avenue,24 October 2023,23 October 2028,8,1,Loughborough, LE11 2PN
10070073537,,14,Whitehouse Avenue,21 November 2023,20 November 2028,11,1,Loughborough, LE11 2PW
10004000206,,72,William Street,13 November 2019,13 November 2024,6,6,Loughborough, LE11 3BZ
10094174736,Apartment 10 Williams House,74,William Street,14 March 2024,13 March 2029,3,3,Loughborough, LE11 3BZ
100030467324,,35,William Street,23 October 2023,22 October 2028,5,4,Loughborough, LE11 3BX
100030467329,,29,William Street,02 February 2024,19 February 2029,5,4,Loughborough, LE11 3BX
100030467333,,39,William Street,22 March 2019,22 March 2024,5,5,Loughborough, LE11 3BX
100030467335,,41,William Street,08 January 2024,07 January 2029,4,4,Loughborough, LE11 3BX
100030467337,,45,William Street,09 May 2018,09 May 2023,5,5,Loughborough, LE11 3BX
100030467343,,51,William Street,13 September 2023,22 January 2028,5,5,Loughborough, LE11 3BX
100030467345,,53,William Street,21 September 2020,24 July 2025,6,6,Loughborough, LE11 3BX
100030467346,,55,William Street,29 October 2023,28 October 2028,6,6,Loughborough, LE11 3BX
100030467347,,57,William Street,22 May 2020,29 November 2024,6,6,Loughborough, LE11 3BX
100030467348,,59,William Street,29 June 2023,25 October 2027,6,6,Loughborough, LE11 3BX
100030467349,,61,William Street,04 February 2022,03 February 2027,6,6,Loughborough, LE11 3BX
100030467350,,63,William Street,04 August 2021,03 August 2026,6,6,Loughborough, LE11 3BX
100030467354,,71,William Street,08 March 2021,25 July 2025,6,6,Loughborough, LE11 3BX
100030467355,,73,William Street,01 November 2018,01 November 2023,6,6,Loughborough, LE11 3BX
100030467364,,91,William Street,18 December 2023,30 March 2028,5,5,Loughborough, LE11 3BY
100030467371,,105,William Street,09 November 2020,25 July 2025,6,6,Loughborough, LE11 3BY
100030467363 ,,89,William Street,08 February 2024,07 February 2029,4,4,Loughborough, LE11 3BY
100030467353,,69,William Street ,17 October 2023,16 October 2028,4,4,Loughborough, LE11 3BX
10094172336,,14,Windlass Close,21 February 2024,20 February 2029,7,1,Loughborough, LE11 1TB
10094170191,,4,Windmill Road,26 February 2024,25 February 2029,7,1,Loughborough, LE11 1RJ
100030467859,,4,Wolsey Way,21 November 2023,20 November 2028,5,1,Loughborough, LE11 1PR
100030468107,,38,Woodland Drive,06 March 2024,05 March 2029,3,3,Loughborough, LE11 2DD
100030468260,,43,Woodland Drive,23 February 2024,22 February 2029,3,3,Loughborough, LE11 2DB
100030468074,,5,Woodlands Drive,03 January 2024,02 January 2029,4,4,Loughborough, LE11 2DB
100030468083,,14,Woodlands Drive,27 March 2024,26 March 2029,5,5,Loughborough, LE11 2DD
100030468115,,46,Woodlands Drive,29 February 2024,28 February 2029,4,4,Loughborough, LE11 2DD
100030468112 ,,44,Woodlands Drive,13 February 2024,12 February 2029,4,4,Loughborough, LE11 2DD
100030468257,,5,Wordsworth Road,28 February 2024,27 February 2029,6,6,Loughborough, LE11 4LG
100030468113 ,,2,Wordsworth Road,29 February 2024,28 February 2029,3,3,Loughborough, LE11 4LQ
10004000796,,2,Wren Close,30 April 2021,29 April 2026,6,6,Loughborough, LE11 3HL
10004000797,,3,Wren Close,08 January 2024,07 January 2029,4,4,Loughborough, LE11 3HL
10004000798,,6,Wren Close,02 December 2020,24 July 2025,6,6,Loughborough, LE11 3HL
10004000799,,5,Wren Close,25 March 2024,24 March 2029,4,4,Loughborough, LE11 3HL
10004000800,,7,Wren Close,28 February 2024,27 February 2029,4,4,Loughborough, LE11 3HL
10004000801,,4,Wren Close,07 December 2020,06 December 2025,6,6,Loughborough, LE11 3HL
10004000802,,8,Wren Close,,,,,Loughborough, LE11 3HL
10004000804,,10,Wren Close,23 October 2023,22 October 2028,5,4,Loughborough, LE11 3HL
10004000805,,14,Wren Close,11 January 2024,10 January 2029,5,5,Loughborough, LE11 3HL
10004000806,,12,Wren Close,28 February 2024,27 February 2029,4,4,Loughborough, LE11 3HL
100030468432,,18,Wren Close,11 March 2024,10 March 2029,4,4,Loughborough, LE11 3HL
10004000808,,11,York Road,21 December 2023,20 December 2028,4,4,Loughborough, LE11 3DA
100030468435,,14,York Road,20 January 2021,20 January 2026,5,5,Loughborough, LE11 3DA
100030468437,,16,York Road,06 November 2019,01 June 2024,5,5,Loughborough, LE11 3DA
100030468439,,18,York Road,10 October 2023,09 October 2028,5,5,Loughborough, LE11 3DA
100030468440,,19,York Road,24 November 2021,23 November 2026,6,6,Loughborough, LE11 3DA
100030468443,,22,York Road,26 February 2024,25 February 2024,4,4,Loughborough, LE11 3DA
100030468444,,23,York Road,22 June 2023,28 October 2027,7,7,Loughborough, LE11 3DA
100030468446,,25,York Road,27 March 2024,26 March 2029,5,5,Loughborough, LE11 3DA
100030468448,,27,York Road,29 July 2021,28 July 2026,6,6,Loughborough, LE11 3DA
100030468449,,28,York Road,23 April 2021,30 December 2025,6,6,Loughborough, LE11 3DA
100030468450,,29,York Road,29 July 2021,28 July 2026,6,6,Loughborough, LE11 3DA
100030468451,,30,York Road,15 November 2018,15 November 2023,5,5,Loughborough, LE11 3DA
100030468452,,31,York Road,13 June 2023,30 October 2027,5,5,Loughborough, LE11 3DA
100030468453,,32,York Road,09 November 2018,09 November 2023,5,5,Loughborough, LE11 3DA
100030468454,,33,York Road,19 March 2021,03 October 2025,6,6,Loughborough, LE11 3DA
100030468455,,34,York Road,25 February 2020,13 September 2024,6,6,Loughborough, LE11 3DA
100030468456,,35,York Road,13 June 2023,04 November 2027,5,5,Loughborough, LE11 3DA
100030468457,,36,York Road,16 April 2021,30 December 2025,5,5,Loughborough, LE11 3DA
100030468458,,37,York Road,05 March 2024,04 March 2029,7,7,Loughborough, LE11 3DA
100030468460,,39,York Road,20 July 2022,23 February 2027,6,6,Loughborough, LE11 3DA
100030468462,,41,York Road,05 July 2022,15 March 2027,6,6,Loughborough, LE11 3DA
100030468472,,51,York Road,15 May 2019,15 May 2024,5,5,Loughborough, LE11 3DA
100030468474,,53,York Road,14 September 2023,12 November 2027,6,6,Loughborough, LE11 3DA
100030468475,,54,York Road,08 November 2018,08 November 2023,5,5,Loughborough, LE11 3DA
100030468479,,55,York Road,22 February 2024,21 February 2029,4,4,Loughborough, LE11 3DA
100030468476 ,,60,York Road,29 July 2019,29 July 2024,6,6,Loughborough, LE11 3DA
100030468479,,60,York Road,,,,,Loughborough,LE11 3DA
,,,,,,,,,
,,,,,,,,,
,,,,,,,,,
,,,,,,,,,
,,,,,,,,,
,,,,,,,,,
,,,,,,,,,
,,,,,,,,,
,,,,,,,,,
,,,,,,,,,
,,,,,,,,,
,,,,,,,,,
,,,,,,,,,
,,,,,,,,,
,,,,,,,,,
,,,,,,,,,
,,,,,,,,,
,,,,,,,,,
,,,,,,,,,
,,,,,,,,,
,,,,,,,,,
,,,,,,,,,
,,,,,,,,,
,,,,,,,,,
,,,,,,,,,
,,,,,,,,,
,,,,,,,,,
,,,,,,,,,
,,,,,,,,,
,,,,,,,,,
,,,,,,,,,
,,,,,,,,,
,,,,,,,,,
,,,,,,,,,
,,,,,,,,,
,,,,,,,,,
,,,,,,,,,
,,,,,,,,,
,,,,,,,,,
,,,,,,,,,
,,,,,,,,,
,,,,,,,,,
,,,,,,,,,
,,,,,,,,,
,,,,,,,,,
